<?xml version="1.0" encoding="UTF-8" standalone="no" ?>
<gpx xmlns="http://www.topografix.com/GPX/1/1" creator="www.strecken-messen.de" version="1.1"><metadata/><trk><trkseg><trkpt lat="46.644326140143896" lon="14.328658746635064"><ele>442</ele></trkpt><trkpt lat="-22.59372606392931" lon="140.7438328282299"><ele>undefined</ele></trkpt><trkpt lat="-49.15296965617039" lon="-73.5052913582995"><ele>undefined</ele></trkpt><trkpt lat="34.047539150672755" lon="-118.23770924449876"><ele>undefined</ele></trkpt><trkpt lat="40.734770989672406" lon="-73.93910091682778"><ele>undefined</ele></trkpt><trkpt lat="51.50513642494455" lon="0.056259659496591403"><ele>undefined</ele></trkpt></trkseg></trk></gpx>