<?xml version="1.0" encoding="UTF-8" standalone="no" ?>
<gpx xmlns="http://www.topografix.com/GPX/1/1" creator="www.strecken-messen.de" version="1.1"><metadata/><trk><trkseg><trkpt lat="46.609674555677444" lon="14.293533505246453"><ele>443</ele></trkpt><trkpt lat="46.609665" lon="14.293531"><ele>443</ele></trkpt><trkpt lat="46.609688" lon="14.293309"><ele>443</ele></trkpt><trkpt lat="46.609788" lon="14.292932"><ele>443</ele></trkpt><trkpt lat="46.609825" lon="14.292822"><ele>443</ele></trkpt><trkpt lat="46.610079" lon="14.292461"><ele>440</ele></trkpt><trkpt lat="46.610193" lon="14.2923"><ele>440</ele></trkpt><trkpt lat="46.610206" lon="14.292259"><ele>440</ele></trkpt><trkpt lat="46.610284" lon="14.292012"><ele>440</ele></trkpt><trkpt lat="46.610331" lon="14.291759"><ele>439</ele></trkpt><trkpt lat="46.610344" lon="14.291674"><ele>439</ele></trkpt><trkpt lat="46.610259" lon="14.291652"><ele>439</ele></trkpt><trkpt lat="46.610259" lon="14.291652"><ele>439</ele></trkpt><trkpt lat="46.610344" lon="14.291674"><ele>439</ele></trkpt><trkpt lat="46.610331" lon="14.291759"><ele>439</ele></trkpt><trkpt lat="46.609659" lon="14.291558"><ele>441</ele></trkpt><trkpt lat="46.609415" lon="14.291486"><ele>441</ele></trkpt><trkpt lat="46.608858" lon="14.291365"><ele>439</ele></trkpt><trkpt lat="46.608685" lon="14.291322"><ele>439</ele></trkpt><trkpt lat="46.608182" lon="14.291211"><ele>441</ele></trkpt><trkpt lat="46.608187" lon="14.291157"><ele>439</ele></trkpt><trkpt lat="46.608187" lon="14.291157"><ele>439</ele></trkpt><trkpt lat="46.608182" lon="14.291211"><ele>441</ele></trkpt><trkpt lat="46.607766" lon="14.291124"><ele>440</ele></trkpt><trkpt lat="46.607393" lon="14.291063"><ele>440</ele></trkpt><trkpt lat="46.60732" lon="14.291033"><ele>440</ele></trkpt><trkpt lat="46.607131" lon="14.290981"><ele>440</ele></trkpt><trkpt lat="46.607042" lon="14.29098"><ele>440</ele></trkpt><trkpt lat="46.607017" lon="14.290819"><ele>440</ele></trkpt><trkpt lat="46.606886" lon="14.290118"><ele>438</ele></trkpt><trkpt lat="46.606886" lon="14.290118"><ele>438</ele></trkpt><trkpt lat="46.606846" lon="14.289905"><ele>438</ele></trkpt><trkpt lat="46.606796" lon="14.289577"><ele>438</ele></trkpt><trkpt lat="46.606597" lon="14.289437"><ele>439</ele></trkpt><trkpt lat="46.606553" lon="14.289441"><ele>439</ele></trkpt><trkpt lat="46.606458" lon="14.28863"><ele>437</ele></trkpt><trkpt lat="46.606602" lon="14.28832"><ele>438</ele></trkpt><trkpt lat="46.606659" lon="14.288286"><ele>438</ele></trkpt><trkpt lat="46.606601" lon="14.287092"><ele>439</ele></trkpt><trkpt lat="46.606606" lon="14.286578"><ele>439</ele></trkpt><trkpt lat="46.606549" lon="14.286304"><ele>439</ele></trkpt><trkpt lat="46.606511" lon="14.285981"><ele>438</ele></trkpt><trkpt lat="46.606517" lon="14.285693"><ele>438</ele></trkpt><trkpt lat="46.606589" lon="14.284677"><ele>438</ele></trkpt><trkpt lat="46.606604" lon="14.28454"><ele>438</ele></trkpt><trkpt lat="46.606604" lon="14.28454"><ele>438</ele></trkpt><trkpt lat="46.606725" lon="14.28338"><ele>438</ele></trkpt><trkpt lat="46.606774" lon="14.282966"><ele>438</ele></trkpt><trkpt lat="46.606907" lon="14.282046"><ele>437</ele></trkpt><trkpt lat="46.607174" lon="14.280531"><ele>436</ele></trkpt><trkpt lat="46.607213" lon="14.280337"><ele>436</ele></trkpt><trkpt lat="46.607213" lon="14.280337"><ele>436</ele></trkpt><trkpt lat="46.607373" lon="14.279543"><ele>437</ele></trkpt><trkpt lat="46.607669" lon="14.278245"><ele>437</ele></trkpt><trkpt lat="46.607816" lon="14.277673"><ele>439</ele></trkpt><trkpt lat="46.607846" lon="14.277562"><ele>439</ele></trkpt><trkpt lat="46.607846" lon="14.277562"><ele>439</ele></trkpt><trkpt lat="46.607986" lon="14.277042"><ele>439</ele></trkpt><trkpt lat="46.608172" lon="14.276338"><ele>440</ele></trkpt><trkpt lat="46.608344" lon="14.275566"><ele>439</ele></trkpt><trkpt lat="46.608426" lon="14.275197"><ele>441</ele></trkpt><trkpt lat="46.608505" lon="14.274914"><ele>441</ele></trkpt><trkpt lat="46.608505" lon="14.274914"><ele>441</ele></trkpt><trkpt lat="46.608516" lon="14.274876"><ele>441</ele></trkpt><trkpt lat="46.608579" lon="14.274368"><ele>448</ele></trkpt><trkpt lat="46.608548" lon="14.274288"><ele>448</ele></trkpt><trkpt lat="46.60856" lon="14.274176"><ele>448</ele></trkpt><trkpt lat="46.608654" lon="14.274154"><ele>448</ele></trkpt><trkpt lat="46.608686" lon="14.273668"><ele>448</ele></trkpt><trkpt lat="46.608697" lon="14.273231"><ele>451</ele></trkpt><trkpt lat="46.608697" lon="14.273231"><ele>451</ele></trkpt><trkpt lat="46.608686" lon="14.273668"><ele>448</ele></trkpt><trkpt lat="46.608654" lon="14.274154"><ele>448</ele></trkpt><trkpt lat="46.608978" lon="14.274222"><ele>448</ele></trkpt><trkpt lat="46.608971" lon="14.274294"><ele>448</ele></trkpt><trkpt lat="46.609131" lon="14.274375"><ele>441</ele></trkpt><trkpt lat="46.609155" lon="14.274309"><ele>441</ele></trkpt><trkpt lat="46.609244" lon="14.274149"><ele>441</ele></trkpt><trkpt lat="46.609254" lon="14.274076"><ele>441</ele></trkpt><trkpt lat="46.609246" lon="14.273994"><ele>441</ele></trkpt><trkpt lat="46.609149" lon="14.273675"><ele>441</ele></trkpt><trkpt lat="46.608791" lon="14.27248"><ele>449</ele></trkpt><trkpt lat="46.608705" lon="14.272066"><ele>449</ele></trkpt><trkpt lat="46.608692" lon="14.271722"><ele>445</ele></trkpt><trkpt lat="46.608736" lon="14.271364"><ele>445</ele></trkpt><trkpt lat="46.608484" lon="14.271292"><ele>445</ele></trkpt><trkpt lat="46.60825" lon="14.271321"><ele>445</ele></trkpt><trkpt lat="46.608224" lon="14.271309"><ele>445</ele></trkpt><trkpt lat="46.608158" lon="14.271183"><ele>449</ele></trkpt><trkpt lat="46.608157" lon="14.271053"><ele>441</ele></trkpt><trkpt lat="46.6082" lon="14.271042"><ele>440</ele></trkpt><trkpt lat="46.60824" lon="14.270985"><ele>440</ele></trkpt><trkpt lat="46.607904" lon="14.269485"><ele>439</ele></trkpt><trkpt lat="46.607826" lon="14.269036"><ele>440</ele></trkpt><trkpt lat="46.607743" lon="14.268298"><ele>442</ele></trkpt><trkpt lat="46.607691" lon="14.267701"><ele>442</ele></trkpt><trkpt lat="46.607687" lon="14.266869"><ele>442</ele></trkpt><trkpt lat="46.607687" lon="14.266857"><ele>442</ele></trkpt><trkpt lat="46.607687" lon="14.266857"><ele>442</ele></trkpt><trkpt lat="46.607687" lon="14.266607"><ele>442</ele></trkpt><trkpt lat="46.607734" lon="14.266093"><ele>442</ele></trkpt><trkpt lat="46.607808" lon="14.265578"><ele>442</ele></trkpt><trkpt lat="46.607917" lon="14.265064"><ele>444</ele></trkpt><trkpt lat="46.607987" lon="14.265204"><ele>444</ele></trkpt><trkpt lat="46.608067" lon="14.264863"><ele>444</ele></trkpt><trkpt lat="46.608212" lon="14.26444"><ele>447</ele></trkpt><trkpt lat="46.608501" lon="14.263795"><ele>447</ele></trkpt><trkpt lat="46.608749" lon="14.263377"><ele>448</ele></trkpt><trkpt lat="46.608749" lon="14.263377"><ele>448</ele></trkpt><trkpt lat="46.608787" lon="14.263313"><ele>448</ele></trkpt><trkpt lat="46.609127" lon="14.262811"><ele>449</ele></trkpt><trkpt lat="46.609688" lon="14.262022"><ele>453</ele></trkpt><trkpt lat="46.610382" lon="14.261121"><ele>447</ele></trkpt><trkpt lat="46.610776" lon="14.260709"><ele>441</ele></trkpt><trkpt lat="46.610908" lon="14.260617"><ele>441</ele></trkpt><trkpt lat="46.610869" lon="14.260488"><ele>441</ele></trkpt><trkpt lat="46.610993" lon="14.260401"><ele>441</ele></trkpt><trkpt lat="46.610799" lon="14.260073"><ele>442</ele></trkpt><trkpt lat="46.610572" lon="14.259909"><ele>444</ele></trkpt><trkpt lat="46.610486" lon="14.25987"><ele>444</ele></trkpt><trkpt lat="46.610486" lon="14.25987"><ele>444</ele></trkpt><trkpt lat="46.609696" lon="14.259509"><ele>445</ele></trkpt><trkpt lat="46.609334" lon="14.259299"><ele>445</ele></trkpt><trkpt lat="46.60878" lon="14.258833"><ele>443</ele></trkpt><trkpt lat="46.60855" lon="14.258615"><ele>442</ele></trkpt><trkpt lat="46.608504" lon="14.258565"><ele>442</ele></trkpt><trkpt lat="46.608357" lon="14.258387"><ele>442</ele></trkpt><trkpt lat="46.608143" lon="14.258092"><ele>444</ele></trkpt><trkpt lat="46.608143" lon="14.258092"><ele>444</ele></trkpt><trkpt lat="46.607981" lon="14.25787"><ele>444</ele></trkpt><trkpt lat="46.607576" lon="14.257335"><ele>442</ele></trkpt><trkpt lat="46.607328" lon="14.256956"><ele>443</ele></trkpt><trkpt lat="46.606943" lon="14.256312"><ele>443</ele></trkpt><trkpt lat="46.606673" lon="14.255772"><ele>442</ele></trkpt><trkpt lat="46.606497" lon="14.255174"><ele>460</ele></trkpt><trkpt lat="46.606458" lon="14.254883"><ele>460</ele></trkpt><trkpt lat="46.606439" lon="14.254424"><ele>461</ele></trkpt><trkpt lat="46.606452" lon="14.254195"><ele>461</ele></trkpt><trkpt lat="46.606507" lon="14.253811"><ele>461</ele></trkpt><trkpt lat="46.606569" lon="14.253537"><ele>453</ele></trkpt><trkpt lat="46.606691" lon="14.253155"><ele>453</ele></trkpt><trkpt lat="46.606778" lon="14.252932"><ele>453</ele></trkpt><trkpt lat="46.606778" lon="14.252932"><ele>453</ele></trkpt><trkpt lat="46.606993" lon="14.252385"><ele>461</ele></trkpt><trkpt lat="46.60724" lon="14.251776"><ele>470</ele></trkpt><trkpt lat="46.607427" lon="14.251359"><ele>454</ele></trkpt><trkpt lat="46.607996" lon="14.250264"><ele>461</ele></trkpt><trkpt lat="46.608226" lon="14.249929"><ele>454</ele></trkpt><trkpt lat="46.608226" lon="14.249929"><ele>454</ele></trkpt><trkpt lat="46.608426" lon="14.249639"><ele>454</ele></trkpt><trkpt lat="46.608941" lon="14.248757"><ele>455</ele></trkpt><trkpt lat="46.609249" lon="14.248088"><ele>453</ele></trkpt><trkpt lat="46.609422" lon="14.247609"><ele>469</ele></trkpt><trkpt lat="46.60985" lon="14.246163"><ele>488</ele></trkpt><trkpt lat="46.610478" lon="14.244522"><ele>474</ele></trkpt><trkpt lat="46.610919" lon="14.243433"><ele>457</ele></trkpt><trkpt lat="46.611218" lon="14.242717"><ele>465</ele></trkpt><trkpt lat="46.611367" lon="14.242469"><ele>465</ele></trkpt><trkpt lat="46.611528" lon="14.242264"><ele>454</ele></trkpt><trkpt lat="46.611627" lon="14.242175"><ele>454</ele></trkpt><trkpt lat="46.611994" lon="14.241936"><ele>467</ele></trkpt><trkpt lat="46.612097" lon="14.241837"><ele>467</ele></trkpt><trkpt lat="46.612165" lon="14.241729"><ele>467</ele></trkpt><trkpt lat="46.612432" lon="14.24094"><ele>458</ele></trkpt><trkpt lat="46.612679" lon="14.240408"><ele>458</ele></trkpt><trkpt lat="46.612786" lon="14.240094"><ele>460</ele></trkpt><trkpt lat="46.612821" lon="14.239855"><ele>460</ele></trkpt><trkpt lat="46.612814" lon="14.239622"><ele>460</ele></trkpt><trkpt lat="46.612788" lon="14.239481"><ele>460</ele></trkpt><trkpt lat="46.612685" lon="14.239152"><ele>461</ele></trkpt><trkpt lat="46.612523" lon="14.238754"><ele>461</ele></trkpt><trkpt lat="46.612474" lon="14.23844"><ele>472</ele></trkpt><trkpt lat="46.612512" lon="14.238184"><ele>472</ele></trkpt><trkpt lat="46.612512" lon="14.238184"><ele>472</ele></trkpt><trkpt lat="46.61252" lon="14.238131"><ele>472</ele></trkpt><trkpt lat="46.612669" lon="14.237642"><ele>482</ele></trkpt><trkpt lat="46.61274" lon="14.237325"><ele>482</ele></trkpt><trkpt lat="46.612764" lon="14.237061"><ele>482</ele></trkpt><trkpt lat="46.61275" lon="14.236529"><ele>478</ele></trkpt><trkpt lat="46.61261" lon="14.235681"><ele>466</ele></trkpt><trkpt lat="46.612491" lon="14.235109"><ele>456</ele></trkpt><trkpt lat="46.612053" lon="14.233572"><ele>460</ele></trkpt><trkpt lat="46.61165" lon="14.232629"><ele>446</ele></trkpt><trkpt lat="46.611338" lon="14.232159"><ele>487</ele></trkpt><trkpt lat="46.611189" lon="14.231716"><ele>488</ele></trkpt><trkpt lat="46.611146" lon="14.231438"><ele>488</ele></trkpt><trkpt lat="46.611248" lon="14.2306"><ele>480</ele></trkpt><trkpt lat="46.611223" lon="14.230245"><ele>469</ele></trkpt><trkpt lat="46.611203" lon="14.230117"><ele>469</ele></trkpt><trkpt lat="46.611203" lon="14.230117"><ele>469</ele></trkpt><trkpt lat="46.611166" lon="14.229869"><ele>469</ele></trkpt><trkpt lat="46.611108" lon="14.229603"><ele>469</ele></trkpt><trkpt lat="46.611012" lon="14.22931"><ele>459</ele></trkpt><trkpt lat="46.61073" lon="14.228828"><ele>459</ele></trkpt><trkpt lat="46.610662" lon="14.228491"><ele>500</ele></trkpt><trkpt lat="46.610626" lon="14.227504"><ele>491</ele></trkpt><trkpt lat="46.610627" lon="14.22694"><ele>483</ele></trkpt><trkpt lat="46.610602" lon="14.22669"><ele>483</ele></trkpt><trkpt lat="46.610395" lon="14.225948"><ele>471</ele></trkpt><trkpt lat="46.610346" lon="14.2257"><ele>471</ele></trkpt><trkpt lat="46.610144" lon="14.224104"><ele>452</ele></trkpt><trkpt lat="46.610007" lon="14.223558"><ele>446</ele></trkpt><trkpt lat="46.609747" lon="14.222915"><ele>474</ele></trkpt><trkpt lat="46.609626" lon="14.222571"><ele>471</ele></trkpt><trkpt lat="46.609565" lon="14.222306"><ele>471</ele></trkpt><trkpt lat="46.609523" lon="14.221908"><ele>477</ele></trkpt><trkpt lat="46.609545" lon="14.220229"><ele>480</ele></trkpt><trkpt lat="46.609525" lon="14.219795"><ele>480</ele></trkpt><trkpt lat="46.609469" lon="14.219402"><ele>470</ele></trkpt><trkpt lat="46.609282" lon="14.218572"><ele>464</ele></trkpt><trkpt lat="46.609221" lon="14.218182"><ele>464</ele></trkpt><trkpt lat="46.6092" lon="14.217769"><ele>462</ele></trkpt><trkpt lat="46.609205" lon="14.217215"><ele>462</ele></trkpt><trkpt lat="46.609171" lon="14.216755"><ele>463</ele></trkpt><trkpt lat="46.609111" lon="14.216206"><ele>463</ele></trkpt><trkpt lat="46.609137" lon="14.215935"><ele>470</ele></trkpt><trkpt lat="46.6092" lon="14.215651"><ele>470</ele></trkpt><trkpt lat="46.609629" lon="14.214469"><ele>483</ele></trkpt><trkpt lat="46.609734" lon="14.214103"><ele>482</ele></trkpt><trkpt lat="46.609772" lon="14.213826"><ele>482</ele></trkpt><trkpt lat="46.609766" lon="14.213524"><ele>478</ele></trkpt><trkpt lat="46.609721" lon="14.213124"><ele>478</ele></trkpt><trkpt lat="46.609719" lon="14.212864"><ele>478</ele></trkpt><trkpt lat="46.609794" lon="14.212596"><ele>485</ele></trkpt><trkpt lat="46.609901" lon="14.212347"><ele>466</ele></trkpt><trkpt lat="46.609901" lon="14.212347"><ele>466</ele></trkpt><trkpt lat="46.610169" lon="14.211727"><ele>472</ele></trkpt><trkpt lat="46.610372" lon="14.211327"><ele>472</ele></trkpt><trkpt lat="46.610572" lon="14.210966"><ele>471</ele></trkpt><trkpt lat="46.611004" lon="14.210279"><ele>455</ele></trkpt><trkpt lat="46.611076" lon="14.210104"><ele>455</ele></trkpt><trkpt lat="46.611106" lon="14.209805"><ele>455</ele></trkpt><trkpt lat="46.611062" lon="14.209475"><ele>455</ele></trkpt><trkpt lat="46.610978" lon="14.20925"><ele>445</ele></trkpt><trkpt lat="46.61084" lon="14.209059"><ele>445</ele></trkpt><trkpt lat="46.610386" lon="14.208613"><ele>458</ele></trkpt><trkpt lat="46.610275" lon="14.208467"><ele>458</ele></trkpt><trkpt lat="46.610207" lon="14.208369"><ele>458</ele></trkpt><trkpt lat="46.610105" lon="14.208138"><ele>458</ele></trkpt><trkpt lat="46.609896" lon="14.207317"><ele>458</ele></trkpt><trkpt lat="46.609896" lon="14.207317"><ele>458</ele></trkpt><trkpt lat="46.609781" lon="14.206864"><ele>467</ele></trkpt><trkpt lat="46.609694" lon="14.206573"><ele>467</ele></trkpt><trkpt lat="46.609583" lon="14.206363"><ele>467</ele></trkpt><trkpt lat="46.609303" lon="14.205966"><ele>469</ele></trkpt><trkpt lat="46.609227" lon="14.205744"><ele>469</ele></trkpt><trkpt lat="46.609218" lon="14.205486"><ele>469</ele></trkpt><trkpt lat="46.609283" lon="14.205128"><ele>470</ele></trkpt><trkpt lat="46.609339" lon="14.204704"><ele>470</ele></trkpt><trkpt lat="46.609353" lon="14.204328"><ele>468</ele></trkpt><trkpt lat="46.609303" lon="14.203935"><ele>468</ele></trkpt><trkpt lat="46.60919" lon="14.203229"><ele>463</ele></trkpt><trkpt lat="46.609171" lon="14.202977"><ele>463</ele></trkpt><trkpt lat="46.609153" lon="14.202648"><ele>464</ele></trkpt><trkpt lat="46.609152" lon="14.202101"><ele>464</ele></trkpt><trkpt lat="46.609265" lon="14.201297"><ele>470</ele></trkpt><trkpt lat="46.609265" lon="14.201297"><ele>470</ele></trkpt><trkpt lat="46.609295" lon="14.201088"><ele>477</ele></trkpt><trkpt lat="46.609298" lon="14.200576"><ele>477</ele></trkpt><trkpt lat="46.609328" lon="14.200082"><ele>480</ele></trkpt><trkpt lat="46.609405" lon="14.19951"><ele>480</ele></trkpt><trkpt lat="46.609448" lon="14.198876"><ele>470</ele></trkpt><trkpt lat="46.609394" lon="14.198429"><ele>455</ele></trkpt><trkpt lat="46.60924" lon="14.197961"><ele>455</ele></trkpt><trkpt lat="46.60924" lon="14.197961"><ele>455</ele></trkpt><trkpt lat="46.608828" lon="14.196713"><ele>494</ele></trkpt><trkpt lat="46.608785" lon="14.196721"><ele>494</ele></trkpt><trkpt lat="46.608722" lon="14.196405"><ele>494</ele></trkpt><trkpt lat="46.608651" lon="14.195898"><ele>479</ele></trkpt><trkpt lat="46.608614" lon="14.195479"><ele>479</ele></trkpt><trkpt lat="46.608506" lon="14.194809"><ele>464</ele></trkpt><trkpt lat="46.608349" lon="14.194162"><ele>454</ele></trkpt><trkpt lat="46.60791" lon="14.192619"><ele>465</ele></trkpt><trkpt lat="46.60791" lon="14.192619"><ele>465</ele></trkpt><trkpt lat="46.607329" lon="14.190578"><ele>478</ele></trkpt><trkpt lat="46.607246" lon="14.190203"><ele>468</ele></trkpt><trkpt lat="46.607135" lon="14.189532"><ele>468</ele></trkpt><trkpt lat="46.607072" lon="14.18923"><ele>459</ele></trkpt><trkpt lat="46.606933" lon="14.18872"><ele>459</ele></trkpt><trkpt lat="46.606664" lon="14.187874"><ele>451</ele></trkpt><trkpt lat="46.606498" lon="14.187338"><ele>477</ele></trkpt><trkpt lat="46.606463" lon="14.187116"><ele>477</ele></trkpt><trkpt lat="46.606369" lon="14.186701"><ele>467</ele></trkpt><trkpt lat="46.606302" lon="14.186065"><ele>452</ele></trkpt><trkpt lat="46.606212" lon="14.185526"><ele>452</ele></trkpt><trkpt lat="46.606151" lon="14.18526"><ele>446</ele></trkpt><trkpt lat="46.606098" lon="14.184734"><ele>446</ele></trkpt><trkpt lat="46.606106" lon="14.184538"><ele>446</ele></trkpt><trkpt lat="46.606164" lon="14.184203"><ele>446</ele></trkpt><trkpt lat="46.606117" lon="14.184181"><ele>446</ele></trkpt><trkpt lat="46.606218" lon="14.183795"><ele>446</ele></trkpt><trkpt lat="46.606218" lon="14.183795"><ele>446</ele></trkpt><trkpt lat="46.606242" lon="14.183702"><ele>446</ele></trkpt><trkpt lat="46.606191" lon="14.183666"><ele>446</ele></trkpt><trkpt lat="46.606223" lon="14.183539"><ele>445</ele></trkpt><trkpt lat="46.606278" lon="14.183319"><ele>445</ele></trkpt><trkpt lat="46.606347" lon="14.183019"><ele>445</ele></trkpt><trkpt lat="46.606412" lon="14.183112"><ele>445</ele></trkpt><trkpt lat="46.606459" lon="14.183171"><ele>445</ele></trkpt><trkpt lat="46.606606" lon="14.182609"><ele>444</ele></trkpt><trkpt lat="46.606722" lon="14.182227"><ele>444</ele></trkpt><trkpt lat="46.606751" lon="14.182133"><ele>444</ele></trkpt><trkpt lat="46.606804" lon="14.181998"><ele>444</ele></trkpt><trkpt lat="46.607007" lon="14.181287"><ele>444</ele></trkpt><trkpt lat="46.607202" lon="14.180577"><ele>446</ele></trkpt><trkpt lat="46.607315" lon="14.180246"><ele>444</ele></trkpt><trkpt lat="46.607478" lon="14.179853"><ele>446</ele></trkpt><trkpt lat="46.607599" lon="14.179629"><ele>446</ele></trkpt><trkpt lat="46.607786" lon="14.179383"><ele>447</ele></trkpt><trkpt lat="46.60792" lon="14.179257"><ele>447</ele></trkpt><trkpt lat="46.60792" lon="14.179257"><ele>447</ele></trkpt><trkpt lat="46.607979" lon="14.179202"><ele>447</ele></trkpt><trkpt lat="46.608162" lon="14.179075"><ele>447</ele></trkpt><trkpt lat="46.608417" lon="14.178977"><ele>452</ele></trkpt><trkpt lat="46.608533" lon="14.17896"><ele>452</ele></trkpt><trkpt lat="46.608852" lon="14.178989"><ele>452</ele></trkpt><trkpt lat="46.608923" lon="14.179017"><ele>452</ele></trkpt><trkpt lat="46.60919" lon="14.17915"><ele>462</ele></trkpt><trkpt lat="46.609533" lon="14.179424"><ele>462</ele></trkpt><trkpt lat="46.609595" lon="14.179473"><ele>456</ele></trkpt><trkpt lat="46.609919" lon="14.179701"><ele>468</ele></trkpt><trkpt lat="46.610449" lon="14.179924"><ele>468</ele></trkpt><trkpt lat="46.61061" lon="14.179984"><ele>468</ele></trkpt><trkpt lat="46.610639" lon="14.179984"><ele>468</ele></trkpt><trkpt lat="46.610639" lon="14.179984"><ele>468</ele></trkpt><trkpt lat="46.61061" lon="14.179984"><ele>468</ele></trkpt><trkpt lat="46.610449" lon="14.179924"><ele>468</ele></trkpt><trkpt lat="46.609919" lon="14.179701"><ele>468</ele></trkpt><trkpt lat="46.609595" lon="14.179473"><ele>456</ele></trkpt><trkpt lat="46.609533" lon="14.179424"><ele>462</ele></trkpt><trkpt lat="46.60919" lon="14.17915"><ele>462</ele></trkpt><trkpt lat="46.608923" lon="14.179017"><ele>452</ele></trkpt><trkpt lat="46.608912" lon="14.178953"><ele>452</ele></trkpt><trkpt lat="46.608921" lon="14.178846"><ele>452</ele></trkpt><trkpt lat="46.608913" lon="14.178739"><ele>452</ele></trkpt><trkpt lat="46.608814" lon="14.178244"><ele>462</ele></trkpt><trkpt lat="46.608793" lon="14.178138"><ele>462</ele></trkpt><trkpt lat="46.608763" lon="14.17803"><ele>462</ele></trkpt><trkpt lat="46.608673" lon="14.177889"><ele>462</ele></trkpt><trkpt lat="46.608578" lon="14.177787"><ele>462</ele></trkpt><trkpt lat="46.608332" lon="14.1776"><ele>484</ele></trkpt><trkpt lat="46.608159" lon="14.177475"><ele>470</ele></trkpt><trkpt lat="46.607916" lon="14.177317"><ele>470</ele></trkpt><trkpt lat="46.607772" lon="14.177275"><ele>470</ele></trkpt><trkpt lat="46.607541" lon="14.177234"><ele>470</ele></trkpt><trkpt lat="46.607461" lon="14.17724"><ele>470</ele></trkpt><trkpt lat="46.606929" lon="14.177395"><ele>458</ele></trkpt><trkpt lat="46.607033" lon="14.177209"><ele>458</ele></trkpt><trkpt lat="46.607047" lon="14.177144"><ele>458</ele></trkpt><trkpt lat="46.607025" lon="14.176709"><ele>467</ele></trkpt><trkpt lat="46.607044" lon="14.176589"><ele>467</ele></trkpt><trkpt lat="46.607082" lon="14.176479"><ele>467</ele></trkpt><trkpt lat="46.607154" lon="14.176398"><ele>467</ele></trkpt><trkpt lat="46.607384" lon="14.176362"><ele>481</ele></trkpt><trkpt lat="46.607521" lon="14.176245"><ele>481</ele></trkpt><trkpt lat="46.607743" lon="14.176156"><ele>481</ele></trkpt><trkpt lat="46.607915" lon="14.176023"><ele>491</ele></trkpt><trkpt lat="46.60807" lon="14.175871"><ele>491</ele></trkpt><trkpt lat="46.608146" lon="14.175827"><ele>491</ele></trkpt><trkpt lat="46.608283" lon="14.175794"><ele>502</ele></trkpt><trkpt lat="46.608714" lon="14.175633"><ele>502</ele></trkpt><trkpt lat="46.608855" lon="14.175481"><ele>502</ele></trkpt><trkpt lat="46.608992" lon="14.175281"><ele>502</ele></trkpt><trkpt lat="46.609039" lon="14.175142"><ele>503</ele></trkpt><trkpt lat="46.609061" lon="14.174873"><ele>503</ele></trkpt><trkpt lat="46.609069" lon="14.174234"><ele>511</ele></trkpt><trkpt lat="46.60919" lon="14.173534"><ele>525</ele></trkpt><trkpt lat="46.609181" lon="14.173298"><ele>525</ele></trkpt><trkpt lat="46.609248" lon="14.173338"><ele>525</ele></trkpt><trkpt lat="46.609505" lon="14.173422"><ele>525</ele></trkpt><trkpt lat="46.609701" lon="14.173443"><ele>525</ele></trkpt><trkpt lat="46.609868" lon="14.173332"><ele>533</ele></trkpt><trkpt lat="46.610045" lon="14.17317"><ele>533</ele></trkpt><trkpt lat="46.610246" lon="14.17287"><ele>533</ele></trkpt><trkpt lat="46.610336" lon="14.17269"><ele>559</ele></trkpt><trkpt lat="46.610848" lon="14.17044"><ele>532</ele></trkpt><trkpt lat="46.610846" lon="14.170165"><ele>536</ele></trkpt><trkpt lat="46.610873" lon="14.169939"><ele>536</ele></trkpt><trkpt lat="46.611001" lon="14.169265"><ele>546</ele></trkpt><trkpt lat="46.611062" lon="14.168723"><ele>546</ele></trkpt><trkpt lat="46.611091" lon="14.168591"><ele>552</ele></trkpt><trkpt lat="46.611139" lon="14.168499"><ele>552</ele></trkpt><trkpt lat="46.611254" lon="14.168388"><ele>552</ele></trkpt><trkpt lat="46.611292" lon="14.168325"><ele>552</ele></trkpt><trkpt lat="46.612116" lon="14.167673"><ele>538</ele></trkpt><trkpt lat="46.612228" lon="14.167369"><ele>538</ele></trkpt><trkpt lat="46.612362" lon="14.166922"><ele>511</ele></trkpt><trkpt lat="46.612513" lon="14.166269"><ele>511</ele></trkpt><trkpt lat="46.612591" lon="14.165423"><ele>507</ele></trkpt><trkpt lat="46.612813" lon="14.164694"><ele>513</ele></trkpt><trkpt lat="46.613154" lon="14.163725"><ele>530</ele></trkpt><trkpt lat="46.613288" lon="14.163449"><ele>500</ele></trkpt><trkpt lat="46.613559" lon="14.163026"><ele>500</ele></trkpt><trkpt lat="46.61378" lon="14.162707"><ele>521</ele></trkpt><trkpt lat="46.614129" lon="14.162327"><ele>480</ele></trkpt><trkpt lat="46.614317" lon="14.162142"><ele>480</ele></trkpt><trkpt lat="46.61438" lon="14.162048"><ele>480</ele></trkpt><trkpt lat="46.61449" lon="14.161781"><ele>498</ele></trkpt><trkpt lat="46.614513" lon="14.161746"><ele>498</ele></trkpt><trkpt lat="46.614567" lon="14.161729"><ele>498</ele></trkpt><trkpt lat="46.614636" lon="14.161792"><ele>498</ele></trkpt><trkpt lat="46.614875" lon="14.161348"><ele>464</ele></trkpt><trkpt lat="46.614965" lon="14.161137"><ele>464</ele></trkpt><trkpt lat="46.615088" lon="14.160728"><ele>472</ele></trkpt><trkpt lat="46.615182" lon="14.160289"><ele>472</ele></trkpt><trkpt lat="46.615225" lon="14.160105"><ele>485</ele></trkpt><trkpt lat="46.615208" lon="14.159962"><ele>485</ele></trkpt><trkpt lat="46.615251" lon="14.15985"><ele>485</ele></trkpt><trkpt lat="46.615338" lon="14.159563"><ele>485</ele></trkpt><trkpt lat="46.615413" lon="14.158949"><ele>506</ele></trkpt><trkpt lat="46.615575" lon="14.158426"><ele>518</ele></trkpt><trkpt lat="46.615541" lon="14.158303"><ele>518</ele></trkpt><trkpt lat="46.615552" lon="14.157683"><ele>523</ele></trkpt><trkpt lat="46.615635" lon="14.157269"><ele>523</ele></trkpt><trkpt lat="46.615648" lon="14.15647"><ele>540</ele></trkpt><trkpt lat="46.615788" lon="14.15577"><ele>506</ele></trkpt><trkpt lat="46.615766" lon="14.155434"><ele>506</ele></trkpt><trkpt lat="46.615561" lon="14.154524"><ele>543</ele></trkpt><trkpt lat="46.615561" lon="14.154524"><ele>543</ele></trkpt><trkpt lat="46.615512" lon="14.154309"><ele>535</ele></trkpt><trkpt lat="46.615528" lon="14.153949"><ele>535</ele></trkpt><trkpt lat="46.615624" lon="14.153627"><ele>535</ele></trkpt><trkpt lat="46.615721" lon="14.153379"><ele>511</ele></trkpt><trkpt lat="46.615754" lon="14.153152"><ele>511</ele></trkpt><trkpt lat="46.615689" lon="14.152631"><ele>519</ele></trkpt><trkpt lat="46.615611" lon="14.152471"><ele>547</ele></trkpt><trkpt lat="46.615558" lon="14.152196"><ele>547</ele></trkpt><trkpt lat="46.615624" lon="14.151858"><ele>558</ele></trkpt><trkpt lat="46.615772" lon="14.151309"><ele>526</ele></trkpt><trkpt lat="46.615869" lon="14.151186"><ele>526</ele></trkpt><trkpt lat="46.615946" lon="14.150464"><ele>528</ele></trkpt><trkpt lat="46.616097" lon="14.149965"><ele>520</ele></trkpt><trkpt lat="46.616167" lon="14.14952"><ele>520</ele></trkpt><trkpt lat="46.616156" lon="14.149022"><ele>513</ele></trkpt><trkpt lat="46.615987" lon="14.148502"><ele>515</ele></trkpt><trkpt lat="46.615947" lon="14.14811"><ele>515</ele></trkpt><trkpt lat="46.615983" lon="14.147488"><ele>516</ele></trkpt><trkpt lat="46.61607" lon="14.147034"><ele>516</ele></trkpt><trkpt lat="46.616061" lon="14.146682"><ele>520</ele></trkpt><trkpt lat="46.615927" lon="14.146025"><ele>530</ele></trkpt><trkpt lat="46.615926" lon="14.145759"><ele>530</ele></trkpt><trkpt lat="46.616076" lon="14.145354"><ele>530</ele></trkpt><trkpt lat="46.616274" lon="14.145086"><ele>541</ele></trkpt><trkpt lat="46.616568" lon="14.144602"><ele>519</ele></trkpt><trkpt lat="46.616701" lon="14.144208"><ele>528</ele></trkpt><trkpt lat="46.616762" lon="14.144095"><ele>528</ele></trkpt><trkpt lat="46.616852" lon="14.144083"><ele>528</ele></trkpt><trkpt lat="46.616964" lon="14.144141"><ele>528</ele></trkpt><trkpt lat="46.617094" lon="14.144007"><ele>528</ele></trkpt><trkpt lat="46.617113" lon="14.143803"><ele>528</ele></trkpt><trkpt lat="46.616948" lon="14.143486"><ele>542</ele></trkpt><trkpt lat="46.616952" lon="14.143356"><ele>542</ele></trkpt><trkpt lat="46.617077" lon="14.142885"><ele>542</ele></trkpt><trkpt lat="46.617402" lon="14.142305"><ele>545</ele></trkpt><trkpt lat="46.617309" lon="14.142247"><ele>556</ele></trkpt><trkpt lat="46.617199" lon="14.141956"><ele>556</ele></trkpt><trkpt lat="46.617146" lon="14.141873"><ele>581</ele></trkpt><trkpt lat="46.617084" lon="14.141831"><ele>581</ele></trkpt><trkpt lat="46.616648" lon="14.141751"><ele>581</ele></trkpt><trkpt lat="46.616415" lon="14.141882"><ele>604</ele></trkpt><trkpt lat="46.616251" lon="14.142085"><ele>584</ele></trkpt><trkpt lat="46.615966" lon="14.142294"><ele>584</ele></trkpt><trkpt lat="46.615782" lon="14.142336"><ele>584</ele></trkpt><trkpt lat="46.615603" lon="14.142235"><ele>611</ele></trkpt><trkpt lat="46.615299" lon="14.142147"><ele>611</ele></trkpt><trkpt lat="46.615404" lon="14.142034"><ele>611</ele></trkpt><trkpt lat="46.615562" lon="14.141817"><ele>632</ele></trkpt><trkpt lat="46.615787" lon="14.141367"><ele>604</ele></trkpt><trkpt lat="46.615807" lon="14.140883"><ele>618</ele></trkpt><trkpt lat="46.615888" lon="14.140539"><ele>618</ele></trkpt><trkpt lat="46.616007" lon="14.140254"><ele>625</ele></trkpt><trkpt lat="46.616242" lon="14.139935"><ele>625</ele></trkpt><trkpt lat="46.616493" lon="14.139362"><ele>633</ele></trkpt><trkpt lat="46.616683" lon="14.139258"><ele>625</ele></trkpt><trkpt lat="46.616715" lon="14.139187"><ele>625</ele></trkpt><trkpt lat="46.616686" lon="14.139102"><ele>625</ele></trkpt><trkpt lat="46.616546" lon="14.138862"><ele>625</ele></trkpt><trkpt lat="46.616391" lon="14.138641"><ele>633</ele></trkpt><trkpt lat="46.616132" lon="14.138452"><ele>640</ele></trkpt><trkpt lat="46.615788" lon="14.138438"><ele>640</ele></trkpt><trkpt lat="46.615535" lon="14.138234"><ele>641</ele></trkpt><trkpt lat="46.615535" lon="14.138234"><ele>641</ele></trkpt><trkpt lat="46.615364" lon="14.138096"><ele>641</ele></trkpt><trkpt lat="46.614988" lon="14.138117"><ele>641</ele></trkpt><trkpt lat="46.614883" lon="14.138253"><ele>641</ele></trkpt><trkpt lat="46.614865" lon="14.138524"><ele>641</ele></trkpt><trkpt lat="46.615047" lon="14.139413"><ele>640</ele></trkpt><trkpt lat="46.614978" lon="14.139587"><ele>643</ele></trkpt><trkpt lat="46.614633" lon="14.139861"><ele>660</ele></trkpt><trkpt lat="46.614313" lon="14.140189"><ele>660</ele></trkpt><trkpt lat="46.614251" lon="14.14045"><ele>660</ele></trkpt><trkpt lat="46.614257" lon="14.140766"><ele>660</ele></trkpt><trkpt lat="46.614227" lon="14.140978"><ele>660</ele></trkpt><trkpt lat="46.614176" lon="14.141128"><ele>660</ele></trkpt><trkpt lat="46.61367" lon="14.141964"><ele>688</ele></trkpt><trkpt lat="46.613412" lon="14.142499"><ele>688</ele></trkpt><trkpt lat="46.613366" lon="14.142651"><ele>688</ele></trkpt><trkpt lat="46.613335" lon="14.142817"><ele>677</ele></trkpt><trkpt lat="46.613274" lon="14.14354"><ele>677</ele></trkpt><trkpt lat="46.61331" lon="14.144158"><ele>678</ele></trkpt><trkpt lat="46.613393" lon="14.144682"><ele>683</ele></trkpt><trkpt lat="46.613391" lon="14.144791"><ele>683</ele></trkpt><trkpt lat="46.613311" lon="14.145142"><ele>683</ele></trkpt><trkpt lat="46.613294" lon="14.145292"><ele>681</ele></trkpt><trkpt lat="46.613294" lon="14.145628"><ele>681</ele></trkpt><trkpt lat="46.613309" lon="14.14569"><ele>681</ele></trkpt><trkpt lat="46.613179" lon="14.145818"><ele>708</ele></trkpt><trkpt lat="46.613011" lon="14.145857"><ele>708</ele></trkpt><trkpt lat="46.612711" lon="14.145763"><ele>708</ele></trkpt><trkpt lat="46.61235" lon="14.145835"><ele>738</ele></trkpt><trkpt lat="46.612108" lon="14.14585"><ele>738</ele></trkpt><trkpt lat="46.61196" lon="14.145825"><ele>738</ele></trkpt><trkpt lat="46.61192" lon="14.145738"><ele>738</ele></trkpt><trkpt lat="46.611936" lon="14.145659"><ele>738</ele></trkpt><trkpt lat="46.611963" lon="14.145611"><ele>738</ele></trkpt><trkpt lat="46.612155" lon="14.145496"><ele>738</ele></trkpt><trkpt lat="46.612285" lon="14.145351"><ele>738</ele></trkpt><trkpt lat="46.61236" lon="14.14517"><ele>720</ele></trkpt><trkpt lat="46.612442" lon="14.145029"><ele>720</ele></trkpt><trkpt lat="46.612659" lon="14.145"><ele>720</ele></trkpt><trkpt lat="46.612699" lon="14.144949"><ele>720</ele></trkpt><trkpt lat="46.612726" lon="14.144857"><ele>720</ele></trkpt><trkpt lat="46.612703" lon="14.144714"><ele>720</ele></trkpt><trkpt lat="46.612599" lon="14.144419"><ele>726</ele></trkpt><trkpt lat="46.612575" lon="14.144285"><ele>726</ele></trkpt><trkpt lat="46.612577" lon="14.143591"><ele>728</ele></trkpt><trkpt lat="46.612564" lon="14.143461"><ele>728</ele></trkpt><trkpt lat="46.612383" lon="14.142932"><ele>728</ele></trkpt><trkpt lat="46.612374" lon="14.142752"><ele>733</ele></trkpt><trkpt lat="46.612396" lon="14.142582"><ele>733</ele></trkpt><trkpt lat="46.612454" lon="14.142376"><ele>733</ele></trkpt><trkpt lat="46.612461" lon="14.142103"><ele>733</ele></trkpt><trkpt lat="46.612402" lon="14.141566"><ele>731</ele></trkpt><trkpt lat="46.612331" lon="14.1412"><ele>764</ele></trkpt><trkpt lat="46.61222" lon="14.140919"><ele>759</ele></trkpt><trkpt lat="46.612135" lon="14.140631"><ele>759</ele></trkpt><trkpt lat="46.612136" lon="14.14039"><ele>759</ele></trkpt><trkpt lat="46.612084" lon="14.140238"><ele>769</ele></trkpt><trkpt lat="46.611986" lon="14.140145"><ele>769</ele></trkpt><trkpt lat="46.611865" lon="14.14005"><ele>769</ele></trkpt><trkpt lat="46.611774" lon="14.140051"><ele>769</ele></trkpt><trkpt lat="46.611744" lon="14.140174"><ele>769</ele></trkpt><trkpt lat="46.611852" lon="14.140551"><ele>759</ele></trkpt><trkpt lat="46.611904" lon="14.141213"><ele>764</ele></trkpt><trkpt lat="46.611993" lon="14.141506"><ele>764</ele></trkpt><trkpt lat="46.612001" lon="14.141573"><ele>764</ele></trkpt><trkpt lat="46.611969" lon="14.141626"><ele>764</ele></trkpt><trkpt lat="46.611905" lon="14.14162"><ele>764</ele></trkpt><trkpt lat="46.611846" lon="14.141553"><ele>764</ele></trkpt><trkpt lat="46.611758" lon="14.141341"><ele>764</ele></trkpt><trkpt lat="46.611713" lon="14.141026"><ele>759</ele></trkpt><trkpt lat="46.611656" lon="14.140825"><ele>759</ele></trkpt><trkpt lat="46.611559" lon="14.140676"><ele>759</ele></trkpt><trkpt lat="46.611472" lon="14.14065"><ele>806</ele></trkpt><trkpt lat="46.611424" lon="14.14072"><ele>806</ele></trkpt><trkpt lat="46.611431" lon="14.14082"><ele>806</ele></trkpt><trkpt lat="46.611536" lon="14.141004"><ele>759</ele></trkpt><trkpt lat="46.611576" lon="14.141126"><ele>764</ele></trkpt><trkpt lat="46.611565" lon="14.141264"><ele>764</ele></trkpt><trkpt lat="46.611439" lon="14.141646"><ele>813</ele></trkpt><trkpt lat="46.611118" lon="14.142489"><ele>813</ele></trkpt><trkpt lat="46.611012" lon="14.14297"><ele>809</ele></trkpt><trkpt lat="46.610927" lon="14.143693"><ele>799</ele></trkpt><trkpt lat="46.61096" lon="14.144107"><ele>799</ele></trkpt><trkpt lat="46.610947" lon="14.144198"><ele>799</ele></trkpt><trkpt lat="46.610901" lon="14.144226"><ele>799</ele></trkpt><trkpt lat="46.610857" lon="14.144204"><ele>799</ele></trkpt><trkpt lat="46.610812" lon="14.143727"><ele>799</ele></trkpt><trkpt lat="46.610735" lon="14.143421"><ele>809</ele></trkpt><trkpt lat="46.61068" lon="14.143062"><ele>836</ele></trkpt><trkpt lat="46.610683" lon="14.142943"><ele>836</ele></trkpt><trkpt lat="46.610661" lon="14.142891"><ele>836</ele></trkpt><trkpt lat="46.61062" lon="14.142916"><ele>836</ele></trkpt><trkpt lat="46.610558" lon="14.143116"><ele>836</ele></trkpt><trkpt lat="46.61058" lon="14.143461"><ele>836</ele></trkpt><trkpt lat="46.610524" lon="14.143852"><ele>837</ele></trkpt><trkpt lat="46.610629" lon="14.144743"><ele>843</ele></trkpt><trkpt lat="46.610647" lon="14.145445"><ele>839</ele></trkpt><trkpt lat="46.610613" lon="14.145563"><ele>839</ele></trkpt><trkpt lat="46.610542" lon="14.145602"><ele>839</ele></trkpt><trkpt lat="46.610542" lon="14.145602"><ele>839</ele></trkpt><trkpt lat="46.610535" lon="14.145606"><ele>839</ele></trkpt><trkpt lat="46.610369" lon="14.145693"><ele>839</ele></trkpt><trkpt lat="46.610316" lon="14.145912"><ele>839</ele></trkpt><trkpt lat="46.610232" lon="14.146489"><ele>830</ele></trkpt><trkpt lat="46.610206" lon="14.146575"><ele>830</ele></trkpt><trkpt lat="46.610169" lon="14.146617"><ele>830</ele></trkpt><trkpt lat="46.610013" lon="14.14662"><ele>830</ele></trkpt><trkpt lat="46.609722" lon="14.146379"><ele>842</ele></trkpt><trkpt lat="46.609572" lon="14.146368"><ele>842</ele></trkpt><trkpt lat="46.609825" lon="14.146733"><ele>842</ele></trkpt><trkpt lat="46.60992" lon="14.146885"><ele>830</ele></trkpt><trkpt lat="46.60996" lon="14.147043"><ele>822</ele></trkpt><trkpt lat="46.609965" lon="14.147279"><ele>822</ele></trkpt><trkpt lat="46.609929" lon="14.147387"><ele>822</ele></trkpt><trkpt lat="46.609843" lon="14.147529"><ele>826</ele></trkpt><trkpt lat="46.609566" lon="14.147807"><ele>807</ele></trkpt><trkpt lat="46.609384" lon="14.147773"><ele>826</ele></trkpt><trkpt lat="46.609314" lon="14.147928"><ele>807</ele></trkpt><trkpt lat="46.609264" lon="14.148039"><ele>807</ele></trkpt><trkpt lat="46.609336" lon="14.148208"><ele>807</ele></trkpt><trkpt lat="46.609397" lon="14.148368"><ele>807</ele></trkpt><trkpt lat="46.609277" lon="14.148609"><ele>799</ele></trkpt><trkpt lat="46.609298" lon="14.148681"><ele>799</ele></trkpt><trkpt lat="46.609241" lon="14.14868"><ele>799</ele></trkpt><trkpt lat="46.609023" lon="14.148881"><ele>799</ele></trkpt><trkpt lat="46.60897" lon="14.148959"><ele>791</ele></trkpt><trkpt lat="46.608862" lon="14.148861"><ele>791</ele></trkpt><trkpt lat="46.608782" lon="14.148889"><ele>791</ele></trkpt><trkpt lat="46.608618" lon="14.148894"><ele>791</ele></trkpt><trkpt lat="46.608453" lon="14.148851"><ele>791</ele></trkpt><trkpt lat="46.608264" lon="14.148742"><ele>791</ele></trkpt><trkpt lat="46.608016" lon="14.148491"><ele>775</ele></trkpt><trkpt lat="46.607816" lon="14.148244"><ele>775</ele></trkpt><trkpt lat="46.607805" lon="14.148226"><ele>775</ele></trkpt><trkpt lat="46.607805" lon="14.148226"><ele>775</ele></trkpt><trkpt lat="46.607587" lon="14.147899"><ele>775</ele></trkpt><trkpt lat="46.607409" lon="14.147541"><ele>787</ele></trkpt><trkpt lat="46.607298" lon="14.147223"><ele>760</ele></trkpt><trkpt lat="46.606885" lon="14.145874"><ele>784</ele></trkpt><trkpt lat="46.606771" lon="14.145659"><ele>784</ele></trkpt><trkpt lat="46.606721" lon="14.1456"><ele>784</ele></trkpt><trkpt lat="46.606597" lon="14.14554"><ele>784</ele></trkpt><trkpt lat="46.606475" lon="14.145524"><ele>771</ele></trkpt><trkpt lat="46.606288" lon="14.145561"><ele>771</ele></trkpt><trkpt lat="46.606106" lon="14.145639"><ele>771</ele></trkpt><trkpt lat="46.605937" lon="14.145667"><ele>771</ele></trkpt><trkpt lat="46.60599" lon="14.145728"><ele>771</ele></trkpt><trkpt lat="46.606451" lon="14.145697"><ele>771</ele></trkpt><trkpt lat="46.606518" lon="14.145778"><ele>784</ele></trkpt><trkpt lat="46.606541" lon="14.14591"><ele>784</ele></trkpt><trkpt lat="46.60649" lon="14.146057"><ele>771</ele></trkpt><trkpt lat="46.606356" lon="14.146328"><ele>752</ele></trkpt><trkpt lat="46.605974" lon="14.146601"><ele>752</ele></trkpt><trkpt lat="46.605786" lon="14.146941"><ele>752</ele></trkpt><trkpt lat="46.605639" lon="14.147062"><ele>715</ele></trkpt><trkpt lat="46.605549" lon="14.14705"><ele>715</ele></trkpt><trkpt lat="46.605128" lon="14.146816"><ele>724</ele></trkpt><trkpt lat="46.605068" lon="14.146739"><ele>724</ele></trkpt><trkpt lat="46.604945" lon="14.146435"><ele>724</ele></trkpt><trkpt lat="46.604847" lon="14.146242"><ele>706</ele></trkpt><trkpt lat="46.604653" lon="14.14594"><ele>717</ele></trkpt><trkpt lat="46.604534" lon="14.145807"><ele>717</ele></trkpt><trkpt lat="46.604419" lon="14.145711"><ele>717</ele></trkpt><trkpt lat="46.604147" lon="14.145634"><ele>717</ele></trkpt><trkpt lat="46.603539" lon="14.145127"><ele>704</ele></trkpt><trkpt lat="46.603119" lon="14.14451"><ele>690</ele></trkpt><trkpt lat="46.603089" lon="14.144219"><ele>691</ele></trkpt><trkpt lat="46.603055" lon="14.144117"><ele>691</ele></trkpt><trkpt lat="46.603004" lon="14.144045"><ele>691</ele></trkpt><trkpt lat="46.602917" lon="14.143974"><ele>691</ele></trkpt><trkpt lat="46.602813" lon="14.143944"><ele>691</ele></trkpt><trkpt lat="46.602452" lon="14.143898"><ele>691</ele></trkpt><trkpt lat="46.602405" lon="14.143986"><ele>691</ele></trkpt><trkpt lat="46.602348" lon="14.14409"><ele>678</ele></trkpt><trkpt lat="46.602227" lon="14.144314"><ele>678</ele></trkpt><trkpt lat="46.602175" lon="14.144409"><ele>678</ele></trkpt><trkpt lat="46.602064" lon="14.144614"><ele>689</ele></trkpt><trkpt lat="46.601972" lon="14.144859"><ele>689</ele></trkpt><trkpt lat="46.601946" lon="14.144963"><ele>689</ele></trkpt><trkpt lat="46.601946" lon="14.144963"><ele>689</ele></trkpt><trkpt lat="46.601972" lon="14.144859"><ele>689</ele></trkpt><trkpt lat="46.602064" lon="14.144614"><ele>689</ele></trkpt><trkpt lat="46.602175" lon="14.144409"><ele>678</ele></trkpt><trkpt lat="46.602227" lon="14.144314"><ele>678</ele></trkpt><trkpt lat="46.602348" lon="14.14409"><ele>678</ele></trkpt><trkpt lat="46.602211" lon="14.143895"><ele>678</ele></trkpt><trkpt lat="46.602066" lon="14.143353"><ele>674</ele></trkpt><trkpt lat="46.601937" lon="14.141941"><ele>673</ele></trkpt><trkpt lat="46.601836" lon="14.141573"><ele>672</ele></trkpt><trkpt lat="46.601504" lon="14.141325"><ele>672</ele></trkpt><trkpt lat="46.601493" lon="14.141672"><ele>672</ele></trkpt><trkpt lat="46.601459" lon="14.141922"><ele>672</ele></trkpt><trkpt lat="46.601418" lon="14.142095"><ele>668</ele></trkpt><trkpt lat="46.601351" lon="14.14221"><ele>668</ele></trkpt><trkpt lat="46.601125" lon="14.142332"><ele>668</ele></trkpt><trkpt lat="46.600945" lon="14.142396"><ele>668</ele></trkpt><trkpt lat="46.600741" lon="14.142407"><ele>668</ele></trkpt><trkpt lat="46.600588" lon="14.142356"><ele>677</ele></trkpt><trkpt lat="46.600333" lon="14.142114"><ele>677</ele></trkpt><trkpt lat="46.599972" lon="14.141475"><ele>664</ele></trkpt><trkpt lat="46.599889" lon="14.141129"><ele>664</ele></trkpt><trkpt lat="46.599605" lon="14.140842"><ele>648</ele></trkpt><trkpt lat="46.599152" lon="14.140472"><ele>648</ele></trkpt><trkpt lat="46.598914" lon="14.14048"><ele>630</ele></trkpt><trkpt lat="46.598641" lon="14.140759"><ele>630</ele></trkpt><trkpt lat="46.598472" lon="14.140754"><ele>630</ele></trkpt><trkpt lat="46.598324" lon="14.140817"><ele>630</ele></trkpt><trkpt lat="46.59822" lon="14.14108"><ele>630</ele></trkpt><trkpt lat="46.598136" lon="14.141025"><ele>618</ele></trkpt><trkpt lat="46.598083" lon="14.141054"><ele>618</ele></trkpt><trkpt lat="46.59803" lon="14.141257"><ele>628</ele></trkpt><trkpt lat="46.59783" lon="14.141117"><ele>628</ele></trkpt><trkpt lat="46.597632" lon="14.141267"><ele>628</ele></trkpt><trkpt lat="46.597531" lon="14.141284"><ele>628</ele></trkpt><trkpt lat="46.597411" lon="14.141283"><ele>628</ele></trkpt><trkpt lat="46.597296" lon="14.141215"><ele>619</ele></trkpt><trkpt lat="46.596994" lon="14.141767"><ele>619</ele></trkpt><trkpt lat="46.59688" lon="14.14222"><ele>632</ele></trkpt><trkpt lat="46.596814" lon="14.143116"><ele>636</ele></trkpt><trkpt lat="46.596818" lon="14.143263"><ele>636</ele></trkpt><trkpt lat="46.596845" lon="14.143551"><ele>636</ele></trkpt><trkpt lat="46.5968" lon="14.144351"><ele>641</ele></trkpt><trkpt lat="46.596763" lon="14.144644"><ele>647</ele></trkpt><trkpt lat="46.596723" lon="14.145205"><ele>647</ele></trkpt><trkpt lat="46.596595" lon="14.146297"><ele>639</ele></trkpt><trkpt lat="46.596391" lon="14.146478"><ele>671</ele></trkpt><trkpt lat="46.5964" lon="14.146957"><ele>670</ele></trkpt><trkpt lat="46.59632" lon="14.14716"><ele>670</ele></trkpt><trkpt lat="46.59616" lon="14.147784"><ele>666</ele></trkpt><trkpt lat="46.596174" lon="14.148596"><ele>666</ele></trkpt><trkpt lat="46.5961" lon="14.149072"><ele>654</ele></trkpt><trkpt lat="46.596036" lon="14.1498"><ele>643</ele></trkpt><trkpt lat="46.596001" lon="14.149889"><ele>643</ele></trkpt><trkpt lat="46.595818" lon="14.150361"><ele>639</ele></trkpt><trkpt lat="46.595564" lon="14.150614"><ele>651</ele></trkpt><trkpt lat="46.595173" lon="14.151217"><ele>640</ele></trkpt><trkpt lat="46.595001" lon="14.151359"><ele>640</ele></trkpt><trkpt lat="46.594835" lon="14.15138"><ele>651</ele></trkpt><trkpt lat="46.594668" lon="14.151432"><ele>651</ele></trkpt><trkpt lat="46.594379" lon="14.151692"><ele>651</ele></trkpt><trkpt lat="46.594199" lon="14.15203"><ele>633</ele></trkpt><trkpt lat="46.594127" lon="14.152343"><ele>633</ele></trkpt><trkpt lat="46.5941" lon="14.152585"><ele>633</ele></trkpt><trkpt lat="46.594104" lon="14.15305"><ele>621</ele></trkpt><trkpt lat="46.594153" lon="14.153227"><ele>621</ele></trkpt><trkpt lat="46.594292" lon="14.15345"><ele>621</ele></trkpt><trkpt lat="46.594308" lon="14.153762"><ele>617</ele></trkpt><trkpt lat="46.594245" lon="14.154038"><ele>617</ele></trkpt><trkpt lat="46.594097" lon="14.154429"><ele>617</ele></trkpt><trkpt lat="46.593931" lon="14.154774"><ele>587</ele></trkpt><trkpt lat="46.593769" lon="14.15534"><ele>573</ele></trkpt><trkpt lat="46.593643" lon="14.156116"><ele>578</ele></trkpt><trkpt lat="46.593668" lon="14.156482"><ele>578</ele></trkpt><trkpt lat="46.593609" lon="14.15678"><ele>578</ele></trkpt><trkpt lat="46.593595" lon="14.157061"><ele>573</ele></trkpt><trkpt lat="46.593647" lon="14.15733"><ele>573</ele></trkpt><trkpt lat="46.593449" lon="14.157654"><ele>573</ele></trkpt><trkpt lat="46.593409" lon="14.15768"><ele>573</ele></trkpt><trkpt lat="46.593284" lon="14.15768"><ele>573</ele></trkpt><trkpt lat="46.592993" lon="14.157536"><ele>558</ele></trkpt><trkpt lat="46.592913" lon="14.157392"><ele>558</ele></trkpt><trkpt lat="46.592906" lon="14.157502"><ele>558</ele></trkpt><trkpt lat="46.59276" lon="14.157913"><ele>551</ele></trkpt><trkpt lat="46.592719" lon="14.158227"><ele>551</ele></trkpt><trkpt lat="46.59265" lon="14.159122"><ele>550</ele></trkpt><trkpt lat="46.592674" lon="14.15978"><ele>560</ele></trkpt><trkpt lat="46.5927" lon="14.159928"><ele>560</ele></trkpt><trkpt lat="46.592737" lon="14.160041"><ele>560</ele></trkpt><trkpt lat="46.592815" lon="14.160173"><ele>560</ele></trkpt><trkpt lat="46.592914" lon="14.160276"><ele>560</ele></trkpt><trkpt lat="46.593125" lon="14.160952"><ele>564</ele></trkpt><trkpt lat="46.593125" lon="14.160952"><ele>564</ele></trkpt><trkpt lat="46.593172" lon="14.161101"><ele>564</ele></trkpt><trkpt lat="46.593252" lon="14.161505"><ele>576</ele></trkpt><trkpt lat="46.593216" lon="14.161784"><ele>576</ele></trkpt><trkpt lat="46.593151" lon="14.161983"><ele>556</ele></trkpt><trkpt lat="46.593055" lon="14.162115"><ele>556</ele></trkpt><trkpt lat="46.592962" lon="14.162208"><ele>556</ele></trkpt><trkpt lat="46.592854" lon="14.162278"><ele>556</ele></trkpt><trkpt lat="46.592711" lon="14.162297"><ele>556</ele></trkpt><trkpt lat="46.592493" lon="14.162205"><ele>556</ele></trkpt><trkpt lat="46.592424" lon="14.162198"><ele>556</ele></trkpt><trkpt lat="46.592305" lon="14.162254"><ele>542</ele></trkpt><trkpt lat="46.592231" lon="14.162386"><ele>542</ele></trkpt><trkpt lat="46.592222" lon="14.162476"><ele>542</ele></trkpt><trkpt lat="46.592246" lon="14.16258"><ele>542</ele></trkpt><trkpt lat="46.592475" lon="14.163122"><ele>544</ele></trkpt><trkpt lat="46.592442" lon="14.163277"><ele>544</ele></trkpt><trkpt lat="46.592109" lon="14.163705"><ele>538</ele></trkpt><trkpt lat="46.592064" lon="14.163828"><ele>538</ele></trkpt><trkpt lat="46.592046" lon="14.163894"><ele>538</ele></trkpt><trkpt lat="46.591999" lon="14.16452"><ele>518</ele></trkpt><trkpt lat="46.591955" lon="14.164675"><ele>518</ele></trkpt><trkpt lat="46.591861" lon="14.164811"><ele>518</ele></trkpt><trkpt lat="46.59173" lon="14.164979"><ele>518</ele></trkpt><trkpt lat="46.591717" lon="14.165044"><ele>518</ele></trkpt><trkpt lat="46.591665" lon="14.16528"><ele>510</ele></trkpt><trkpt lat="46.591583" lon="14.165322"><ele>510</ele></trkpt><trkpt lat="46.59183" lon="14.166407"><ele>512</ele></trkpt><trkpt lat="46.591893" lon="14.166719"><ele>512</ele></trkpt><trkpt lat="46.591974" lon="14.166997"><ele>511</ele></trkpt><trkpt lat="46.59208" lon="14.167828"><ele>510</ele></trkpt><trkpt lat="46.592045" lon="14.168514"><ele>510</ele></trkpt><trkpt lat="46.591986" lon="14.169068"><ele>509</ele></trkpt><trkpt lat="46.59196" lon="14.169163"><ele>509</ele></trkpt><trkpt lat="46.591948" lon="14.169195"><ele>509</ele></trkpt><trkpt lat="46.591805" lon="14.169262"><ele>509</ele></trkpt><trkpt lat="46.591802" lon="14.169329"><ele>509</ele></trkpt><trkpt lat="46.591892" lon="14.169361"><ele>509</ele></trkpt><trkpt lat="46.591899" lon="14.169451"><ele>510</ele></trkpt><trkpt lat="46.59193" lon="14.169518"><ele>510</ele></trkpt><trkpt lat="46.591909" lon="14.169935"><ele>510</ele></trkpt><trkpt lat="46.591911" lon="14.16997"><ele>510</ele></trkpt><trkpt lat="46.591854" lon="14.170445"><ele>512</ele></trkpt><trkpt lat="46.591767" lon="14.170821"><ele>512</ele></trkpt><trkpt lat="46.59174" lon="14.170927"><ele>512</ele></trkpt><trkpt lat="46.591612" lon="14.171311"><ele>515</ele></trkpt><trkpt lat="46.591425" lon="14.171749"><ele>510</ele></trkpt><trkpt lat="46.591425" lon="14.171749"><ele>510</ele></trkpt><trkpt lat="46.591612" lon="14.171311"><ele>515</ele></trkpt><trkpt lat="46.591407" lon="14.171235"><ele>510</ele></trkpt><trkpt lat="46.590942" lon="14.171225"><ele>510</ele></trkpt><trkpt lat="46.590827" lon="14.171172"><ele>510</ele></trkpt><trkpt lat="46.590643" lon="14.170991"><ele>509</ele></trkpt><trkpt lat="46.590491" lon="14.170838"><ele>509</ele></trkpt><trkpt lat="46.590383" lon="14.170607"><ele>509</ele></trkpt><trkpt lat="46.590334" lon="14.170517"><ele>509</ele></trkpt><trkpt lat="46.59028" lon="14.170583"><ele>509</ele></trkpt><trkpt lat="46.589981" lon="14.170756"><ele>509</ele></trkpt><trkpt lat="46.589815" lon="14.170762"><ele>507</ele></trkpt><trkpt lat="46.589594" lon="14.170757"><ele>507</ele></trkpt><trkpt lat="46.589596" lon="14.170803"><ele>507</ele></trkpt><trkpt lat="46.589247" lon="14.170854"><ele>507</ele></trkpt><trkpt lat="46.589121" lon="14.170894"><ele>507</ele></trkpt><trkpt lat="46.588996" lon="14.170961"><ele>504</ele></trkpt><trkpt lat="46.58888" lon="14.171046"><ele>504</ele></trkpt><trkpt lat="46.588727" lon="14.171204"><ele>506</ele></trkpt><trkpt lat="46.588592" lon="14.17138"><ele>506</ele></trkpt><trkpt lat="46.588485" lon="14.171592"><ele>506</ele></trkpt><trkpt lat="46.588421" lon="14.171621"><ele>506</ele></trkpt><trkpt lat="46.588309" lon="14.172452"><ele>507</ele></trkpt><trkpt lat="46.588203" lon="14.17288"><ele>509</ele></trkpt><trkpt lat="46.587988" lon="14.173097"><ele>508</ele></trkpt><trkpt lat="46.58693" lon="14.17388"><ele>510</ele></trkpt><trkpt lat="46.587027" lon="14.174766"><ele>509</ele></trkpt><trkpt lat="46.587189" lon="14.175341"><ele>509</ele></trkpt><trkpt lat="46.587446" lon="14.175839"><ele>508</ele></trkpt><trkpt lat="46.587875" lon="14.176353"><ele>510</ele></trkpt><trkpt lat="46.588014" lon="14.177078"><ele>510</ele></trkpt><trkpt lat="46.588185" lon="14.178164"><ele>509</ele></trkpt><trkpt lat="46.588301" lon="14.178592"><ele>509</ele></trkpt><trkpt lat="46.588382" lon="14.178732"><ele>508</ele></trkpt><trkpt lat="46.588515" lon="14.178887"><ele>508</ele></trkpt><trkpt lat="46.588378" lon="14.178947"><ele>508</ele></trkpt><trkpt lat="46.588073" lon="14.178982"><ele>509</ele></trkpt><trkpt lat="46.587854" lon="14.17903"><ele>509</ele></trkpt><trkpt lat="46.587749" lon="14.179086"><ele>509</ele></trkpt><trkpt lat="46.587658" lon="14.179181"><ele>509</ele></trkpt><trkpt lat="46.587376" lon="14.17958"><ele>507</ele></trkpt><trkpt lat="46.587233" lon="14.179727"><ele>507</ele></trkpt><trkpt lat="46.586733" lon="14.18006"><ele>507</ele></trkpt><trkpt lat="46.586465" lon="14.18028"><ele>507</ele></trkpt><trkpt lat="46.58642" lon="14.180645"><ele>511</ele></trkpt><trkpt lat="46.586362" lon="14.180985"><ele>511</ele></trkpt><trkpt lat="46.586305" lon="14.181109"><ele>511</ele></trkpt><trkpt lat="46.586261" lon="14.181153"><ele>515</ele></trkpt><trkpt lat="46.585414" lon="14.18168"><ele>516</ele></trkpt><trkpt lat="46.585333" lon="14.181743"><ele>516</ele></trkpt><trkpt lat="46.585333" lon="14.181743"><ele>516</ele></trkpt><trkpt lat="46.585414" lon="14.18168"><ele>516</ele></trkpt><trkpt lat="46.58527" lon="14.18167"><ele>516</ele></trkpt><trkpt lat="46.585123" lon="14.181742"><ele>516</ele></trkpt><trkpt lat="46.585025" lon="14.181834"><ele>516</ele></trkpt><trkpt lat="46.584951" lon="14.18193"><ele>516</ele></trkpt><trkpt lat="46.584895" lon="14.182051"><ele>523</ele></trkpt><trkpt lat="46.58491" lon="14.182194"><ele>523</ele></trkpt><trkpt lat="46.584927" lon="14.182385"><ele>523</ele></trkpt><trkpt lat="46.585049" lon="14.182629"><ele>523</ele></trkpt><trkpt lat="46.585097" lon="14.182705"><ele>523</ele></trkpt><trkpt lat="46.585133" lon="14.182816"><ele>529</ele></trkpt><trkpt lat="46.585152" lon="14.182945"><ele>529</ele></trkpt><trkpt lat="46.585177" lon="14.183149"><ele>529</ele></trkpt><trkpt lat="46.585147" lon="14.183728"><ele>534</ele></trkpt><trkpt lat="46.585219" lon="14.184166"><ele>534</ele></trkpt><trkpt lat="46.585299" lon="14.184447"><ele>534</ele></trkpt><trkpt lat="46.585633" lon="14.185063"><ele>540</ele></trkpt><trkpt lat="46.585799" lon="14.185482"><ele>518</ele></trkpt><trkpt lat="46.586062" lon="14.186371"><ele>524</ele></trkpt><trkpt lat="46.586026" lon="14.186985"><ele>535</ele></trkpt><trkpt lat="46.586035" lon="14.187324"><ele>535</ele></trkpt><trkpt lat="46.586026" lon="14.187395"><ele>535</ele></trkpt><trkpt lat="46.586026" lon="14.187395"><ele>535</ele></trkpt><trkpt lat="46.585913" lon="14.188251"><ele>535</ele></trkpt><trkpt lat="46.586014" lon="14.18864"><ele>533</ele></trkpt><trkpt lat="46.586237" lon="14.189159"><ele>533</ele></trkpt><trkpt lat="46.586347" lon="14.190219"><ele>533</ele></trkpt><trkpt lat="46.586694" lon="14.190754"><ele>522</ele></trkpt><trkpt lat="46.586812" lon="14.191193"><ele>525</ele></trkpt><trkpt lat="46.586998" lon="14.191617"><ele>525</ele></trkpt><trkpt lat="46.58717" lon="14.191782"><ele>525</ele></trkpt><trkpt lat="46.587245" lon="14.191948"><ele>525</ele></trkpt><trkpt lat="46.58735" lon="14.192496"><ele>515</ele></trkpt><trkpt lat="46.58748" lon="14.192865"><ele>519</ele></trkpt><trkpt lat="46.587263" lon="14.193041"><ele>534</ele></trkpt><trkpt lat="46.58712" lon="14.193405"><ele>534</ele></trkpt><trkpt lat="46.587089" lon="14.193914"><ele>533</ele></trkpt><trkpt lat="46.586902" lon="14.194417"><ele>533</ele></trkpt><trkpt lat="46.58664" lon="14.195425"><ele>536</ele></trkpt><trkpt lat="46.586639" lon="14.195425"><ele>536</ele></trkpt><trkpt lat="46.586531" lon="14.19584"><ele>536</ele></trkpt><trkpt lat="46.586206" lon="14.196095"><ele>562</ele></trkpt><trkpt lat="46.586211" lon="14.196609"><ele>554</ele></trkpt><trkpt lat="46.586335" lon="14.197328"><ele>549</ele></trkpt><trkpt lat="46.58645" lon="14.197896"><ele>549</ele></trkpt><trkpt lat="46.586668" lon="14.198115"><ele>532</ele></trkpt><trkpt lat="46.58682" lon="14.198088"><ele>532</ele></trkpt><trkpt lat="46.587111" lon="14.197838"><ele>532</ele></trkpt><trkpt lat="46.587099" lon="14.198056"><ele>532</ele></trkpt><trkpt lat="46.587023" lon="14.198426"><ele>532</ele></trkpt><trkpt lat="46.587042" lon="14.198661"><ele>538</ele></trkpt><trkpt lat="46.586753" lon="14.199637"><ele>536</ele></trkpt><trkpt lat="46.58645" lon="14.200061"><ele>550</ele></trkpt><trkpt lat="46.586343" lon="14.200122"><ele>550</ele></trkpt><trkpt lat="46.586185" lon="14.2001"><ele>550</ele></trkpt><trkpt lat="46.586068" lon="14.200156"><ele>550</ele></trkpt><trkpt lat="46.585955" lon="14.200282"><ele>550</ele></trkpt><trkpt lat="46.585753" lon="14.200704"><ele>546</ele></trkpt><trkpt lat="46.585731" lon="14.200889"><ele>546</ele></trkpt><trkpt lat="46.585941" lon="14.201376"><ele>539</ele></trkpt><trkpt lat="46.585923" lon="14.201601"><ele>539</ele></trkpt><trkpt lat="46.585873" lon="14.201764"><ele>539</ele></trkpt><trkpt lat="46.585359" lon="14.203004"><ele>559</ele></trkpt><trkpt lat="46.585359" lon="14.203004"><ele>559</ele></trkpt><trkpt lat="46.585302" lon="14.203143"><ele>559</ele></trkpt><trkpt lat="46.5852" lon="14.203345"><ele>559</ele></trkpt><trkpt lat="46.585059" lon="14.20337"><ele>559</ele></trkpt><trkpt lat="46.584849" lon="14.203194"><ele>559</ele></trkpt><trkpt lat="46.584674" lon="14.203169"><ele>569</ele></trkpt><trkpt lat="46.584618" lon="14.20335"><ele>569</ele></trkpt><trkpt lat="46.584859" lon="14.203576"><ele>559</ele></trkpt><trkpt lat="46.584968" lon="14.203768"><ele>560</ele></trkpt><trkpt lat="46.585015" lon="14.204056"><ele>560</ele></trkpt><trkpt lat="46.584968" lon="14.20423"><ele>560</ele></trkpt><trkpt lat="46.584906" lon="14.204814"><ele>564</ele></trkpt><trkpt lat="46.584553" lon="14.205222"><ele>578</ele></trkpt><trkpt lat="46.584449" lon="14.205737"><ele>578</ele></trkpt><trkpt lat="46.584494" lon="14.206164"><ele>576</ele></trkpt><trkpt lat="46.584193" lon="14.205848"><ele>578</ele></trkpt><trkpt lat="46.584066" lon="14.205945"><ele>578</ele></trkpt><trkpt lat="46.58391" lon="14.206302"><ele>591</ele></trkpt><trkpt lat="46.583798" lon="14.206616"><ele>591</ele></trkpt><trkpt lat="46.58374" lon="14.206913"><ele>591</ele></trkpt><trkpt lat="46.58373" lon="14.207268"><ele>596</ele></trkpt><trkpt lat="46.583687" lon="14.207413"><ele>596</ele></trkpt><trkpt lat="46.583549" lon="14.207668"><ele>596</ele></trkpt><trkpt lat="46.58329" lon="14.207773"><ele>596</ele></trkpt><trkpt lat="46.583184" lon="14.208104"><ele>590</ele></trkpt><trkpt lat="46.583066" lon="14.208351"><ele>617</ele></trkpt><trkpt lat="46.582939" lon="14.208428"><ele>617</ele></trkpt><trkpt lat="46.582838" lon="14.208522"><ele>617</ele></trkpt><trkpt lat="46.582762" lon="14.208651"><ele>611</ele></trkpt><trkpt lat="46.582696" lon="14.208879"><ele>611</ele></trkpt><trkpt lat="46.582659" lon="14.20907"><ele>611</ele></trkpt><trkpt lat="46.58201" lon="14.210191"><ele>660</ele></trkpt><trkpt lat="46.581902" lon="14.210523"><ele>641</ele></trkpt><trkpt lat="46.581836" lon="14.210807"><ele>641</ele></trkpt><trkpt lat="46.581635" lon="14.21133"><ele>627</ele></trkpt><trkpt lat="46.581421" lon="14.211836"><ele>686</ele></trkpt><trkpt lat="46.581217" lon="14.212215"><ele>656</ele></trkpt><trkpt lat="46.581134" lon="14.212565"><ele>656</ele></trkpt><trkpt lat="46.581043" lon="14.213227"><ele>638</ele></trkpt><trkpt lat="46.581012" lon="14.213622"><ele>622</ele></trkpt><trkpt lat="46.580971" lon="14.213904"><ele>622</ele></trkpt><trkpt lat="46.580784" lon="14.214786"><ele>616</ele></trkpt><trkpt lat="46.580707" lon="14.215211"><ele>616</ele></trkpt><trkpt lat="46.580658" lon="14.215652"><ele>644</ele></trkpt><trkpt lat="46.580526" lon="14.2163"><ele>632</ele></trkpt><trkpt lat="46.580479" lon="14.216863"><ele>632</ele></trkpt><trkpt lat="46.580373" lon="14.217149"><ele>633</ele></trkpt><trkpt lat="46.580256" lon="14.217801"><ele>646</ele></trkpt><trkpt lat="46.580158" lon="14.218231"><ele>646</ele></trkpt><trkpt lat="46.580043" lon="14.218591"><ele>646</ele></trkpt><trkpt lat="46.579958" lon="14.218942"><ele>644</ele></trkpt><trkpt lat="46.579911" lon="14.219217"><ele>644</ele></trkpt><trkpt lat="46.579755" lon="14.220684"><ele>661</ele></trkpt><trkpt lat="46.579723" lon="14.221275"><ele>657</ele></trkpt><trkpt lat="46.579181" lon="14.222324"><ele>647</ele></trkpt><trkpt lat="46.578867" lon="14.223223"><ele>671</ele></trkpt><trkpt lat="46.578867" lon="14.223223"><ele>671</ele></trkpt><trkpt lat="46.57882" lon="14.223358"><ele>671</ele></trkpt><trkpt lat="46.578768" lon="14.223654"><ele>653</ele></trkpt><trkpt lat="46.578768" lon="14.223982"><ele>653</ele></trkpt><trkpt lat="46.578839" lon="14.224421"><ele>653</ele></trkpt><trkpt lat="46.578618" lon="14.225159"><ele>648</ele></trkpt><trkpt lat="46.578517" lon="14.22556"><ele>648</ele></trkpt><trkpt lat="46.57838" lon="14.226398"><ele>646</ele></trkpt><trkpt lat="46.578228" lon="14.226959"><ele>642</ele></trkpt><trkpt lat="46.578012" lon="14.227482"><ele>706</ele></trkpt><trkpt lat="46.578012" lon="14.227831"><ele>682</ele></trkpt><trkpt lat="46.578224" lon="14.228407"><ele>633</ele></trkpt><trkpt lat="46.57827" lon="14.228856"><ele>619</ele></trkpt><trkpt lat="46.578298" lon="14.228936"><ele>619</ele></trkpt><trkpt lat="46.57834" lon="14.229001"><ele>619</ele></trkpt><trkpt lat="46.578388" lon="14.229012"><ele>619</ele></trkpt><trkpt lat="46.578497" lon="14.229167"><ele>619</ele></trkpt><trkpt lat="46.578351" lon="14.229564"><ele>623</ele></trkpt><trkpt lat="46.578476" lon="14.229942"><ele>623</ele></trkpt><trkpt lat="46.578355" lon="14.230832"><ele>635</ele></trkpt><trkpt lat="46.578326" lon="14.231419"><ele>640</ele></trkpt><trkpt lat="46.578417" lon="14.231905"><ele>640</ele></trkpt><trkpt lat="46.578459" lon="14.232531"><ele>642</ele></trkpt><trkpt lat="46.578613" lon="14.232946"><ele>645</ele></trkpt><trkpt lat="46.578755" lon="14.234008"><ele>651</ele></trkpt><trkpt lat="46.578841" lon="14.234345"><ele>651</ele></trkpt><trkpt lat="46.578993" lon="14.234714"><ele>663</ele></trkpt><trkpt lat="46.579065" lon="14.235057"><ele>653</ele></trkpt><trkpt lat="46.579371" lon="14.235492"><ele>662</ele></trkpt><trkpt lat="46.579551" lon="14.235793"><ele>662</ele></trkpt><trkpt lat="46.579677" lon="14.236184"><ele>670</ele></trkpt><trkpt lat="46.579705" lon="14.236488"><ele>670</ele></trkpt><trkpt lat="46.579844" lon="14.236701"><ele>670</ele></trkpt><trkpt lat="46.57942" lon="14.237792"><ele>692</ele></trkpt><trkpt lat="46.579566" lon="14.238422"><ele>692</ele></trkpt><trkpt lat="46.579587" lon="14.239223"><ele>707</ele></trkpt><trkpt lat="46.579512" lon="14.239579"><ele>708</ele></trkpt><trkpt lat="46.579512" lon="14.239579"><ele>708</ele></trkpt><trkpt lat="46.579413" lon="14.24005"><ele>708</ele></trkpt><trkpt lat="46.579167" lon="14.240814"><ele>697</ele></trkpt><trkpt lat="46.578765" lon="14.241515"><ele>736</ele></trkpt><trkpt lat="46.578629" lon="14.242567"><ele>717</ele></trkpt><trkpt lat="46.57862" lon="14.243291"><ele>703</ele></trkpt><trkpt lat="46.578645" lon="14.243846"><ele>693</ele></trkpt><trkpt lat="46.579038" lon="14.244642"><ele>678</ele></trkpt><trkpt lat="46.579052" lon="14.24545"><ele>677</ele></trkpt><trkpt lat="46.578869" lon="14.245878"><ele>685</ele></trkpt><trkpt lat="46.578707" lon="14.246757"><ele>687</ele></trkpt><trkpt lat="46.578702" lon="14.246861"><ele>687</ele></trkpt><trkpt lat="46.578832" lon="14.247387"><ele>693</ele></trkpt><trkpt lat="46.578956" lon="14.247796"><ele>691</ele></trkpt><trkpt lat="46.579" lon="14.248055"><ele>691</ele></trkpt><trkpt lat="46.578596" lon="14.248598"><ele>691</ele></trkpt><trkpt lat="46.578577" lon="14.24885"><ele>696</ele></trkpt><trkpt lat="46.578769" lon="14.249526"><ele>697</ele></trkpt><trkpt lat="46.578993" lon="14.250143"><ele>697</ele></trkpt><trkpt lat="46.579242" lon="14.250938"><ele>683</ele></trkpt><trkpt lat="46.579089" lon="14.251506"><ele>682</ele></trkpt><trkpt lat="46.578858" lon="14.251623"><ele>677</ele></trkpt><trkpt lat="46.578719" lon="14.251787"><ele>677</ele></trkpt><trkpt lat="46.57861" lon="14.251831"><ele>677</ele></trkpt><trkpt lat="46.578461" lon="14.252068"><ele>665</ele></trkpt><trkpt lat="46.57839" lon="14.252409"><ele>665</ele></trkpt><trkpt lat="46.57837" lon="14.252467"><ele>665</ele></trkpt><trkpt lat="46.578024" lon="14.253012"><ele>646</ele></trkpt><trkpt lat="46.577733" lon="14.253546"><ele>646</ele></trkpt><trkpt lat="46.577661" lon="14.253955"><ele>644</ele></trkpt><trkpt lat="46.577661" lon="14.254398"><ele>644</ele></trkpt><trkpt lat="46.577674" lon="14.254509"><ele>640</ele></trkpt><trkpt lat="46.577708" lon="14.254789"><ele>640</ele></trkpt><trkpt lat="46.577861" lon="14.255512"><ele>637</ele></trkpt><trkpt lat="46.578159" lon="14.256668"><ele>634</ele></trkpt><trkpt lat="46.578272" lon="14.257551"><ele>644</ele></trkpt><trkpt lat="46.578415" lon="14.258019"><ele>637</ele></trkpt><trkpt lat="46.578392" lon="14.258591"><ele>637</ele></trkpt><trkpt lat="46.578321" lon="14.258806"><ele>630</ele></trkpt><trkpt lat="46.578321" lon="14.258806"><ele>630</ele></trkpt><trkpt lat="46.578116" lon="14.25943"><ele>610</ele></trkpt><trkpt lat="46.578074" lon="14.260007"><ele>606</ele></trkpt><trkpt lat="46.578106" lon="14.260453"><ele>598</ele></trkpt><trkpt lat="46.578383" lon="14.261051"><ele>617</ele></trkpt><trkpt lat="46.578579" lon="14.261404"><ele>602</ele></trkpt><trkpt lat="46.579011" lon="14.26195"><ele>602</ele></trkpt><trkpt lat="46.579085" lon="14.262102"><ele>594</ele></trkpt><trkpt lat="46.579146" lon="14.262501"><ele>594</ele></trkpt><trkpt lat="46.579112" lon="14.262833"><ele>581</ele></trkpt><trkpt lat="46.578914" lon="14.263306"><ele>566</ele></trkpt><trkpt lat="46.578882" lon="14.263449"><ele>566</ele></trkpt><trkpt lat="46.57888" lon="14.263563"><ele>566</ele></trkpt><trkpt lat="46.578906" lon="14.2637"><ele>560</ele></trkpt><trkpt lat="46.579005" lon="14.264068"><ele>560</ele></trkpt><trkpt lat="46.579" lon="14.264224"><ele>560</ele></trkpt><trkpt lat="46.578945" lon="14.26444"><ele>560</ele></trkpt><trkpt lat="46.578638" lon="14.264885"><ele>559</ele></trkpt><trkpt lat="46.578421" lon="14.265623"><ele>560</ele></trkpt><trkpt lat="46.57845" lon="14.266239"><ele>562</ele></trkpt><trkpt lat="46.57846" lon="14.266454"><ele>562</ele></trkpt><trkpt lat="46.578627" lon="14.267185"><ele>560</ele></trkpt><trkpt lat="46.578653" lon="14.267299"><ele>560</ele></trkpt><trkpt lat="46.57874" lon="14.267704"><ele>560</ele></trkpt><trkpt lat="46.578954" lon="14.268547"><ele>551</ele></trkpt><trkpt lat="46.579278" lon="14.269293"><ele>552</ele></trkpt><trkpt lat="46.579376" lon="14.269922"><ele>547</ele></trkpt><trkpt lat="46.580089" lon="14.270832"><ele>541</ele></trkpt><trkpt lat="46.580326" lon="14.271023"><ele>541</ele></trkpt><trkpt lat="46.580522" lon="14.271445"><ele>536</ele></trkpt><trkpt lat="46.580658" lon="14.271663"><ele>536</ele></trkpt><trkpt lat="46.580836" lon="14.27186"><ele>531</ele></trkpt><trkpt lat="46.580982" lon="14.272092"><ele>523</ele></trkpt><trkpt lat="46.580921" lon="14.272447"><ele>523</ele></trkpt><trkpt lat="46.580728" lon="14.272783"><ele>523</ele></trkpt><trkpt lat="46.580491" lon="14.27297"><ele>524</ele></trkpt><trkpt lat="46.580329" lon="14.273264"><ele>524</ele></trkpt><trkpt lat="46.580314" lon="14.273607"><ele>524</ele></trkpt><trkpt lat="46.580336" lon="14.2737"><ele>518</ele></trkpt><trkpt lat="46.580539" lon="14.27459"><ele>514</ele></trkpt><trkpt lat="46.580539" lon="14.27459"><ele>514</ele></trkpt><trkpt lat="46.580336" lon="14.2737"><ele>518</ele></trkpt><trkpt lat="46.579932" lon="14.273282"><ele>524</ele></trkpt><trkpt lat="46.579541" lon="14.272967"><ele>524</ele></trkpt><trkpt lat="46.579157" lon="14.272908"><ele>524</ele></trkpt><trkpt lat="46.578811" lon="14.272854"><ele>510</ele></trkpt><trkpt lat="46.57811" lon="14.272231"><ele>505</ele></trkpt><trkpt lat="46.577648" lon="14.272024"><ele>505</ele></trkpt><trkpt lat="46.577551" lon="14.271981"><ele>505</ele></trkpt><trkpt lat="46.577284" lon="14.272047"><ele>490</ele></trkpt><trkpt lat="46.577059" lon="14.271978"><ele>490</ele></trkpt><trkpt lat="46.576856" lon="14.271752"><ele>498</ele></trkpt><trkpt lat="46.576633" lon="14.271418"><ele>498</ele></trkpt><trkpt lat="46.576585" lon="14.271317"><ele>498</ele></trkpt><trkpt lat="46.576492" lon="14.271006"><ele>494</ele></trkpt><trkpt lat="46.576251" lon="14.270616"><ele>494</ele></trkpt><trkpt lat="46.576175" lon="14.270494"><ele>494</ele></trkpt><trkpt lat="46.576077" lon="14.270274"><ele>503</ele></trkpt><trkpt lat="46.575842" lon="14.269561"><ele>503</ele></trkpt><trkpt lat="46.575746" lon="14.26937"><ele>517</ele></trkpt><trkpt lat="46.575562" lon="14.269069"><ele>501</ele></trkpt><trkpt lat="46.575475" lon="14.268843"><ele>501</ele></trkpt><trkpt lat="46.575153" lon="14.268221"><ele>512</ele></trkpt><trkpt lat="46.575085" lon="14.26814"><ele>512</ele></trkpt><trkpt lat="46.57502" lon="14.2681"><ele>512</ele></trkpt><trkpt lat="46.574952" lon="14.268122"><ele>512</ele></trkpt><trkpt lat="46.574899" lon="14.268164"><ele>512</ele></trkpt><trkpt lat="46.574647" lon="14.268472"><ele>495</ele></trkpt><trkpt lat="46.574404" lon="14.268699"><ele>490</ele></trkpt><trkpt lat="46.573925" lon="14.269026"><ele>492</ele></trkpt><trkpt lat="46.573778" lon="14.269195"><ele>492</ele></trkpt><trkpt lat="46.573643" lon="14.269384"><ele>492</ele></trkpt><trkpt lat="46.573597" lon="14.269449"><ele>492</ele></trkpt><trkpt lat="46.573384" lon="14.269739"><ele>494</ele></trkpt><trkpt lat="46.573069" lon="14.26998"><ele>498</ele></trkpt><trkpt lat="46.572967" lon="14.270019"><ele>498</ele></trkpt><trkpt lat="46.572843" lon="14.270054"><ele>498</ele></trkpt><trkpt lat="46.572409" lon="14.270246"><ele>498</ele></trkpt><trkpt lat="46.572175" lon="14.270345"><ele>514</ele></trkpt><trkpt lat="46.571821" lon="14.270603"><ele>514</ele></trkpt><trkpt lat="46.570798" lon="14.271005"><ele>524</ele></trkpt><trkpt lat="46.570495" lon="14.270737"><ele>535</ele></trkpt><trkpt lat="46.570299" lon="14.270434"><ele>535</ele></trkpt><trkpt lat="46.569938" lon="14.269809"><ele>533</ele></trkpt><trkpt lat="46.569748" lon="14.269098"><ele>541</ele></trkpt><trkpt lat="46.56973" lon="14.268335"><ele>538</ele></trkpt><trkpt lat="46.569738" lon="14.26809"><ele>538</ele></trkpt><trkpt lat="46.569725" lon="14.268002"><ele>538</ele></trkpt><trkpt lat="46.569568" lon="14.267617"><ele>540</ele></trkpt><trkpt lat="46.569546" lon="14.267516"><ele>540</ele></trkpt><trkpt lat="46.569555" lon="14.267441"><ele>540</ele></trkpt><trkpt lat="46.569582" lon="14.267396"><ele>540</ele></trkpt><trkpt lat="46.569622" lon="14.267374"><ele>540</ele></trkpt><trkpt lat="46.569528" lon="14.267297"><ele>540</ele></trkpt><trkpt lat="46.569478" lon="14.267282"><ele>540</ele></trkpt><trkpt lat="46.569326" lon="14.26729"><ele>540</ele></trkpt><trkpt lat="46.569141" lon="14.267334"><ele>540</ele></trkpt><trkpt lat="46.568596" lon="14.267285"><ele>541</ele></trkpt><trkpt lat="46.568499" lon="14.267224"><ele>541</ele></trkpt><trkpt lat="46.568447" lon="14.26713"><ele>541</ele></trkpt><trkpt lat="46.568401" lon="14.266923"><ele>545</ele></trkpt><trkpt lat="46.568251" lon="14.266044"><ele>548</ele></trkpt><trkpt lat="46.56821" lon="14.265714"><ele>548</ele></trkpt><trkpt lat="46.5681" lon="14.265702"><ele>550</ele></trkpt><trkpt lat="46.56783" lon="14.265609"><ele>550</ele></trkpt><trkpt lat="46.5676" lon="14.265456"><ele>550</ele></trkpt><trkpt lat="46.567165" lon="14.265653"><ele>549</ele></trkpt><trkpt lat="46.566975" lon="14.26581"><ele>549</ele></trkpt><trkpt lat="46.566904" lon="14.265781"><ele>549</ele></trkpt><trkpt lat="46.566869" lon="14.265715"><ele>549</ele></trkpt><trkpt lat="46.566793" lon="14.265476"><ele>549</ele></trkpt><trkpt lat="46.566717" lon="14.2652"><ele>551</ele></trkpt><trkpt lat="46.566371" lon="14.264417"><ele>569</ele></trkpt><trkpt lat="46.566171" lon="14.263777"><ele>569</ele></trkpt><trkpt lat="46.566179" lon="14.263476"><ele>568</ele></trkpt><trkpt lat="46.566162" lon="14.262836"><ele>568</ele></trkpt><trkpt lat="46.566134" lon="14.262466"><ele>567</ele></trkpt><trkpt lat="46.566086" lon="14.262198"><ele>567</ele></trkpt><trkpt lat="46.566008" lon="14.262065"><ele>567</ele></trkpt><trkpt lat="46.565874" lon="14.262013"><ele>567</ele></trkpt><trkpt lat="46.56555" lon="14.262134"><ele>569</ele></trkpt><trkpt lat="46.565323" lon="14.262131"><ele>569</ele></trkpt><trkpt lat="46.565039" lon="14.262096"><ele>569</ele></trkpt><trkpt lat="46.564884" lon="14.262032"><ele>569</ele></trkpt><trkpt lat="46.564519" lon="14.261692"><ele>575</ele></trkpt><trkpt lat="46.564034" lon="14.261537"><ele>575</ele></trkpt><trkpt lat="46.563854" lon="14.261549"><ele>582</ele></trkpt><trkpt lat="46.563642" lon="14.261447"><ele>582</ele></trkpt><trkpt lat="46.563677" lon="14.261267"><ele>582</ele></trkpt><trkpt lat="46.563665" lon="14.261151"><ele>582</ele></trkpt><trkpt lat="46.563628" lon="14.261039"><ele>580</ele></trkpt><trkpt lat="46.56341" lon="14.260652"><ele>580</ele></trkpt><trkpt lat="46.563309" lon="14.260482"><ele>580</ele></trkpt><trkpt lat="46.5632" lon="14.260359"><ele>580</ele></trkpt><trkpt lat="46.562927" lon="14.260069"><ele>584</ele></trkpt><trkpt lat="46.562748" lon="14.259893"><ele>584</ele></trkpt><trkpt lat="46.562639" lon="14.259835"><ele>584</ele></trkpt><trkpt lat="46.562578" lon="14.259813"><ele>584</ele></trkpt><trkpt lat="46.562376" lon="14.259795"><ele>584</ele></trkpt><trkpt lat="46.562258" lon="14.25981"><ele>605</ele></trkpt><trkpt lat="46.562207" lon="14.259763"><ele>605</ele></trkpt><trkpt lat="46.56217" lon="14.259694"><ele>605</ele></trkpt><trkpt lat="46.562056" lon="14.259235"><ele>595</ele></trkpt><trkpt lat="46.561993" lon="14.259122"><ele>595</ele></trkpt><trkpt lat="46.560845" lon="14.25791"><ele>601</ele></trkpt><trkpt lat="46.560561" lon="14.257848"><ele>600</ele></trkpt><trkpt lat="46.55995" lon="14.25799"><ele>600</ele></trkpt><trkpt lat="46.559686" lon="14.25826"><ele>601</ele></trkpt><trkpt lat="46.559432" lon="14.258435"><ele>601</ele></trkpt><trkpt lat="46.559281" lon="14.258646"><ele>608</ele></trkpt><trkpt lat="46.559076" lon="14.259135"><ele>608</ele></trkpt><trkpt lat="46.558818" lon="14.259543"><ele>607</ele></trkpt><trkpt lat="46.558616" lon="14.259753"><ele>607</ele></trkpt><trkpt lat="46.558447" lon="14.259881"><ele>607</ele></trkpt><trkpt lat="46.558247" lon="14.259993"><ele>607</ele></trkpt><trkpt lat="46.557986" lon="14.260109"><ele>595</ele></trkpt><trkpt lat="46.557763" lon="14.260099"><ele>595</ele></trkpt><trkpt lat="46.557618" lon="14.260111"><ele>595</ele></trkpt><trkpt lat="46.557531" lon="14.260163"><ele>595</ele></trkpt><trkpt lat="46.557471" lon="14.260226"><ele>595</ele></trkpt><trkpt lat="46.557382" lon="14.260388"><ele>597</ele></trkpt><trkpt lat="46.557276" lon="14.260579"><ele>586</ele></trkpt><trkpt lat="46.557244" lon="14.260652"><ele>586</ele></trkpt><trkpt lat="46.557063" lon="14.26107"><ele>586</ele></trkpt><trkpt lat="46.556897" lon="14.261436"><ele>586</ele></trkpt><trkpt lat="46.556801" lon="14.261532"><ele>586</ele></trkpt><trkpt lat="46.556616" lon="14.261393"><ele>586</ele></trkpt><trkpt lat="46.556431" lon="14.261321"><ele>571</ele></trkpt><trkpt lat="46.556333" lon="14.261377"><ele>571</ele></trkpt><trkpt lat="46.556296" lon="14.261418"><ele>571</ele></trkpt><trkpt lat="46.556194" lon="14.261639"><ele>571</ele></trkpt><trkpt lat="46.556061" lon="14.261828"><ele>571</ele></trkpt><trkpt lat="46.555905" lon="14.26199"><ele>570</ele></trkpt><trkpt lat="46.555707" lon="14.26219"><ele>570</ele></trkpt><trkpt lat="46.555147" lon="14.262739"><ele>564</ele></trkpt><trkpt lat="46.554938" lon="14.262813"><ele>562</ele></trkpt><trkpt lat="46.554743" lon="14.262853"><ele>563</ele></trkpt><trkpt lat="46.554415" lon="14.262787"><ele>568</ele></trkpt><trkpt lat="46.554265" lon="14.262757"><ele>568</ele></trkpt><trkpt lat="46.554075" lon="14.262779"><ele>568</ele></trkpt><trkpt lat="46.553847" lon="14.262911"><ele>559</ele></trkpt><trkpt lat="46.553611" lon="14.263086"><ele>559</ele></trkpt><trkpt lat="46.553396" lon="14.263111"><ele>559</ele></trkpt><trkpt lat="46.553218" lon="14.263061"><ele>559</ele></trkpt><trkpt lat="46.553132" lon="14.263025"><ele>545</ele></trkpt><trkpt lat="46.552807" lon="14.262905"><ele>545</ele></trkpt><trkpt lat="46.552531" lon="14.262835"><ele>545</ele></trkpt><trkpt lat="46.552144" lon="14.262713"><ele>548</ele></trkpt><trkpt lat="46.552035" lon="14.262722"><ele>548</ele></trkpt><trkpt lat="46.551901" lon="14.262591"><ele>548</ele></trkpt><trkpt lat="46.551612" lon="14.262209"><ele>548</ele></trkpt><trkpt lat="46.551529" lon="14.262139"><ele>548</ele></trkpt><trkpt lat="46.551328" lon="14.262083"><ele>556</ele></trkpt><trkpt lat="46.551187" lon="14.262079"><ele>556</ele></trkpt><trkpt lat="46.551187" lon="14.262079"><ele>556</ele></trkpt><trkpt lat="46.551117" lon="14.262077"><ele>556</ele></trkpt><trkpt lat="46.550923" lon="14.2621"><ele>556</ele></trkpt><trkpt lat="46.550837" lon="14.262089"><ele>556</ele></trkpt><trkpt lat="46.550705" lon="14.262045"><ele>556</ele></trkpt><trkpt lat="46.550455" lon="14.261864"><ele>553</ele></trkpt><trkpt lat="46.550324" lon="14.261843"><ele>553</ele></trkpt><trkpt lat="46.550227" lon="14.261838"><ele>553</ele></trkpt><trkpt lat="46.550174" lon="14.261836"><ele>553</ele></trkpt><trkpt lat="46.550139" lon="14.261604"><ele>553</ele></trkpt><trkpt lat="46.549948" lon="14.26128"><ele>553</ele></trkpt><trkpt lat="46.54989" lon="14.261108"><ele>546</ele></trkpt><trkpt lat="46.549864" lon="14.260901"><ele>546</ele></trkpt><trkpt lat="46.549861" lon="14.260726"><ele>546</ele></trkpt><trkpt lat="46.549807" lon="14.260605"><ele>541</ele></trkpt><trkpt lat="46.549797" lon="14.260544"><ele>541</ele></trkpt><trkpt lat="46.549708" lon="14.260602"><ele>541</ele></trkpt><trkpt lat="46.549628" lon="14.260623"><ele>541</ele></trkpt><trkpt lat="46.549723" lon="14.260974"><ele>541</ele></trkpt><trkpt lat="46.549638" lon="14.261024"><ele>541</ele></trkpt><trkpt lat="46.549506" lon="14.261019"><ele>541</ele></trkpt><trkpt lat="46.549396" lon="14.260975"><ele>541</ele></trkpt><trkpt lat="46.549189" lon="14.260982"><ele>541</ele></trkpt><trkpt lat="46.548925" lon="14.261074"><ele>538</ele></trkpt><trkpt lat="46.548849" lon="14.261018"><ele>538</ele></trkpt><trkpt lat="46.548808" lon="14.260896"><ele>538</ele></trkpt><trkpt lat="46.54876" lon="14.260822"><ele>538</ele></trkpt><trkpt lat="46.548668" lon="14.260741"><ele>538</ele></trkpt><trkpt lat="46.548555" lon="14.260699"><ele>538</ele></trkpt><trkpt lat="46.548079" lon="14.260755"><ele>549</ele></trkpt><trkpt lat="46.547953" lon="14.260601"><ele>549</ele></trkpt><trkpt lat="46.547895" lon="14.260306"><ele>549</ele></trkpt><trkpt lat="46.547741" lon="14.259972"><ele>534</ele></trkpt><trkpt lat="46.547412" lon="14.259604"><ele>534</ele></trkpt><trkpt lat="46.547185" lon="14.259368"><ele>528</ele></trkpt><trkpt lat="46.547108" lon="14.259312"><ele>528</ele></trkpt><trkpt lat="46.547116" lon="14.259085"><ele>528</ele></trkpt><trkpt lat="46.547092" lon="14.258959"><ele>528</ele></trkpt><trkpt lat="46.546962" lon="14.25891"><ele>528</ele></trkpt><trkpt lat="46.546502" lon="14.258869"><ele>507</ele></trkpt><trkpt lat="46.54622" lon="14.258703"><ele>507</ele></trkpt><trkpt lat="46.545951" lon="14.258634"><ele>507</ele></trkpt><trkpt lat="46.545789" lon="14.258535"><ele>515</ele></trkpt><trkpt lat="46.545677" lon="14.258254"><ele>515</ele></trkpt><trkpt lat="46.545496" lon="14.25759"><ele>483</ele></trkpt><trkpt lat="46.545342" lon="14.257359"><ele>483</ele></trkpt><trkpt lat="46.54528" lon="14.25722"><ele>483</ele></trkpt><trkpt lat="46.545253" lon="14.257109"><ele>483</ele></trkpt><trkpt lat="46.545247" lon="14.256992"><ele>483</ele></trkpt><trkpt lat="46.545276" lon="14.256906"><ele>487</ele></trkpt><trkpt lat="46.545397" lon="14.256784"><ele>487</ele></trkpt><trkpt lat="46.545552" lon="14.256584"><ele>487</ele></trkpt><trkpt lat="46.545587" lon="14.256524"><ele>487</ele></trkpt><trkpt lat="46.545601" lon="14.256448"><ele>487</ele></trkpt><trkpt lat="46.545598" lon="14.256366"><ele>487</ele></trkpt><trkpt lat="46.545551" lon="14.256266"><ele>487</ele></trkpt><trkpt lat="46.545302" lon="14.255961"><ele>491</ele></trkpt><trkpt lat="46.545084" lon="14.255648"><ele>491</ele></trkpt><trkpt lat="46.544981" lon="14.255276"><ele>492</ele></trkpt><trkpt lat="46.544938" lon="14.254377"><ele>493</ele></trkpt><trkpt lat="46.544958" lon="14.254117"><ele>493</ele></trkpt><trkpt lat="46.544884" lon="14.253111"><ele>491</ele></trkpt><trkpt lat="46.544885" lon="14.252662"><ele>484</ele></trkpt><trkpt lat="46.544934" lon="14.252358"><ele>484</ele></trkpt><trkpt lat="46.544983" lon="14.252242"><ele>484</ele></trkpt><trkpt lat="46.545082" lon="14.252096"><ele>484</ele></trkpt><trkpt lat="46.545112" lon="14.252003"><ele>484</ele></trkpt><trkpt lat="46.545116" lon="14.25184"><ele>476</ele></trkpt><trkpt lat="46.544858" lon="14.251588"><ele>476</ele></trkpt><trkpt lat="46.544762" lon="14.251415"><ele>462</ele></trkpt><trkpt lat="46.5447" lon="14.251527"><ele>462</ele></trkpt><trkpt lat="46.544646" lon="14.25174"><ele>462</ele></trkpt><trkpt lat="46.544478" lon="14.252495"><ele>465</ele></trkpt><trkpt lat="46.544477" lon="14.25258"><ele>465</ele></trkpt><trkpt lat="46.544371" lon="14.253062"><ele>466</ele></trkpt><trkpt lat="46.54437" lon="14.253145"><ele>466</ele></trkpt><trkpt lat="46.544387" lon="14.2532"><ele>466</ele></trkpt><trkpt lat="46.54436" lon="14.253912"><ele>465</ele></trkpt><trkpt lat="46.544369" lon="14.254313"><ele>465</ele></trkpt><trkpt lat="46.544493" lon="14.256312"><ele>455</ele></trkpt><trkpt lat="46.544503" lon="14.25681"><ele>455</ele></trkpt><trkpt lat="46.544492" lon="14.257485"><ele>447</ele></trkpt><trkpt lat="46.544484" lon="14.257645"><ele>447</ele></trkpt><trkpt lat="46.544448" lon="14.258155"><ele>446</ele></trkpt><trkpt lat="46.5444" lon="14.25851"><ele>446</ele></trkpt><trkpt lat="46.544302" lon="14.259075"><ele>441</ele></trkpt><trkpt lat="46.544223" lon="14.259423"><ele>441</ele></trkpt><trkpt lat="46.544025" lon="14.260086"><ele>439</ele></trkpt><trkpt lat="46.543875" lon="14.260479"><ele>431</ele></trkpt><trkpt lat="46.54366" lon="14.260948"><ele>431</ele></trkpt><trkpt lat="46.543392" lon="14.261439"><ele>431</ele></trkpt><trkpt lat="46.543177" lon="14.261768"><ele>431</ele></trkpt><trkpt lat="46.542824" lon="14.262208"><ele>431</ele></trkpt><trkpt lat="46.542305" lon="14.262728"><ele>433</ele></trkpt><trkpt lat="46.541783" lon="14.263142"><ele>432</ele></trkpt><trkpt lat="46.541545" lon="14.263292"><ele>432</ele></trkpt><trkpt lat="46.540575" lon="14.263818"><ele>430</ele></trkpt><trkpt lat="46.540066" lon="14.264072"><ele>430</ele></trkpt><trkpt lat="46.539033" lon="14.26453"><ele>431</ele></trkpt><trkpt lat="46.538667" lon="14.264718"><ele>429</ele></trkpt><trkpt lat="46.538543" lon="14.264746"><ele>429</ele></trkpt><trkpt lat="46.537957" lon="14.265006"><ele>429</ele></trkpt><trkpt lat="46.537207" lon="14.265307"><ele>433</ele></trkpt><trkpt lat="46.537066" lon="14.265334"><ele>433</ele></trkpt><trkpt lat="46.53694" lon="14.265321"><ele>433</ele></trkpt><trkpt lat="46.536832" lon="14.265281"><ele>430</ele></trkpt><trkpt lat="46.536749" lon="14.26521"><ele>430</ele></trkpt><trkpt lat="46.536687" lon="14.265086"><ele>430</ele></trkpt><trkpt lat="46.53661" lon="14.265124"><ele>430</ele></trkpt><trkpt lat="46.536662" lon="14.265401"><ele>433</ele></trkpt><trkpt lat="46.536679" lon="14.26548"><ele>433</ele></trkpt><trkpt lat="46.536686" lon="14.265514"><ele>433</ele></trkpt><trkpt lat="46.536759" lon="14.265501"><ele>433</ele></trkpt><trkpt lat="46.536833" lon="14.265543"><ele>433</ele></trkpt><trkpt lat="46.536863" lon="14.265582"><ele>433</ele></trkpt><trkpt lat="46.536895" lon="14.26568"><ele>433</ele></trkpt><trkpt lat="46.536917" lon="14.26567"><ele>433</ele></trkpt><trkpt lat="46.537037" lon="14.265614"><ele>433</ele></trkpt><trkpt lat="46.53834" lon="14.265036"><ele>429</ele></trkpt><trkpt lat="46.53834" lon="14.265036"><ele>429</ele></trkpt><trkpt lat="46.537037" lon="14.265614"><ele>433</ele></trkpt><trkpt lat="46.536917" lon="14.26567"><ele>433</ele></trkpt><trkpt lat="46.536895" lon="14.26568"><ele>433</ele></trkpt><trkpt lat="46.536893" lon="14.265791"><ele>433</ele></trkpt><trkpt lat="46.536859" lon="14.265882"><ele>433</ele></trkpt><trkpt lat="46.536801" lon="14.265942"><ele>433</ele></trkpt><trkpt lat="46.536716" lon="14.26596"><ele>433</ele></trkpt><trkpt lat="46.536698" lon="14.266107"><ele>433</ele></trkpt><trkpt lat="46.536665" lon="14.266158"><ele>431</ele></trkpt><trkpt lat="46.536601" lon="14.266208"><ele>431</ele></trkpt><trkpt lat="46.536379" lon="14.266204"><ele>429</ele></trkpt><trkpt lat="46.536203" lon="14.266227"><ele>429</ele></trkpt><trkpt lat="46.535991" lon="14.266346"><ele>429</ele></trkpt><trkpt lat="46.535855" lon="14.266536"><ele>429</ele></trkpt><trkpt lat="46.535821" lon="14.266638"><ele>429</ele></trkpt><trkpt lat="46.535762" lon="14.266935"><ele>429</ele></trkpt><trkpt lat="46.535754" lon="14.267138"><ele>431</ele></trkpt><trkpt lat="46.535733" lon="14.267582"><ele>431</ele></trkpt><trkpt lat="46.535646" lon="14.267868"><ele>434</ele></trkpt><trkpt lat="46.535593" lon="14.267981"><ele>434</ele></trkpt><trkpt lat="46.535524" lon="14.268076"><ele>434</ele></trkpt><trkpt lat="46.535494" lon="14.268107"><ele>434</ele></trkpt><trkpt lat="46.535167" lon="14.268396"><ele>434</ele></trkpt><trkpt lat="46.534715" lon="14.268878"><ele>439</ele></trkpt><trkpt lat="46.53467" lon="14.268922"><ele>439</ele></trkpt><trkpt lat="46.534317" lon="14.269268"><ele>439</ele></trkpt><trkpt lat="46.534134" lon="14.269416"><ele>439</ele></trkpt><trkpt lat="46.533955" lon="14.269477"><ele>437</ele></trkpt><trkpt lat="46.533587" lon="14.269502"><ele>437</ele></trkpt><trkpt lat="46.533035" lon="14.269589"><ele>436</ele></trkpt><trkpt lat="46.532061" lon="14.269828"><ele>437</ele></trkpt><trkpt lat="46.531321" lon="14.270036"><ele>442</ele></trkpt><trkpt lat="46.531123" lon="14.270055"><ele>442</ele></trkpt><trkpt lat="46.53099" lon="14.270025"><ele>442</ele></trkpt><trkpt lat="46.530892" lon="14.269965"><ele>442</ele></trkpt><trkpt lat="46.530879" lon="14.270064"><ele>442</ele></trkpt><trkpt lat="46.530842" lon="14.270356"><ele>441</ele></trkpt><trkpt lat="46.530839" lon="14.270731"><ele>441</ele></trkpt><trkpt lat="46.530883" lon="14.271418"><ele>440</ele></trkpt><trkpt lat="46.530873" lon="14.271697"><ele>440</ele></trkpt><trkpt lat="46.530837" lon="14.271825"><ele>440</ele></trkpt><trkpt lat="46.530805" lon="14.271885"><ele>440</ele></trkpt><trkpt lat="46.530613" lon="14.272081"><ele>446</ele></trkpt><trkpt lat="46.530576" lon="14.27214"><ele>446</ele></trkpt><trkpt lat="46.53055" lon="14.272214"><ele>446</ele></trkpt><trkpt lat="46.530538" lon="14.272314"><ele>446</ele></trkpt><trkpt lat="46.530549" lon="14.272547"><ele>446</ele></trkpt><trkpt lat="46.530719" lon="14.273516"><ele>449</ele></trkpt><trkpt lat="46.530873" lon="14.274413"><ele>454</ele></trkpt><trkpt lat="46.531024" lon="14.275298"><ele>452</ele></trkpt><trkpt lat="46.531114" lon="14.275809"><ele>452</ele></trkpt><trkpt lat="46.531143" lon="14.276184"><ele>450</ele></trkpt><trkpt lat="46.53125" lon="14.276851"><ele>450</ele></trkpt><trkpt lat="46.531133" lon="14.277492"><ele>449</ele></trkpt><trkpt lat="46.530985" lon="14.277993"><ele>451</ele></trkpt><trkpt lat="46.530645" lon="14.278889"><ele>453</ele></trkpt><trkpt lat="46.530463" lon="14.279601"><ele>455</ele></trkpt><trkpt lat="46.530249" lon="14.280713"><ele>454</ele></trkpt><trkpt lat="46.530114" lon="14.281639"><ele>454</ele></trkpt><trkpt lat="46.529989" lon="14.282212"><ele>458</ele></trkpt><trkpt lat="46.529825" lon="14.282887"><ele>462</ele></trkpt><trkpt lat="46.529722" lon="14.28335"><ele>462</ele></trkpt><trkpt lat="46.52966" lon="14.28367"><ele>464</ele></trkpt><trkpt lat="46.529565" lon="14.284236"><ele>464</ele></trkpt><trkpt lat="46.529512" lon="14.284808"><ele>467</ele></trkpt><trkpt lat="46.529366" lon="14.285996"><ele>469</ele></trkpt><trkpt lat="46.529198" lon="14.287001"><ele>470</ele></trkpt><trkpt lat="46.528995" lon="14.287825"><ele>466</ele></trkpt><trkpt lat="46.528582" lon="14.289771"><ele>464</ele></trkpt><trkpt lat="46.528435" lon="14.290491"><ele>465</ele></trkpt><trkpt lat="46.528445" lon="14.290552"><ele>465</ele></trkpt><trkpt lat="46.528535" lon="14.290681"><ele>465</ele></trkpt><trkpt lat="46.528357" lon="14.291063"><ele>465</ele></trkpt><trkpt lat="46.528309" lon="14.291194"><ele>466</ele></trkpt><trkpt lat="46.52822" lon="14.291488"><ele>466</ele></trkpt><trkpt lat="46.528158" lon="14.291824"><ele>467</ele></trkpt><trkpt lat="46.528123" lon="14.292095"><ele>467</ele></trkpt><trkpt lat="46.528063" lon="14.292851"><ele>468</ele></trkpt><trkpt lat="46.52805" lon="14.293104"><ele>468</ele></trkpt><trkpt lat="46.528016" lon="14.293738"><ele>468</ele></trkpt><trkpt lat="46.528012" lon="14.293832"><ele>468</ele></trkpt><trkpt lat="46.527999" lon="14.294125"><ele>468</ele></trkpt><trkpt lat="46.527987" lon="14.29454"><ele>467</ele></trkpt><trkpt lat="46.527982" lon="14.294724"><ele>467</ele></trkpt><trkpt lat="46.527975" lon="14.294943"><ele>467</ele></trkpt><trkpt lat="46.527975" lon="14.294971"><ele>467</ele></trkpt><trkpt lat="46.527934" lon="14.29549"><ele>466</ele></trkpt><trkpt lat="46.527897" lon="14.295731"><ele>466</ele></trkpt><trkpt lat="46.527739" lon="14.296434"><ele>467</ele></trkpt><trkpt lat="46.527657" lon="14.296708"><ele>467</ele></trkpt><trkpt lat="46.527542" lon="14.296996"><ele>464</ele></trkpt><trkpt lat="46.5274" lon="14.297337"><ele>464</ele></trkpt><trkpt lat="46.527165" lon="14.297177"><ele>462</ele></trkpt><trkpt lat="46.526574" lon="14.296859"><ele>466</ele></trkpt><trkpt lat="46.526492" lon="14.296839"><ele>465</ele></trkpt><trkpt lat="46.526164" lon="14.296846"><ele>465</ele></trkpt><trkpt lat="46.525807" lon="14.296748"><ele>465</ele></trkpt><trkpt lat="46.525794" lon="14.296914"><ele>465</ele></trkpt><trkpt lat="46.525758" lon="14.297232"><ele>459</ele></trkpt><trkpt lat="46.525742" lon="14.297383"><ele>459</ele></trkpt><trkpt lat="46.52574" lon="14.297411"><ele>459</ele></trkpt></trkseg></trk></gpx>