<?xml version="1.0" encoding="UTF-8" standalone="no" ?>
<gpx xmlns="http://www.topografix.com/GPX/1/1" creator="www.strecken-messen.de" version="1.1">
    <metadata/>
    <trk>
        <trkseg>
            <trkpt lat="46.609514524234406" lon="14.29474174976349">
                <ele>442</ele>
            </trkpt>
            <trkpt lat="46.609517" lon="14.294743">
                <ele>442</ele>
            </trkpt>
            <trkpt lat="46.609556" lon="14.294534">
                <ele>442</ele>
            </trkpt>
            <trkpt lat="46.609612" lon="14.294043">
                <ele>442</ele>
            </trkpt>
            <trkpt lat="46.609688" lon="14.293309">
                <ele>443</ele>
            </trkpt>
            <trkpt lat="46.609788" lon="14.292932">
                <ele>443</ele>
            </trkpt>
            <trkpt lat="46.609825" lon="14.292822">
                <ele>443</ele>
            </trkpt>
            <trkpt lat="46.609918" lon="14.29269">
                <ele>440</ele>
            </trkpt>
            <trkpt lat="46.609918" lon="14.29269">
                <ele>440</ele>
            </trkpt>
            <trkpt lat="46.610079" lon="14.292461">
                <ele>440</ele>
            </trkpt>
            <trkpt lat="46.610193" lon="14.2923">
                <ele>440</ele>
            </trkpt>
            <trkpt lat="46.610206" lon="14.292259">
                <ele>440</ele>
            </trkpt>
            <trkpt lat="46.610284" lon="14.292012">
                <ele>440</ele>
            </trkpt>
            <trkpt lat="46.610323" lon="14.291804">
                <ele>439</ele>
            </trkpt>
            <trkpt lat="46.610323" lon="14.291804">
                <ele>439</ele>
            </trkpt>
            <trkpt lat="46.610331" lon="14.291759">
                <ele>439</ele>
            </trkpt>
            <trkpt lat="46.609659" lon="14.291558">
                <ele>441</ele>
            </trkpt>
            <trkpt lat="46.609415" lon="14.291486">
                <ele>441</ele>
            </trkpt>
            <trkpt lat="46.608997" lon="14.291395">
                <ele>439</ele>
            </trkpt>
            <trkpt lat="46.608997" lon="14.291395">
                <ele>439</ele>
            </trkpt>
            <trkpt lat="46.608858" lon="14.291365">
                <ele>439</ele>
            </trkpt>
            <trkpt lat="46.608685" lon="14.291322">
                <ele>439</ele>
            </trkpt>
            <trkpt lat="46.608182" lon="14.291211">
                <ele>441</ele>
            </trkpt>
            <trkpt lat="46.607766" lon="14.291124">
                <ele>440</ele>
            </trkpt>
            <trkpt lat="46.607393" lon="14.291063">
                <ele>440</ele>
            </trkpt>
            <trkpt lat="46.60732" lon="14.291033">
                <ele>440</ele>
            </trkpt>
            <trkpt lat="46.607131" lon="14.290981">
                <ele>440</ele>
            </trkpt>
            <trkpt lat="46.607042" lon="14.29098">
                <ele>440</ele>
            </trkpt>
            <trkpt lat="46.606554" lon="14.290863">
                <ele>440</ele>
            </trkpt>
            <trkpt lat="46.606426" lon="14.29083">
                <ele>440</ele>
            </trkpt>
            <trkpt lat="46.606426" lon="14.29083">
                <ele>440</ele>
            </trkpt>
            <trkpt lat="46.605787" lon="14.290664">
                <ele>440</ele>
            </trkpt>
            <trkpt lat="46.605736" lon="14.290615">
                <ele>440</ele>
            </trkpt>
            <trkpt lat="46.60538" lon="14.290521">
                <ele>440</ele>
            </trkpt>
            <trkpt lat="46.60501" lon="14.290423">
                <ele>440</ele>
            </trkpt>
            <trkpt lat="46.604959" lon="14.290408">
                <ele>440</ele>
            </trkpt>
            <trkpt lat="46.60362" lon="14.290012">
                <ele>435</ele>
            </trkpt>
            <trkpt lat="46.603597" lon="14.289991">
                <ele>435</ele>
            </trkpt>
            <trkpt lat="46.603591" lon="14.290027">
                <ele>435</ele>
            </trkpt>
            <trkpt lat="46.603591" lon="14.290027">
                <ele>435</ele>
            </trkpt>
            <trkpt lat="46.603597" lon="14.289991">
                <ele>435</ele>
            </trkpt>
            <trkpt lat="46.603229" lon="14.289892">
                <ele>435</ele>
            </trkpt>
            <trkpt lat="46.603221" lon="14.289816">
                <ele>435</ele>
            </trkpt>
            <trkpt lat="46.603344" lon="14.289083">
                <ele>436</ele>
            </trkpt>
            <trkpt lat="46.603344" lon="14.289083">
                <ele>436</ele>
            </trkpt>
            <trkpt lat="46.604494" lon="14.282274">
                <ele>440</ele>
            </trkpt>
            <trkpt lat="46.604494" lon="14.282274">
                <ele>440</ele>
            </trkpt>
            <trkpt lat="46.604517" lon="14.282141">
                <ele>440</ele>
            </trkpt>
            <trkpt lat="46.60455" lon="14.281882">
                <ele>438</ele>
            </trkpt>
            <trkpt lat="46.60461" lon="14.281729">
                <ele>438</ele>
            </trkpt>
            <trkpt lat="46.604814" lon="14.281461">
                <ele>438</ele>
            </trkpt>
            <trkpt lat="46.604869" lon="14.281356">
                <ele>440</ele>
            </trkpt>
            <trkpt lat="46.604927" lon="14.281064">
                <ele>439</ele>
            </trkpt>
            <trkpt lat="46.604963" lon="14.280782">
                <ele>439</ele>
            </trkpt>
            <trkpt lat="46.604945" lon="14.280633">
                <ele>439</ele>
            </trkpt>
            <trkpt lat="46.604821" lon="14.280411">
                <ele>438</ele>
            </trkpt>
            <trkpt lat="46.604796" lon="14.280324">
                <ele>438</ele>
            </trkpt>
            <trkpt lat="46.604803" lon="14.280235">
                <ele>439</ele>
            </trkpt>
            <trkpt lat="46.604884" lon="14.279885">
                <ele>438</ele>
            </trkpt>
            <trkpt lat="46.60487" lon="14.279679">
                <ele>438</ele>
            </trkpt>
            <trkpt lat="46.60487" lon="14.279679">
                <ele>438</ele>
            </trkpt>
            <trkpt lat="46.604857" lon="14.279483">
                <ele>438</ele>
            </trkpt>
            <trkpt lat="46.604888" lon="14.278697">
                <ele>437</ele>
            </trkpt>
            <trkpt lat="46.60486" lon="14.277467">
                <ele>441</ele>
            </trkpt>
            <trkpt lat="46.604865" lon="14.27725">
                <ele>441</ele>
            </trkpt>
            <trkpt lat="46.604865" lon="14.27725">
                <ele>441</ele>
            </trkpt>
            <trkpt lat="46.604872" lon="14.276945">
                <ele>440</ele>
            </trkpt>
            <trkpt lat="46.60492" lon="14.276717">
                <ele>440</ele>
            </trkpt>
            <trkpt lat="46.605106" lon="14.276262">
                <ele>440</ele>
            </trkpt>
            <trkpt lat="46.605022" lon="14.274501">
                <ele>440</ele>
            </trkpt>
            <trkpt lat="46.605022" lon="14.274501">
                <ele>440</ele>
            </trkpt>
            <trkpt lat="46.605005" lon="14.274155">
                <ele>442</ele>
            </trkpt>
            <trkpt lat="46.604959" lon="14.272802">
                <ele>443</ele>
            </trkpt>
            <trkpt lat="46.604939" lon="14.272359">
                <ele>441</ele>
            </trkpt>
            <trkpt lat="46.604751" lon="14.271844">
                <ele>439</ele>
            </trkpt>
            <trkpt lat="46.604803" lon="14.270341">
                <ele>439</ele>
            </trkpt>
            <trkpt lat="46.604803" lon="14.270341">
                <ele>439</ele>
            </trkpt>
            <trkpt lat="46.604831" lon="14.269542">
                <ele>440</ele>
            </trkpt>
            <trkpt lat="46.604875" lon="14.269179">
                <ele>439</ele>
            </trkpt>
            <trkpt lat="46.605538" lon="14.266747">
                <ele>441</ele>
            </trkpt>
            <trkpt lat="46.60566" lon="14.266237">
                <ele>441</ele>
            </trkpt>
            <trkpt lat="46.605708" lon="14.266021">
                <ele>440</ele>
            </trkpt>
            <trkpt lat="46.60571" lon="14.265868">
                <ele>440</ele>
            </trkpt>
            <trkpt lat="46.605654" lon="14.265644">
                <ele>440</ele>
            </trkpt>
            <trkpt lat="46.60565" lon="14.265522">
                <ele>440</ele>
            </trkpt>
            <trkpt lat="46.605747" lon="14.265253">
                <ele>441</ele>
            </trkpt>
            <trkpt lat="46.606451" lon="14.26358">
                <ele>441</ele>
            </trkpt>
            <trkpt lat="46.606451" lon="14.26358">
                <ele>441</ele>
            </trkpt>
            <trkpt lat="46.606462" lon="14.263554">
                <ele>441</ele>
            </trkpt>
            <trkpt lat="46.607206" lon="14.261682">
                <ele>444</ele>
            </trkpt>
            <trkpt lat="46.607616" lon="14.260792">
                <ele>445</ele>
            </trkpt>
            <trkpt lat="46.608252" lon="14.259267">
                <ele>443</ele>
            </trkpt>
            <trkpt lat="46.608252" lon="14.259267">
                <ele>443</ele>
            </trkpt>
            <trkpt lat="46.608349" lon="14.259035">
                <ele>443</ele>
            </trkpt>
            <trkpt lat="46.608526" lon="14.258666">
                <ele>443</ele>
            </trkpt>
            <trkpt lat="46.60855" lon="14.258615">
                <ele>442</ele>
            </trkpt>
            <trkpt lat="46.60878" lon="14.258833">
                <ele>443</ele>
            </trkpt>
            <trkpt lat="46.608989" lon="14.258266">
                <ele>442</ele>
            </trkpt>
            <trkpt lat="46.609127" lon="14.257621">
                <ele>442</ele>
            </trkpt>
            <trkpt lat="46.609248" lon="14.257147">
                <ele>442</ele>
            </trkpt>
            <trkpt lat="46.609332" lon="14.256926">
                <ele>444</ele>
            </trkpt>
            <trkpt lat="46.609486" lon="14.256694">
                <ele>444</ele>
            </trkpt>
            <trkpt lat="46.609486" lon="14.256694">
                <ele>444</ele>
            </trkpt>
            <trkpt lat="46.609677" lon="14.256408">
                <ele>444</ele>
            </trkpt>
            <trkpt lat="46.609801" lon="14.255971">
                <ele>445</ele>
            </trkpt>
            <trkpt lat="46.60988" lon="14.255414">
                <ele>444</ele>
            </trkpt>
            <trkpt lat="46.609989" lon="14.25499">
                <ele>445</ele>
            </trkpt>
            <trkpt lat="46.610145" lon="14.254696">
                <ele>445</ele>
            </trkpt>
            <trkpt lat="46.61034" lon="14.254521">
                <ele>445</ele>
            </trkpt>
            <trkpt lat="46.610909" lon="14.254111">
                <ele>441</ele>
            </trkpt>
            <trkpt lat="46.610909" lon="14.254111">
                <ele>441</ele>
            </trkpt>
            <trkpt lat="46.611163" lon="14.253929">
                <ele>441</ele>
            </trkpt>
            <trkpt lat="46.611761" lon="14.253684">
                <ele>442</ele>
            </trkpt>
            <trkpt lat="46.612427" lon="14.253479">
                <ele>441</ele>
            </trkpt>
            <trkpt lat="46.61276" lon="14.253334">
                <ele>441</ele>
            </trkpt>
            <trkpt lat="46.613695" lon="14.252951">
                <ele>444</ele>
            </trkpt>
            <trkpt lat="46.614516" lon="14.25265">
                <ele>443</ele>
            </trkpt>
            <trkpt lat="46.614715" lon="14.252589">
                <ele>443</ele>
            </trkpt>
            <trkpt lat="46.614715" lon="14.252589">
                <ele>443</ele>
            </trkpt>
            <trkpt lat="46.614922" lon="14.252526">
                <ele>442</ele>
            </trkpt>
            <trkpt lat="46.615089" lon="14.25316">
                <ele>445</ele>
            </trkpt>
            <trkpt lat="46.616297" lon="14.255789">
                <ele>443</ele>
            </trkpt>
            <trkpt lat="46.616317" lon="14.255905">
                <ele>443</ele>
            </trkpt>
            <trkpt lat="46.616361" lon="14.255993">
                <ele>443</ele>
            </trkpt>
            <trkpt lat="46.616361" lon="14.255993">
                <ele>443</ele>
            </trkpt>
            <trkpt lat="46.616317" lon="14.255905">
                <ele>443</ele>
            </trkpt>
            <trkpt lat="46.616355" lon="14.255912">
                <ele>443</ele>
            </trkpt>
            <trkpt lat="46.61645" lon="14.256105">
                <ele>443</ele>
            </trkpt>
            <trkpt lat="46.6166" lon="14.255955">
                <ele>441</ele>
            </trkpt>
            <trkpt lat="46.616682" lon="14.25612">
                <ele>441</ele>
            </trkpt>
            <trkpt lat="46.616739" lon="14.256137">
                <ele>441</ele>
            </trkpt>
            <trkpt lat="46.616722" lon="14.256112">
                <ele>441</ele>
            </trkpt>
            <trkpt lat="46.616722" lon="14.256111">
                <ele>441</ele>
            </trkpt>
            <trkpt lat="46.616739" lon="14.256137">
                <ele>441</ele>
            </trkpt>
            <trkpt lat="46.616881" lon="14.256537">
                <ele>441</ele>
            </trkpt>
            <trkpt lat="46.617183" lon="14.257177">
                <ele>441</ele>
            </trkpt>
            <trkpt lat="46.617183" lon="14.257177">
                <ele>441</ele>
            </trkpt>
            <trkpt lat="46.617532" lon="14.257915">
                <ele>441</ele>
            </trkpt>
            <trkpt lat="46.617649" lon="14.258026">
                <ele>441</ele>
            </trkpt>
            <trkpt lat="46.617737" lon="14.258173">
                <ele>441</ele>
            </trkpt>
            <trkpt lat="46.618119" lon="14.259019">
                <ele>443</ele>
            </trkpt>
            <trkpt lat="46.618504" lon="14.259998">
                <ele>441</ele>
            </trkpt>
            <trkpt lat="46.618608" lon="14.260398">
                <ele>442</ele>
            </trkpt>
            <trkpt lat="46.618651" lon="14.260716">
                <ele>442</ele>
            </trkpt>
            <trkpt lat="46.618651" lon="14.260716">
                <ele>442</ele>
            </trkpt>
            <trkpt lat="46.618692" lon="14.261018">
                <ele>442</ele>
            </trkpt>
            <trkpt lat="46.618706" lon="14.261239">
                <ele>441</ele>
            </trkpt>
            <trkpt lat="46.618698" lon="14.261462">
                <ele>441</ele>
            </trkpt>
            <trkpt lat="46.618687" lon="14.261528">
                <ele>441</ele>
            </trkpt>
            <trkpt lat="46.618625" lon="14.261785">
                <ele>441</ele>
            </trkpt>
            <trkpt lat="46.618765" lon="14.262751">
                <ele>441</ele>
            </trkpt>
            <trkpt lat="46.618797" lon="14.263041">
                <ele>443</ele>
            </trkpt>
            <trkpt lat="46.61887" lon="14.263627">
                <ele>443</ele>
            </trkpt>
            <trkpt lat="46.61887" lon="14.263627">
                <ele>443</ele>
            </trkpt>
            <trkpt lat="46.618967" lon="14.264416">
                <ele>443</ele>
            </trkpt>
            <trkpt lat="46.619134" lon="14.265606">
                <ele>443</ele>
            </trkpt>
            <trkpt lat="46.619195" lon="14.266045">
                <ele>443</ele>
            </trkpt>
            <trkpt lat="46.619257" lon="14.266472">
                <ele>443</ele>
            </trkpt>
            <trkpt lat="46.619301" lon="14.266768">
                <ele>443</ele>
            </trkpt>
            <trkpt lat="46.619308" lon="14.266817">
                <ele>443</ele>
            </trkpt>
            <trkpt lat="46.619532" lon="14.268261">
                <ele>442</ele>
            </trkpt>
            <trkpt lat="46.619666" lon="14.268991">
                <ele>442</ele>
            </trkpt>
            <trkpt lat="46.619736" lon="14.269469">
                <ele>441</ele>
            </trkpt>
            <trkpt lat="46.619802" lon="14.270125">
                <ele>441</ele>
            </trkpt>
            <trkpt lat="46.619877" lon="14.270885">
                <ele>443</ele>
            </trkpt>
            <trkpt lat="46.61989" lon="14.271461">
                <ele>444</ele>
            </trkpt>
            <trkpt lat="46.619962" lon="14.271781">
                <ele>444</ele>
            </trkpt>
            <trkpt lat="46.619969" lon="14.272115">
                <ele>442</ele>
            </trkpt>
            <trkpt lat="46.619969" lon="14.272115">
                <ele>442</ele>
            </trkpt>
            <trkpt lat="46.619993" lon="14.27328">
                <ele>442</ele>
            </trkpt>
            <trkpt lat="46.620006" lon="14.274119">
                <ele>443</ele>
            </trkpt>
            <trkpt lat="46.62002" lon="14.275233">
                <ele>442</ele>
            </trkpt>
            <trkpt lat="46.620021" lon="14.277087">
                <ele>444</ele>
            </trkpt>
            <trkpt lat="46.620091" lon="14.279466">
                <ele>444</ele>
            </trkpt>
            <trkpt lat="46.620154" lon="14.280733">
                <ele>444</ele>
            </trkpt>
            <trkpt lat="46.620228" lon="14.281391">
                <ele>444</ele>
            </trkpt>
            <trkpt lat="46.620285" lon="14.282025">
                <ele>444</ele>
            </trkpt>
            <trkpt lat="46.620447" lon="14.282951">
                <ele>443</ele>
            </trkpt>
            <trkpt lat="46.620522" lon="14.283444">
                <ele>443</ele>
            </trkpt>
            <trkpt lat="46.620535" lon="14.283538">
                <ele>443</ele>
            </trkpt>
            <trkpt lat="46.620547" lon="14.28362">
                <ele>443</ele>
            </trkpt>
            <trkpt lat="46.620706" lon="14.284377">
                <ele>445</ele>
            </trkpt>
            <trkpt lat="46.620749" lon="14.284567">
                <ele>444</ele>
            </trkpt>
            <trkpt lat="46.620749" lon="14.284567">
                <ele>444</ele>
            </trkpt>
            <trkpt lat="46.62088" lon="14.285133">
                <ele>444</ele>
            </trkpt>
            <trkpt lat="46.620917" lon="14.285236">
                <ele>444</ele>
            </trkpt>
            <trkpt lat="46.620975" lon="14.285333">
                <ele>444</ele>
            </trkpt>
            <trkpt lat="46.621189" lon="14.286512">
                <ele>444</ele>
            </trkpt>
            <trkpt lat="46.621538" lon="14.288375">
                <ele>447</ele>
            </trkpt>
            <trkpt lat="46.621898" lon="14.290403">
                <ele>448</ele>
            </trkpt>
            <trkpt lat="46.622027" lon="14.291179">
                <ele>448</ele>
            </trkpt>
            <trkpt lat="46.622027" lon="14.291179">
                <ele>448</ele>
            </trkpt>
            <trkpt lat="46.622105" lon="14.291651">
                <ele>448</ele>
            </trkpt>
            <trkpt lat="46.622177" lon="14.292149">
                <ele>448</ele>
            </trkpt>
            <trkpt lat="46.622374" lon="14.293562">
                <ele>447</ele>
            </trkpt>
            <trkpt lat="46.622579" lon="14.29483">
                <ele>449</ele>
            </trkpt>
            <trkpt lat="46.622643" lon="14.295236">
                <ele>449</ele>
            </trkpt>
            <trkpt lat="46.622726" lon="14.295757">
                <ele>449</ele>
            </trkpt>
            <trkpt lat="46.622754" lon="14.295933">
                <ele>449</ele>
            </trkpt>
            <trkpt lat="46.622754" lon="14.295933">
                <ele>449</ele>
            </trkpt>
            <trkpt lat="46.622799" lon="14.296221">
                <ele>448</ele>
            </trkpt>
            <trkpt lat="46.622917" lon="14.296196">
                <ele>448</ele>
            </trkpt>
            <trkpt lat="46.623172" lon="14.296141">
                <ele>448</ele>
            </trkpt>
            <trkpt lat="46.623395" lon="14.296093">
                <ele>449</ele>
            </trkpt>
            <trkpt lat="46.62351" lon="14.296068">
                <ele>449</ele>
            </trkpt>
            <trkpt lat="46.623896" lon="14.295985">
                <ele>449</ele>
            </trkpt>
            <trkpt lat="46.623902" lon="14.295924">
                <ele>449</ele>
            </trkpt>
            <trkpt lat="46.623948" lon="14.295881">
                <ele>449</ele>
            </trkpt>
            <trkpt lat="46.62401" lon="14.295875">
                <ele>449</ele>
            </trkpt>
            <trkpt lat="46.624011" lon="14.295802">
                <ele>449</ele>
            </trkpt>
            <trkpt lat="46.624586" lon="14.295626">
                <ele>448</ele>
            </trkpt>
            <trkpt lat="46.624646" lon="14.295606">
                <ele>448</ele>
            </trkpt>
            <trkpt lat="46.624713" lon="14.295583">
                <ele>448</ele>
            </trkpt>
            <trkpt lat="46.624796" lon="14.295555">
                <ele>448</ele>
            </trkpt>
            <trkpt lat="46.625315" lon="14.295391">
                <ele>446</ele>
            </trkpt>
            <trkpt lat="46.625905" lon="14.29521">
                <ele>448</ele>
            </trkpt>
            <trkpt lat="46.62598" lon="14.295188">
                <ele>448</ele>
            </trkpt>
            <trkpt lat="46.626181" lon="14.295126">
                <ele>448</ele>
            </trkpt>
            <trkpt lat="46.626462" lon="14.295041">
                <ele>448</ele>
            </trkpt>
            <trkpt lat="46.626679" lon="14.294975">
                <ele>447</ele>
            </trkpt>
            <trkpt lat="46.626711" lon="14.294965">
                <ele>447</ele>
            </trkpt>
            <trkpt lat="46.627518" lon="14.294719">
                <ele>449</ele>
            </trkpt>
            <trkpt lat="46.627525" lon="14.294717">
                <ele>449</ele>
            </trkpt>
            <trkpt lat="46.627525" lon="14.294718">
                <ele>449</ele>
            </trkpt>
            <trkpt lat="46.627709" lon="14.294675">
                <ele>449</ele>
            </trkpt>
            <trkpt lat="46.627904" lon="14.294674">
                <ele>449</ele>
            </trkpt>
            <trkpt lat="46.628153" lon="14.294831">
                <ele>449</ele>
            </trkpt>
            <trkpt lat="46.628212" lon="14.294864">
                <ele>451</ele>
            </trkpt>
            <trkpt lat="46.628263" lon="14.294898">
                <ele>451</ele>
            </trkpt>
            <trkpt lat="46.629051" lon="14.295414">
                <ele>450</ele>
            </trkpt>
            <trkpt lat="46.629127" lon="14.295463">
                <ele>450</ele>
            </trkpt>
            <trkpt lat="46.629127" lon="14.295464">
                <ele>450</ele>
            </trkpt>
            <trkpt lat="46.629318" lon="14.295589">
                <ele>450</ele>
            </trkpt>
            <trkpt lat="46.629308" lon="14.295672">
                <ele>450</ele>
            </trkpt>
            <trkpt lat="46.629279" lon="14.295734">
                <ele>450</ele>
            </trkpt>
            <trkpt lat="46.629255" lon="14.297044">
                <ele>451</ele>
            </trkpt>
            <trkpt lat="46.62928" lon="14.297062">
                <ele>451</ele>
            </trkpt>
            <trkpt lat="46.629278" lon="14.297404">
                <ele>451</ele>
            </trkpt>
            <trkpt lat="46.629293" lon="14.297443">
                <ele>451</ele>
            </trkpt>
            <trkpt lat="46.629383" lon="14.297316">
                <ele>451</ele>
            </trkpt>
            <trkpt lat="46.629422" lon="14.297423">
                <ele>451</ele>
            </trkpt>
            <trkpt lat="46.629498" lon="14.297435">
                <ele>451</ele>
            </trkpt>
            <trkpt lat="46.629833" lon="14.297488">
                <ele>451</ele>
            </trkpt>
            <trkpt lat="46.62982" lon="14.298071">
                <ele>450</ele>
            </trkpt>
            <trkpt lat="46.6299" lon="14.298078">
                <ele>448</ele>
            </trkpt>
            <trkpt lat="46.629997" lon="14.298149">
                <ele>448</ele>
            </trkpt>
            <trkpt lat="46.630015" lon="14.298241">
                <ele>448</ele>
            </trkpt>
            <trkpt lat="46.630003" lon="14.298392">
                <ele>448</ele>
            </trkpt>
            <trkpt lat="46.629947" lon="14.298583">
                <ele>448</ele>
            </trkpt>
            <trkpt lat="46.629934" lon="14.298687">
                <ele>449</ele>
            </trkpt>
            <trkpt lat="46.629952" lon="14.29883">
                <ele>449</ele>
            </trkpt>
            <trkpt lat="46.629974" lon="14.298882">
                <ele>449</ele>
            </trkpt>
            <trkpt lat="46.630026" lon="14.298925">
                <ele>449</ele>
            </trkpt>
            <trkpt lat="46.630332" lon="14.298932">
                <ele>449</ele>
            </trkpt>
            <trkpt lat="46.630421" lon="14.298931">
                <ele>449</ele>
            </trkpt>
            <trkpt lat="46.630419" lon="14.29946">
                <ele>449</ele>
            </trkpt>
            <trkpt lat="46.63052" lon="14.299461">
                <ele>449</ele>
            </trkpt>
            <trkpt lat="46.630541" lon="14.299686">
                <ele>448</ele>
            </trkpt>
            <trkpt lat="46.631015" lon="14.301251">
                <ele>449</ele>
            </trkpt>
            <trkpt lat="46.631015" lon="14.301251">
                <ele>449</ele>
            </trkpt>
            <trkpt lat="46.631158" lon="14.301723">
                <ele>449</ele>
            </trkpt>
            <trkpt lat="46.631199" lon="14.30185">
                <ele>449</ele>
            </trkpt>
            <trkpt lat="46.631261" lon="14.301915">
                <ele>449</ele>
            </trkpt>
            <trkpt lat="46.631391" lon="14.301939">
                <ele>449</ele>
            </trkpt>
            <trkpt lat="46.631388" lon="14.301977">
                <ele>448</ele>
            </trkpt>
            <trkpt lat="46.632331" lon="14.302158">
                <ele>450</ele>
            </trkpt>
            <trkpt lat="46.632371" lon="14.302203">
                <ele>449</ele>
            </trkpt>
            <trkpt lat="46.63242" lon="14.30221">
                <ele>449</ele>
            </trkpt>
            <trkpt lat="46.632458" lon="14.30222">
                <ele>449</ele>
            </trkpt>
            <trkpt lat="46.632279" lon="14.303345">
                <ele>449</ele>
            </trkpt>
            <trkpt lat="46.63224" lon="14.303332">
                <ele>449</ele>
            </trkpt>
            <trkpt lat="46.632106" lon="14.304076">
                <ele>449</ele>
            </trkpt>
            <trkpt lat="46.632023" lon="14.304572">
                <ele>447</ele>
            </trkpt>
            <trkpt lat="46.631744" lon="14.306339">
                <ele>446</ele>
            </trkpt>
            <trkpt lat="46.631704" lon="14.30633">
                <ele>446</ele>
            </trkpt>
            <trkpt lat="46.631704" lon="14.30633">
                <ele>446</ele>
            </trkpt>
            <trkpt lat="46.631744" lon="14.306339">
                <ele>446</ele>
            </trkpt>
            <trkpt lat="46.631651" lon="14.306985">
                <ele>446</ele>
            </trkpt>
            <trkpt lat="46.631696" lon="14.307018">
                <ele>446</ele>
            </trkpt>
            <trkpt lat="46.631674" lon="14.307181">
                <ele>446</ele>
            </trkpt>
            <trkpt lat="46.631714" lon="14.307225">
                <ele>446</ele>
            </trkpt>
            <trkpt lat="46.631412" lon="14.309011">
                <ele>446</ele>
            </trkpt>
            <trkpt lat="46.63136" lon="14.309015">
                <ele>446</ele>
            </trkpt>
            <trkpt lat="46.631284" lon="14.309454">
                <ele>446</ele>
            </trkpt>
            <trkpt lat="46.631236" lon="14.30944">
                <ele>446</ele>
            </trkpt>
            <trkpt lat="46.631139" lon="14.309972">
                <ele>444</ele>
            </trkpt>
            <trkpt lat="46.631139" lon="14.309972">
                <ele>444</ele>
            </trkpt>
            <trkpt lat="46.631128" lon="14.310031">
                <ele>444</ele>
            </trkpt>
            <trkpt lat="46.631206" lon="14.310049">
                <ele>444</ele>
            </trkpt>
            <trkpt lat="46.631256" lon="14.310081">
                <ele>444</ele>
            </trkpt>
            <trkpt lat="46.63125" lon="14.310096">
                <ele>444</ele>
            </trkpt>
            <trkpt lat="46.631199" lon="14.310242">
                <ele>444</ele>
            </trkpt>
            <trkpt lat="46.631754" lon="14.310327">
                <ele>446</ele>
            </trkpt>
            <trkpt lat="46.632321" lon="14.310403">
                <ele>446</ele>
            </trkpt>
            <trkpt lat="46.632303" lon="14.310512">
                <ele>446</ele>
            </trkpt>
            <trkpt lat="46.632193" lon="14.311054">
                <ele>446</ele>
            </trkpt>
            <trkpt lat="46.632141" lon="14.311317">
                <ele>447</ele>
            </trkpt>
            <trkpt lat="46.632094" lon="14.311555">
                <ele>447</ele>
            </trkpt>
            <trkpt lat="46.632085" lon="14.3116">
                <ele>447</ele>
            </trkpt>
            <trkpt lat="46.631999" lon="14.312037">
                <ele>446</ele>
            </trkpt>
            <trkpt lat="46.631983" lon="14.312117">
                <ele>446</ele>
            </trkpt>
            <trkpt lat="46.631927" lon="14.312403">
                <ele>446</ele>
            </trkpt>
            <trkpt lat="46.631917" lon="14.312452">
                <ele>446</ele>
            </trkpt>
            <trkpt lat="46.631789" lon="14.313103">
                <ele>444</ele>
            </trkpt>
            <trkpt lat="46.631715" lon="14.313478">
                <ele>444</ele>
            </trkpt>
            <trkpt lat="46.631706" lon="14.313519">
                <ele>444</ele>
            </trkpt>
            <trkpt lat="46.631682" lon="14.313642">
                <ele>441</ele>
            </trkpt>
            <trkpt lat="46.631551" lon="14.314213">
                <ele>441</ele>
            </trkpt>
            <trkpt lat="46.631538" lon="14.314275">
                <ele>441</ele>
            </trkpt>
            <trkpt lat="46.631529" lon="14.314318">
                <ele>441</ele>
            </trkpt>
            <trkpt lat="46.631523" lon="14.314344">
                <ele>441</ele>
            </trkpt>
            <trkpt lat="46.631371" lon="14.314933">
                <ele>444</ele>
            </trkpt>
            <trkpt lat="46.631371" lon="14.314933">
                <ele>444</ele>
            </trkpt>
            <trkpt lat="46.631366" lon="14.31495">
                <ele>444</ele>
            </trkpt>
            <trkpt lat="46.631302" lon="14.3152">
                <ele>444</ele>
            </trkpt>
            <trkpt lat="46.631263" lon="14.315347">
                <ele>443</ele>
            </trkpt>
            <trkpt lat="46.631142" lon="14.315816">
                <ele>443</ele>
            </trkpt>
            <trkpt lat="46.631037" lon="14.316186">
                <ele>443</ele>
            </trkpt>
            <trkpt lat="46.630964" lon="14.316463">
                <ele>443</ele>
            </trkpt>
            <trkpt lat="46.630535" lon="14.316248">
                <ele>446</ele>
            </trkpt>
            <trkpt lat="46.630379" lon="14.316883">
                <ele>446</ele>
            </trkpt>
            <trkpt lat="46.629873" lon="14.318893">
                <ele>443</ele>
            </trkpt>
            <trkpt lat="46.62954" lon="14.319658">
                <ele>443</ele>
            </trkpt>
            <trkpt lat="46.62954" lon="14.319658">
                <ele>443</ele>
            </trkpt>
            <trkpt lat="46.629438" lon="14.319892">
                <ele>443</ele>
            </trkpt>
            <trkpt lat="46.629217" lon="14.320399">
                <ele>443</ele>
            </trkpt>
            <trkpt lat="46.62908" lon="14.320719">
                <ele>443</ele>
            </trkpt>
            <trkpt lat="46.629033" lon="14.32075">
                <ele>443</ele>
            </trkpt>
            <trkpt lat="46.628989" lon="14.320743">
                <ele>442</ele>
            </trkpt>
            <trkpt lat="46.628515" lon="14.320412">
                <ele>442</ele>
            </trkpt>
            <trkpt lat="46.628498" lon="14.321903">
                <ele>439</ele>
            </trkpt>
            <trkpt lat="46.628494" lon="14.322285">
                <ele>440</ele>
            </trkpt>
            <trkpt lat="46.628594" lon="14.32286">
                <ele>441</ele>
            </trkpt>
            <trkpt lat="46.628644" lon="14.323293">
                <ele>441</ele>
            </trkpt>
            <trkpt lat="46.628737" lon="14.324659">
                <ele>442</ele>
            </trkpt>
            <trkpt lat="46.628737" lon="14.324659">
                <ele>442</ele>
            </trkpt>
            <trkpt lat="46.628747" lon="14.324808">
                <ele>442</ele>
            </trkpt>
            <trkpt lat="46.628755" lon="14.325265">
                <ele>442</ele>
            </trkpt>
            <trkpt lat="46.628726" lon="14.325397">
                <ele>442</ele>
            </trkpt>
            <trkpt lat="46.628994" lon="14.32568">
                <ele>442</ele>
            </trkpt>
            <trkpt lat="46.629125" lon="14.32594">
                <ele>440</ele>
            </trkpt>
            <trkpt lat="46.629288" lon="14.326016">
                <ele>440</ele>
            </trkpt>
            <trkpt lat="46.629555" lon="14.326354">
                <ele>440</ele>
            </trkpt>
            <trkpt lat="46.629753" lon="14.326547">
                <ele>440</ele>
            </trkpt>
            <trkpt lat="46.629843" lon="14.326594">
                <ele>440</ele>
            </trkpt>
            <trkpt lat="46.629981" lon="14.326735">
                <ele>440</ele>
            </trkpt>
            <trkpt lat="46.630211" lon="14.326991">
                <ele>440</ele>
            </trkpt>
            <trkpt lat="46.63053" lon="14.327383">
                <ele>440</ele>
            </trkpt>
            <trkpt lat="46.630589" lon="14.327452">
                <ele>440</ele>
            </trkpt>
            <trkpt lat="46.630652" lon="14.327485">
                <ele>440</ele>
            </trkpt>
            <trkpt lat="46.630652" lon="14.327485">
                <ele>440</ele>
            </trkpt>
            <trkpt lat="46.630804" lon="14.327565">
                <ele>440</ele>
            </trkpt>
            <trkpt lat="46.63099" lon="14.327646">
                <ele>440</ele>
            </trkpt>
            <trkpt lat="46.630933" lon="14.327903">
                <ele>442</ele>
            </trkpt>
            <trkpt lat="46.630817" lon="14.328424">
                <ele>442</ele>
            </trkpt>
            <trkpt lat="46.631215" lon="14.328615">
                <ele>442</ele>
            </trkpt>
            <trkpt lat="46.631183" lon="14.328748">
                <ele>440</ele>
            </trkpt>
            <trkpt lat="46.631183" lon="14.328748">
                <ele>440</ele>
            </trkpt>
            <trkpt lat="46.631177" lon="14.328774">
                <ele>440</ele>
            </trkpt>
            <trkpt lat="46.631123" lon="14.328995">
                <ele>440</ele>
            </trkpt>
            <trkpt lat="46.631066" lon="14.329232">
                <ele>440</ele>
            </trkpt>
            <trkpt lat="46.631057" lon="14.329269">
                <ele>440</ele>
            </trkpt>
            <trkpt lat="46.631012" lon="14.329457">
                <ele>440</ele>
            </trkpt>
            <trkpt lat="46.630975" lon="14.329609">
                <ele>438</ele>
            </trkpt>
            <trkpt lat="46.630895" lon="14.329969">
                <ele>438</ele>
            </trkpt>
            <trkpt lat="46.630784" lon="14.330376">
                <ele>440</ele>
            </trkpt>
            <trkpt lat="46.630751" lon="14.330498">
                <ele>440</ele>
            </trkpt>
            <trkpt lat="46.630637" lon="14.330922">
                <ele>440</ele>
            </trkpt>
            <trkpt lat="46.630604" lon="14.331041">
                <ele>440</ele>
            </trkpt>
            <trkpt lat="46.630591" lon="14.331087">
                <ele>440</ele>
            </trkpt>
            <trkpt lat="46.630565" lon="14.331172">
                <ele>441</ele>
            </trkpt>
            <trkpt lat="46.630555" lon="14.331205">
                <ele>441</ele>
            </trkpt>
            <trkpt lat="46.630373" lon="14.331812">
                <ele>441</ele>
            </trkpt>
            <trkpt lat="46.630351" lon="14.331894">
                <ele>441</ele>
            </trkpt>
            <trkpt lat="46.630234" lon="14.332306">
                <ele>442</ele>
            </trkpt>
            <trkpt lat="46.630197" lon="14.332439">
                <ele>442</ele>
            </trkpt>
            <trkpt lat="46.630065" lon="14.332951">
                <ele>443</ele>
            </trkpt>
            <trkpt lat="46.630001" lon="14.333205">
                <ele>443</ele>
            </trkpt>
            <trkpt lat="46.62992" lon="14.333569">
                <ele>443</ele>
            </trkpt>
            <trkpt lat="46.62983" lon="14.334052">
                <ele>443</ele>
            </trkpt>
            <trkpt lat="46.629702" lon="14.334989">
                <ele>442</ele>
            </trkpt>
            <trkpt lat="46.629702" lon="14.334989">
                <ele>442</ele>
            </trkpt>
            <trkpt lat="46.629687" lon="14.335099">
                <ele>442</ele>
            </trkpt>
            <trkpt lat="46.629643" lon="14.335396">
                <ele>440</ele>
            </trkpt>
            <trkpt lat="46.629545" lon="14.336054">
                <ele>440</ele>
            </trkpt>
            <trkpt lat="46.629467" lon="14.336458">
                <ele>440</ele>
            </trkpt>
            <trkpt lat="46.629371" lon="14.336777">
                <ele>440</ele>
            </trkpt>
            <trkpt lat="46.629131" lon="14.337331">
                <ele>441</ele>
            </trkpt>
            <trkpt lat="46.628746" lon="14.338236">
                <ele>440</ele>
            </trkpt>
            <trkpt lat="46.628676" lon="14.33846">
                <ele>440</ele>
            </trkpt>
            <trkpt lat="46.628618" lon="14.338737">
                <ele>442</ele>
            </trkpt>
            <trkpt lat="46.628609" lon="14.339077">
                <ele>442</ele>
            </trkpt>
            <trkpt lat="46.628623" lon="14.339631">
                <ele>442</ele>
            </trkpt>
            <trkpt lat="46.628633" lon="14.339998">
                <ele>442</ele>
            </trkpt>
            <trkpt lat="46.628608" lon="14.340256">
                <ele>442</ele>
            </trkpt>
            <trkpt lat="46.628483" lon="14.341223">
                <ele>439</ele>
            </trkpt>
            <trkpt lat="46.628396" lon="14.341932">
                <ele>439</ele>
            </trkpt>
            <trkpt lat="46.62839" lon="14.341977">
                <ele>440</ele>
            </trkpt>
            <trkpt lat="46.628264" lon="14.3429">
                <ele>440</ele>
            </trkpt>
            <trkpt lat="46.628237" lon="14.343092">
                <ele>440</ele>
            </trkpt>
            <trkpt lat="46.628237" lon="14.343092">
                <ele>440</ele>
            </trkpt>
            <trkpt lat="46.62823" lon="14.343138">
                <ele>440</ele>
            </trkpt>
            <trkpt lat="46.628366" lon="14.343178">
                <ele>440</ele>
            </trkpt>
            <trkpt lat="46.628556" lon="14.343234">
                <ele>440</ele>
            </trkpt>
            <trkpt lat="46.628602" lon="14.343249">
                <ele>440</ele>
            </trkpt>
            <trkpt lat="46.628583" lon="14.343399">
                <ele>440</ele>
            </trkpt>
            <trkpt lat="46.628637" lon="14.343485">
                <ele>440</ele>
            </trkpt>
            <trkpt lat="46.628668" lon="14.34457">
                <ele>442</ele>
            </trkpt>
            <trkpt lat="46.628699" lon="14.345687">
                <ele>442</ele>
            </trkpt>
            <trkpt lat="46.628699" lon="14.345687">
                <ele>442</ele>
            </trkpt>
            <trkpt lat="46.628704" lon="14.345852">
                <ele>442</ele>
            </trkpt>
            <trkpt lat="46.628207" lon="14.34583">
                <ele>442</ele>
            </trkpt>
            <trkpt lat="46.628229" lon="14.345983">
                <ele>442</ele>
            </trkpt>
            <trkpt lat="46.628012" lon="14.346005">
                <ele>441</ele>
            </trkpt>
            <trkpt lat="46.628012" lon="14.346005">
                <ele>441</ele>
            </trkpt>
            <trkpt lat="46.627703" lon="14.346037">
                <ele>441</ele>
            </trkpt>
            <trkpt lat="46.627662" lon="14.345896">
                <ele>441</ele>
            </trkpt>
            <trkpt lat="46.627587" lon="14.34583">
                <ele>441</ele>
            </trkpt>
            <trkpt lat="46.627536" lon="14.345688">
                <ele>441</ele>
            </trkpt>
            <trkpt lat="46.627498" lon="14.345708">
                <ele>441</ele>
            </trkpt>
            <trkpt lat="46.627376" lon="14.345789">
                <ele>441</ele>
            </trkpt>
            <trkpt lat="46.627307" lon="14.345833">
                <ele>437</ele>
            </trkpt>
            <trkpt lat="46.627291" lon="14.34592">
                <ele>437</ele>
            </trkpt>
            <trkpt lat="46.626723" lon="14.346028">
                <ele>437</ele>
            </trkpt>
            <trkpt lat="46.626132" lon="14.346113">
                <ele>437</ele>
            </trkpt>
            <trkpt lat="46.625842" lon="14.346163">
                <ele>436</ele>
            </trkpt>
            <trkpt lat="46.625797" lon="14.346177">
                <ele>436</ele>
            </trkpt>
            <trkpt lat="46.625797" lon="14.346177">
                <ele>436</ele>
            </trkpt>
            <trkpt lat="46.62558" lon="14.346241">
                <ele>436</ele>
            </trkpt>
            <trkpt lat="46.625049" lon="14.346436">
                <ele>436</ele>
            </trkpt>
            <trkpt lat="46.624555" lon="14.346698">
                <ele>434</ele>
            </trkpt>
            <trkpt lat="46.624437" lon="14.34677">
                <ele>434</ele>
            </trkpt>
            <trkpt lat="46.624347" lon="14.346825">
                <ele>434</ele>
            </trkpt>
            <trkpt lat="46.623937" lon="14.347182">
                <ele>434</ele>
            </trkpt>
            <trkpt lat="46.623636" lon="14.347467">
                <ele>434</ele>
            </trkpt>
            <trkpt lat="46.623318" lon="14.347819">
                <ele>434</ele>
            </trkpt>
            <trkpt lat="46.623318" lon="14.347819">
                <ele>434</ele>
            </trkpt>
            <trkpt lat="46.622751" lon="14.348446">
                <ele>434</ele>
            </trkpt>
            <trkpt lat="46.622455" lon="14.348736">
                <ele>435</ele>
            </trkpt>
            <trkpt lat="46.622108" lon="14.349007">
                <ele>432</ele>
            </trkpt>
            <trkpt lat="46.621904" lon="14.349131">
                <ele>432</ele>
            </trkpt>
            <trkpt lat="46.621904" lon="14.349132">
                <ele>432</ele>
            </trkpt>
            <trkpt lat="46.621785" lon="14.349204">
                <ele>432</ele>
            </trkpt>
            <trkpt lat="46.621477" lon="14.34934">
                <ele>435</ele>
            </trkpt>
            <trkpt lat="46.621173" lon="14.349428">
                <ele>435</ele>
            </trkpt>
            <trkpt lat="46.620926" lon="14.349468">
                <ele>435</ele>
            </trkpt>
            <trkpt lat="46.620295" lon="14.349451">
                <ele>435</ele>
            </trkpt>
            <trkpt lat="46.620295" lon="14.349451">
                <ele>435</ele>
            </trkpt>
            <trkpt lat="46.620124" lon="14.349447">
                <ele>435</ele>
            </trkpt>
            <trkpt lat="46.619361" lon="14.349237">
                <ele>434</ele>
            </trkpt>
            <trkpt lat="46.618631" lon="14.348825">
                <ele>433</ele>
            </trkpt>
            <trkpt lat="46.61797" lon="14.348323">
                <ele>431</ele>
            </trkpt>
            <trkpt lat="46.617702" lon="14.34805">
                <ele>431</ele>
            </trkpt>
            <trkpt lat="46.617366" lon="14.347639">
                <ele>431</ele>
            </trkpt>
            <trkpt lat="46.617271" lon="14.347411">
                <ele>430</ele>
            </trkpt>
            <trkpt lat="46.61709" lon="14.347238">
                <ele>430</ele>
            </trkpt>
            <trkpt lat="46.616983" lon="14.347066">
                <ele>430</ele>
            </trkpt>
            <trkpt lat="46.616548" lon="14.346235">
                <ele>432</ele>
            </trkpt>
            <trkpt lat="46.615762" lon="14.344476">
                <ele>433</ele>
            </trkpt>
            <trkpt lat="46.615762" lon="14.344476">
                <ele>433</ele>
            </trkpt>
            <trkpt lat="46.615699" lon="14.344334">
                <ele>434</ele>
            </trkpt>
            <trkpt lat="46.61554" lon="14.343967">
                <ele>434</ele>
            </trkpt>
            <trkpt lat="46.615523" lon="14.343905">
                <ele>434</ele>
            </trkpt>
            <trkpt lat="46.615171" lon="14.343118">
                <ele>434</ele>
            </trkpt>
            <trkpt lat="46.614774" lon="14.342292">
                <ele>434</ele>
            </trkpt>
            <trkpt lat="46.614774" lon="14.342292">
                <ele>434</ele>
            </trkpt>
            <trkpt lat="46.614669" lon="14.342073">
                <ele>434</ele>
            </trkpt>
            <trkpt lat="46.614534" lon="14.341795">
                <ele>434</ele>
            </trkpt>
            <trkpt lat="46.614453" lon="14.341651">
                <ele>434</ele>
            </trkpt>
            <trkpt lat="46.614139" lon="14.341201">
                <ele>434</ele>
            </trkpt>
            <trkpt lat="46.614139" lon="14.341201">
                <ele>434</ele>
            </trkpt>
            <trkpt lat="46.614056" lon="14.341082">
                <ele>433</ele>
            </trkpt>
            <trkpt lat="46.614098" lon="14.341002">
                <ele>433</ele>
            </trkpt>
            <trkpt lat="46.614009" lon="14.340915">
                <ele>434</ele>
            </trkpt>
            <trkpt lat="46.613943" lon="14.340854">
                <ele>434</ele>
            </trkpt>
            <trkpt lat="46.613925" lon="14.340806">
                <ele>434</ele>
            </trkpt>
            <trkpt lat="46.613905" lon="14.340747">
                <ele>434</ele>
            </trkpt>
            <trkpt lat="46.613761" lon="14.340723">
                <ele>434</ele>
            </trkpt>
            <trkpt lat="46.613633" lon="14.340618">
                <ele>434</ele>
            </trkpt>
            <trkpt lat="46.613346" lon="14.340251">
                <ele>434</ele>
            </trkpt>
            <trkpt lat="46.613258" lon="14.340074">
                <ele>434</ele>
            </trkpt>
            <trkpt lat="46.613068" lon="14.339833">
                <ele>432</ele>
            </trkpt>
            <trkpt lat="46.612999" lon="14.339747">
                <ele>432</ele>
            </trkpt>
            <trkpt lat="46.612935" lon="14.339746">
                <ele>432</ele>
            </trkpt>
            <trkpt lat="46.612765" lon="14.3395">
                <ele>432</ele>
            </trkpt>
            <trkpt lat="46.611737" lon="14.337821">
                <ele>432</ele>
            </trkpt>
            <trkpt lat="46.611685" lon="14.337737">
                <ele>432</ele>
            </trkpt>
            <trkpt lat="46.611662" lon="14.33779">
                <ele>432</ele>
            </trkpt>
            <trkpt lat="46.611603" lon="14.33768">
                <ele>432</ele>
            </trkpt>
            <trkpt lat="46.611603" lon="14.33768">
                <ele>432</ele>
            </trkpt>
            <trkpt lat="46.611662" lon="14.33779">
                <ele>432</ele>
            </trkpt>
            <trkpt lat="46.611685" lon="14.337737">
                <ele>432</ele>
            </trkpt>
            <trkpt lat="46.611262" lon="14.336947">
                <ele>432</ele>
            </trkpt>
            <trkpt lat="46.610636" lon="14.335726">
                <ele>433</ele>
            </trkpt>
            <trkpt lat="46.610075" lon="14.334456">
                <ele>434</ele>
            </trkpt>
            <trkpt lat="46.609665" lon="14.333413">
                <ele>434</ele>
            </trkpt>
            <trkpt lat="46.609203" lon="14.332105">
                <ele>433</ele>
            </trkpt>
            <trkpt lat="46.608901" lon="14.331028">
                <ele>435</ele>
            </trkpt>
            <trkpt lat="46.608761" lon="14.330518">
                <ele>435</ele>
            </trkpt>
            <trkpt lat="46.608774" lon="14.330453">
                <ele>435</ele>
            </trkpt>
            <trkpt lat="46.608687" lon="14.330583">
                <ele>435</ele>
            </trkpt>
            <trkpt lat="46.608744" lon="14.330771">
                <ele>435</ele>
            </trkpt>
            <trkpt lat="46.608744" lon="14.330771">
                <ele>435</ele>
            </trkpt>
            <trkpt lat="46.608687" lon="14.330583">
                <ele>435</ele>
            </trkpt>
            <trkpt lat="46.608627" lon="14.330399">
                <ele>435</ele>
            </trkpt>
            <trkpt lat="46.608542" lon="14.330557">
                <ele>435</ele>
            </trkpt>
            <trkpt lat="46.608357" lon="14.33077">
                <ele>435</ele>
            </trkpt>
            <trkpt lat="46.608287" lon="14.33079">
                <ele>435</ele>
            </trkpt>
            <trkpt lat="46.608216" lon="14.330769">
                <ele>435</ele>
            </trkpt>
            <trkpt lat="46.608114" lon="14.330699">
                <ele>436</ele>
            </trkpt>
            <trkpt lat="46.607743" lon="14.330336">
                <ele>436</ele>
            </trkpt>
            <trkpt lat="46.607657" lon="14.330252">
                <ele>433</ele>
            </trkpt>
            <trkpt lat="46.607201" lon="14.329918">
                <ele>436</ele>
            </trkpt>
            <trkpt lat="46.607215" lon="14.328807">
                <ele>436</ele>
            </trkpt>
            <trkpt lat="46.607223" lon="14.32702">
                <ele>435</ele>
            </trkpt>
            <trkpt lat="46.607225" lon="14.326557">
                <ele>435</ele>
            </trkpt>
            <trkpt lat="46.607232" lon="14.325025">
                <ele>436</ele>
            </trkpt>
            <trkpt lat="46.607233" lon="14.324793">
                <ele>436</ele>
            </trkpt>
            <trkpt lat="46.607243" lon="14.324607">
                <ele>436</ele>
            </trkpt>
            <trkpt lat="46.607301" lon="14.324547">
                <ele>436</ele>
            </trkpt>
            <trkpt lat="46.607413" lon="14.324498">
                <ele>437</ele>
            </trkpt>
            <trkpt lat="46.607473" lon="14.324389">
                <ele>434</ele>
            </trkpt>
            <trkpt lat="46.607442" lon="14.324002">
                <ele>434</ele>
            </trkpt>
            <trkpt lat="46.607327" lon="14.323501">
                <ele>436</ele>
            </trkpt>
            <trkpt lat="46.607327" lon="14.323501">
                <ele>436</ele>
            </trkpt>
            <trkpt lat="46.607314" lon="14.323442">
                <ele>436</ele>
            </trkpt>
            <trkpt lat="46.607109" lon="14.322691">
                <ele>436</ele>
            </trkpt>
            <trkpt lat="46.606895" lon="14.32203">
                <ele>436</ele>
            </trkpt>
            <trkpt lat="46.606842" lon="14.321864">
                <ele>437</ele>
            </trkpt>
            <trkpt lat="46.606518" lon="14.320898">
                <ele>438</ele>
            </trkpt>
            <trkpt lat="46.606182" lon="14.319732">
                <ele>437</ele>
            </trkpt>
            <trkpt lat="46.605979" lon="14.318884">
                <ele>435</ele>
            </trkpt>
            <trkpt lat="46.605979" lon="14.318884">
                <ele>435</ele>
            </trkpt>
            <trkpt lat="46.605855" lon="14.318368">
                <ele>436</ele>
            </trkpt>
            <trkpt lat="46.605648" lon="14.317426">
                <ele>435</ele>
            </trkpt>
            <trkpt lat="46.605337" lon="14.315752">
                <ele>436</ele>
            </trkpt>
            <trkpt lat="46.60527" lon="14.315318">
                <ele>436</ele>
            </trkpt>
            <trkpt lat="46.60527" lon="14.315318">
                <ele>436</ele>
            </trkpt>
            <trkpt lat="46.605084" lon="14.314117">
                <ele>437</ele>
            </trkpt>
            <trkpt lat="46.60503" lon="14.313392">
                <ele>438</ele>
            </trkpt>
            <trkpt lat="46.605049" lon="14.312587">
                <ele>438</ele>
            </trkpt>
            <trkpt lat="46.605092" lon="14.312298">
                <ele>438</ele>
            </trkpt>
            <trkpt lat="46.605225" lon="14.31159">
                <ele>439</ele>
            </trkpt>
            <trkpt lat="46.605224" lon="14.311494">
                <ele>439</ele>
            </trkpt>
            <trkpt lat="46.605224" lon="14.311494">
                <ele>439</ele>
            </trkpt>
            <trkpt lat="46.605223" lon="14.311368">
                <ele>439</ele>
            </trkpt>
            <trkpt lat="46.605207" lon="14.31128">
                <ele>439</ele>
            </trkpt>
            <trkpt lat="46.605178" lon="14.311209">
                <ele>439</ele>
            </trkpt>
            <trkpt lat="46.605078" lon="14.311079">
                <ele>436</ele>
            </trkpt>
            <trkpt lat="46.605387" lon="14.311003">
                <ele>436</ele>
            </trkpt>
            <trkpt lat="46.605567" lon="14.310615">
                <ele>436</ele>
            </trkpt>
            <trkpt lat="46.605777" lon="14.310188">
                <ele>437</ele>
            </trkpt>
            <trkpt lat="46.605988" lon="14.309837">
                <ele>437</ele>
            </trkpt>
            <trkpt lat="46.605949" lon="14.309523">
                <ele>437</ele>
            </trkpt>
            <trkpt lat="46.605924" lon="14.309317">
                <ele>438</ele>
            </trkpt>
            <trkpt lat="46.605941" lon="14.30928">
                <ele>438</ele>
            </trkpt>
            <trkpt lat="46.606122" lon="14.308879">
                <ele>438</ele>
            </trkpt>
            <trkpt lat="46.606185" lon="14.308741">
                <ele>438</ele>
            </trkpt>
            <trkpt lat="46.606188" lon="14.308685">
                <ele>438</ele>
            </trkpt>
            <trkpt lat="46.606166" lon="14.308551">
                <ele>439</ele>
            </trkpt>
            <trkpt lat="46.606595" lon="14.308486">
                <ele>440</ele>
            </trkpt>
            <trkpt lat="46.606569" lon="14.308554">
                <ele>440</ele>
            </trkpt>
            <trkpt lat="46.606569" lon="14.308554">
                <ele>440</ele>
            </trkpt>
            <trkpt lat="46.606595" lon="14.308486">
                <ele>440</ele>
            </trkpt>
            <trkpt lat="46.606632" lon="14.308369">
                <ele>440</ele>
            </trkpt>
            <trkpt lat="46.606792" lon="14.307629">
                <ele>440</ele>
            </trkpt>
            <trkpt lat="46.606697" lon="14.307551">
                <ele>440</ele>
            </trkpt>
            <trkpt lat="46.606664" lon="14.307524">
                <ele>440</ele>
            </trkpt>
            <trkpt lat="46.606576" lon="14.307515">
                <ele>440</ele>
            </trkpt>
            <trkpt lat="46.606612" lon="14.306846">
                <ele>438</ele>
            </trkpt>
            <trkpt lat="46.606638" lon="14.306368">
                <ele>438</ele>
            </trkpt>
            <trkpt lat="46.606426" lon="14.306347">
                <ele>439</ele>
            </trkpt>
            <trkpt lat="46.606164" lon="14.306321">
                <ele>439</ele>
            </trkpt>
            <trkpt lat="46.606132" lon="14.305439">
                <ele>439</ele>
            </trkpt>
            <trkpt lat="46.606138" lon="14.305281">
                <ele>439</ele>
            </trkpt>
            <trkpt lat="46.60622" lon="14.305172">
                <ele>439</ele>
            </trkpt>
            <trkpt lat="46.606247" lon="14.305063">
                <ele>439</ele>
            </trkpt>
            <trkpt lat="46.606245" lon="14.304863">
                <ele>439</ele>
            </trkpt>
            <trkpt lat="46.606186" lon="14.304522">
                <ele>439</ele>
            </trkpt>
            <trkpt lat="46.605794" lon="14.3035">
                <ele>443</ele>
            </trkpt>
            <trkpt lat="46.605785" lon="14.30341">
                <ele>443</ele>
            </trkpt>
            <trkpt lat="46.605883" lon="14.302965">
                <ele>443</ele>
            </trkpt>
            <trkpt lat="46.605935" lon="14.302726">
                <ele>453</ele>
            </trkpt>
            <trkpt lat="46.605997" lon="14.302469">
                <ele>453</ele>
            </trkpt>
            <trkpt lat="46.606042" lon="14.302282">
                <ele>453</ele>
            </trkpt>
            <trkpt lat="46.606962" lon="14.30273">
                <ele>442</ele>
            </trkpt>
            <trkpt lat="46.607" lon="14.302212">
                <ele>442</ele>
            </trkpt>
            <trkpt lat="46.60701" lon="14.302083">
                <ele>442</ele>
            </trkpt>
            <trkpt lat="46.607026" lon="14.301861">
                <ele>439</ele>
            </trkpt>
            <trkpt lat="46.607026" lon="14.301861">
                <ele>439</ele>
            </trkpt>
            <trkpt lat="46.607057" lon="14.301436">
                <ele>439</ele>
            </trkpt>
            <trkpt lat="46.607551" lon="14.301573">
                <ele>441</ele>
            </trkpt>
            <trkpt lat="46.608759" lon="14.302203">
                <ele>440</ele>
            </trkpt>
            <trkpt lat="46.60938" lon="14.302461">
                <ele>440</ele>
            </trkpt>
            <trkpt lat="46.60973" lon="14.302532">
                <ele>440</ele>
            </trkpt>
            <trkpt lat="46.609829" lon="14.302536">
                <ele>440</ele>
            </trkpt>
            <trkpt lat="46.609829" lon="14.302536">
                <ele>440</ele>
            </trkpt>
            <trkpt lat="46.610154" lon="14.302547">
                <ele>442</ele>
            </trkpt>
            <trkpt lat="46.610165" lon="14.302245">
                <ele>442</ele>
            </trkpt>
            <trkpt lat="46.610183" lon="14.301897">
                <ele>442</ele>
            </trkpt>
            <trkpt lat="46.610213" lon="14.301242">
                <ele>442</ele>
            </trkpt>
            <trkpt lat="46.610243" lon="14.300594">
                <ele>441</ele>
            </trkpt>
            <trkpt lat="46.610255" lon="14.300346">
                <ele>441</ele>
            </trkpt>
            <trkpt lat="46.610289" lon="14.299715">
                <ele>440</ele>
            </trkpt>
            <trkpt lat="46.610309" lon="14.29937">
                <ele>441</ele>
            </trkpt>
            <trkpt lat="46.610309" lon="14.29937">
                <ele>441</ele>
            </trkpt>
            <trkpt lat="46.610322" lon="14.299132">
                <ele>441</ele>
            </trkpt>
            <trkpt lat="46.61036" lon="14.298901">
                <ele>441</ele>
            </trkpt>
            <trkpt lat="46.610476" lon="14.298307">
                <ele>443</ele>
            </trkpt>
            <trkpt lat="46.610393" lon="14.298255">
                <ele>443</ele>
            </trkpt>
            <trkpt lat="46.610455" lon="14.297966">
                <ele>443</ele>
            </trkpt>
            <trkpt lat="46.609495" lon="14.297474">
                <ele>441</ele>
            </trkpt>
            <trkpt lat="46.609448" lon="14.29745">
                <ele>441</ele>
            </trkpt>
            <trkpt lat="46.60905" lon="14.297241">
                <ele>441</ele>
            </trkpt>
            <trkpt lat="46.60905" lon="14.29724">
                <ele>441</ele>
            </trkpt>
            <trkpt lat="46.60905" lon="14.29724">
                <ele>441</ele>
            </trkpt>
            <trkpt lat="46.608979" lon="14.29715">
                <ele>439</ele>
            </trkpt>
            <trkpt lat="46.609121" lon="14.296522">
                <ele>441</ele>
            </trkpt>
            <trkpt lat="46.609243" lon="14.295978">
                <ele>441</ele>
            </trkpt>
            <trkpt lat="46.609338" lon="14.295562">
                <ele>441</ele>
            </trkpt>
            <trkpt lat="46.609338" lon="14.295562">
                <ele>441</ele>
            </trkpt>
            <trkpt lat="46.609391" lon="14.295324">
                <ele>441</ele>
            </trkpt>
            <trkpt lat="46.609517" lon="14.294743">
                <ele>442</ele>
            </trkpt>
            <trkpt lat="46.609517" lon="14.294743">
                <ele>442</ele>
            </trkpt>
        </trkseg>
    </trk>
</gpx>