<?xml version="1.0" encoding="UTF-8" standalone="no" ?>
<gpx xmlns="http://www.topografix.com/GPX/1/1" creator="www.strecken-messen.de" version="1.1"><metadata/><trk><trkseg><trkpt lat="55.67391948530486" lon="12.540335252521801"><ele>undefined</ele></trkpt><trkpt lat="55.673924" lon="12.540317"><ele>undefined</ele></trkpt><trkpt lat="55.673946" lon="12.540335"><ele>undefined</ele></trkpt><trkpt lat="55.674072" lon="12.540426"><ele>undefined</ele></trkpt><trkpt lat="55.674468" lon="12.540646"><ele>undefined</ele></trkpt><trkpt lat="55.674489" lon="12.540658"><ele>undefined</ele></trkpt><trkpt lat="55.675151" lon="12.541013"><ele>undefined</ele></trkpt><trkpt lat="55.675293" lon="12.541091"><ele>undefined</ele></trkpt><trkpt lat="55.675908" lon="12.541415"><ele>undefined</ele></trkpt><trkpt lat="55.675973" lon="12.541449"><ele>undefined</ele></trkpt><trkpt lat="55.676014" lon="12.541471"><ele>undefined</ele></trkpt><trkpt lat="55.676295" lon="12.54161"><ele>undefined</ele></trkpt><trkpt lat="55.676387" lon="12.541593"><ele>undefined</ele></trkpt><trkpt lat="55.676447" lon="12.541583"><ele>undefined</ele></trkpt><trkpt lat="55.676519" lon="12.541573"><ele>undefined</ele></trkpt><trkpt lat="55.676766" lon="12.541686"><ele>undefined</ele></trkpt><trkpt lat="55.67678" lon="12.541693"><ele>undefined</ele></trkpt><trkpt lat="55.67678" lon="12.541693"><ele>undefined</ele></trkpt><trkpt lat="55.676936" lon="12.541763"><ele>undefined</ele></trkpt><trkpt lat="55.677211" lon="12.541885"><ele>undefined</ele></trkpt><trkpt lat="55.677762" lon="12.542125"><ele>undefined</ele></trkpt><trkpt lat="55.678412" lon="12.542367"><ele>undefined</ele></trkpt><trkpt lat="55.678412" lon="12.542368"><ele>undefined</ele></trkpt><trkpt lat="55.678454" lon="12.542383"><ele>undefined</ele></trkpt><trkpt lat="55.678213" lon="12.543451"><ele>undefined</ele></trkpt><trkpt lat="55.678099" lon="12.543978"><ele>undefined</ele></trkpt><trkpt lat="55.677854" lon="12.545022"><ele>undefined</ele></trkpt><trkpt lat="55.677796" lon="12.545295"><ele>undefined</ele></trkpt><trkpt lat="55.677638" lon="12.545187"><ele>undefined</ele></trkpt><trkpt lat="55.677638" lon="12.545187"><ele>undefined</ele></trkpt><trkpt lat="55.676088" lon="12.544127"><ele>undefined</ele></trkpt><trkpt lat="55.676056" lon="12.544106"><ele>undefined</ele></trkpt><trkpt lat="55.675894" lon="12.543976"><ele>undefined</ele></trkpt><trkpt lat="55.675862" lon="12.543952"><ele>undefined</ele></trkpt><trkpt lat="55.675468" lon="12.543722"><ele>undefined</ele></trkpt><trkpt lat="55.675468" lon="12.543722"><ele>undefined</ele></trkpt><trkpt lat="55.67546" lon="12.543718"><ele>undefined</ele></trkpt><trkpt lat="55.675436" lon="12.543705"><ele>undefined</ele></trkpt><trkpt lat="55.675044" lon="12.543498"><ele>undefined</ele></trkpt><trkpt lat="55.674885" lon="12.543404"><ele>undefined</ele></trkpt><trkpt lat="55.674759" lon="12.54333"><ele>undefined</ele></trkpt><trkpt lat="55.674549" lon="12.543206"><ele>undefined</ele></trkpt><trkpt lat="55.674205" lon="12.543009"><ele>undefined</ele></trkpt><trkpt lat="55.674134" lon="12.542971"><ele>undefined</ele></trkpt><trkpt lat="55.673828" lon="12.542798"><ele>undefined</ele></trkpt><trkpt lat="55.673729" lon="12.542763"><ele>undefined</ele></trkpt><trkpt lat="55.673729" lon="12.542763"><ele>undefined</ele></trkpt><trkpt lat="55.673702" lon="12.542754"><ele>undefined</ele></trkpt><trkpt lat="55.67373" lon="12.542465"><ele>undefined</ele></trkpt><trkpt lat="55.673595" lon="12.542446"><ele>undefined</ele></trkpt><trkpt lat="55.673289" lon="12.542414"><ele>undefined</ele></trkpt><trkpt lat="55.673225" lon="12.542407"><ele>undefined</ele></trkpt><trkpt lat="55.673195" lon="12.542404"><ele>undefined</ele></trkpt><trkpt lat="55.672747" lon="12.542357"><ele>undefined</ele></trkpt><trkpt lat="55.672166" lon="12.542295"><ele>undefined</ele></trkpt><trkpt lat="55.672165" lon="12.542234"><ele>undefined</ele></trkpt><trkpt lat="55.672165" lon="12.542234"><ele>undefined</ele></trkpt><trkpt lat="55.672153" lon="12.541179"><ele>undefined</ele></trkpt><trkpt lat="55.672568" lon="12.541253"><ele>undefined</ele></trkpt><trkpt lat="55.672706" lon="12.541275"><ele>undefined</ele></trkpt><trkpt lat="55.672706" lon="12.541275"><ele>undefined</ele></trkpt><trkpt lat="55.672907" lon="12.541307"><ele>undefined</ele></trkpt><trkpt lat="55.673172" lon="12.541348"><ele>undefined</ele></trkpt><trkpt lat="55.673198" lon="12.541352"><ele>undefined</ele></trkpt><trkpt lat="55.673399" lon="12.541385"><ele>undefined</ele></trkpt><trkpt lat="55.673453" lon="12.541393"><ele>undefined</ele></trkpt><trkpt lat="55.67351" lon="12.541402"><ele>undefined</ele></trkpt><trkpt lat="55.673695" lon="12.541431"><ele>undefined</ele></trkpt><trkpt lat="55.67381" lon="12.540245"><ele>undefined</ele></trkpt><trkpt lat="55.673853" lon="12.540256"><ele>undefined</ele></trkpt><trkpt lat="55.673924" lon="12.540317"><ele>undefined</ele></trkpt></trkseg></trk></gpx>