<?xml version="1.0" encoding="UTF-8" standalone="no" ?>
<gpx xmlns="http://www.topografix.com/GPX/1/1" creator="www.strecken-messen.de" version="1.1">
    <metadata/>
    <trk>
        <trkseg>
            <trkpt lat="48.20620831093003" lon="16.249819688775673">
                <ele>241</ele>
            </trkpt>
            <trkpt lat="48.206225" lon="16.249822">
                <ele>241</ele>
            </trkpt>
            <trkpt lat="48.206195" lon="16.250262">
                <ele>241</ele>
            </trkpt>
            <trkpt lat="48.206254" lon="16.25027">
                <ele>241</ele>
            </trkpt>
            <trkpt lat="48.206268" lon="16.250271">
                <ele>241</ele>
            </trkpt>
            <trkpt lat="48.206337" lon="16.250278">
                <ele>241</ele>
            </trkpt>
            <trkpt lat="48.206358" lon="16.250279">
                <ele>241</ele>
            </trkpt>
            <trkpt lat="48.206371" lon="16.250281">
                <ele>241</ele>
            </trkpt>
            <trkpt lat="48.20637" lon="16.250306">
                <ele>241</ele>
            </trkpt>
            <trkpt lat="48.206403" lon="16.25031">
                <ele>241</ele>
            </trkpt>
            <trkpt lat="48.206444" lon="16.250314">
                <ele>241</ele>
            </trkpt>
            <trkpt lat="48.206515" lon="16.250321">
                <ele>241</ele>
            </trkpt>
            <trkpt lat="48.206532" lon="16.250322">
                <ele>241</ele>
            </trkpt>
            <trkpt lat="48.206542" lon="16.250323">
                <ele>241</ele>
            </trkpt>
            <trkpt lat="48.206544" lon="16.250275">
                <ele>241</ele>
            </trkpt>
            <trkpt lat="48.206566" lon="16.250276">
                <ele>241</ele>
            </trkpt>
            <trkpt lat="48.206594" lon="16.250278">
                <ele>241</ele>
            </trkpt>
            <trkpt lat="48.206689" lon="16.250288">
                <ele>241</ele>
            </trkpt>
            <trkpt lat="48.20671" lon="16.25029">
                <ele>241</ele>
            </trkpt>
            <trkpt lat="48.206716" lon="16.250341">
                <ele>241</ele>
            </trkpt>
            <trkpt lat="48.206732" lon="16.250344">
                <ele>241</ele>
            </trkpt>
            <trkpt lat="48.206771" lon="16.250348">
                <ele>241</ele>
            </trkpt>
            <trkpt lat="48.206853" lon="16.250356">
                <ele>251</ele>
            </trkpt>
            <trkpt lat="48.206877" lon="16.250358">
                <ele>251</ele>
            </trkpt>
            <trkpt lat="48.206884" lon="16.250359">
                <ele>251</ele>
            </trkpt>
            <trkpt lat="48.206926" lon="16.250363">
                <ele>251</ele>
            </trkpt>
            <trkpt lat="48.206965" lon="16.250367">
                <ele>251</ele>
            </trkpt>
            <trkpt lat="48.206975" lon="16.250368">
                <ele>251</ele>
            </trkpt>
            <trkpt lat="48.206975" lon="16.250456">
                <ele>251</ele>
            </trkpt>
            <trkpt lat="48.206974" lon="16.25085">
                <ele>252</ele>
            </trkpt>
            <trkpt lat="48.207008" lon="16.250937">
                <ele>252</ele>
            </trkpt>
            <trkpt lat="48.207072" lon="16.250989">
                <ele>252</ele>
            </trkpt>
            <trkpt lat="48.207163" lon="16.251005">
                <ele>252</ele>
            </trkpt>
            <trkpt lat="48.207509" lon="16.251054">
                <ele>252</ele>
            </trkpt>
            <trkpt lat="48.207448" lon="16.25159">
                <ele>251</ele>
            </trkpt>
            <trkpt lat="48.207445" lon="16.251623">
                <ele>251</ele>
            </trkpt>
            <trkpt lat="48.207559" lon="16.25165">
                <ele>251</ele>
            </trkpt>
            <trkpt lat="48.20775" lon="16.251749">
                <ele>261</ele>
            </trkpt>
            <trkpt lat="48.208038" lon="16.252028">
                <ele>261</ele>
            </trkpt>
            <trkpt lat="48.208073" lon="16.252082">
                <ele>261</ele>
            </trkpt>
            <trkpt lat="48.208126" lon="16.252114">
                <ele>261</ele>
            </trkpt>
            <trkpt lat="48.208152" lon="16.25216">
                <ele>261</ele>
            </trkpt>
            <trkpt lat="48.208242" lon="16.252322">
                <ele>258</ele>
            </trkpt>
            <trkpt lat="48.208308" lon="16.252508">
                <ele>258</ele>
            </trkpt>
            <trkpt lat="48.208313" lon="16.252525">
                <ele>258</ele>
            </trkpt>
            <trkpt lat="48.208332" lon="16.252582">
                <ele>258</ele>
            </trkpt>
            <trkpt lat="48.208338" lon="16.252602">
                <ele>258</ele>
            </trkpt>
            <trkpt lat="48.208355" lon="16.252662">
                <ele>258</ele>
            </trkpt>
            <trkpt lat="48.208358" lon="16.252678">
                <ele>258</ele>
            </trkpt>
            <trkpt lat="48.20837" lon="16.252728">
                <ele>258</ele>
            </trkpt>
            <trkpt lat="48.208373" lon="16.252741">
                <ele>258</ele>
            </trkpt>
            <trkpt lat="48.208383" lon="16.252787">
                <ele>258</ele>
            </trkpt>
            <trkpt lat="48.208386" lon="16.252802">
                <ele>258</ele>
            </trkpt>
            <trkpt lat="48.208391" lon="16.252823">
                <ele>258</ele>
            </trkpt>
            <trkpt lat="48.208396" lon="16.252844">
                <ele>258</ele>
            </trkpt>
            <trkpt lat="48.208406" lon="16.25289">
                <ele>258</ele>
            </trkpt>
            <trkpt lat="48.20841" lon="16.252909">
                <ele>258</ele>
            </trkpt>
            <trkpt lat="48.208415" lon="16.252936">
                <ele>258</ele>
            </trkpt>
            <trkpt lat="48.208415" lon="16.252949">
                <ele>258</ele>
            </trkpt>
            <trkpt lat="48.20843" lon="16.253015">
                <ele>258</ele>
            </trkpt>
            <trkpt lat="48.208429" lon="16.25305">
                <ele>258</ele>
            </trkpt>
            <trkpt lat="48.208429" lon="16.253091">
                <ele>258</ele>
            </trkpt>
            <trkpt lat="48.208428" lon="16.253125">
                <ele>258</ele>
            </trkpt>
            <trkpt lat="48.208427" lon="16.253166">
                <ele>251</ele>
            </trkpt>
            <trkpt lat="48.208426" lon="16.253202">
                <ele>251</ele>
            </trkpt>
            <trkpt lat="48.208425" lon="16.25324">
                <ele>251</ele>
            </trkpt>
            <trkpt lat="48.208424" lon="16.253272">
                <ele>251</ele>
            </trkpt>
            <trkpt lat="48.208423" lon="16.253308">
                <ele>251</ele>
            </trkpt>
            <trkpt lat="48.208422" lon="16.25335">
                <ele>251</ele>
            </trkpt>
            <trkpt lat="48.208422" lon="16.253385">
                <ele>251</ele>
            </trkpt>
            <trkpt lat="48.20842" lon="16.253426">
                <ele>251</ele>
            </trkpt>
            <trkpt lat="48.208419" lon="16.253459">
                <ele>251</ele>
            </trkpt>
            <trkpt lat="48.208418" lon="16.253484">
                <ele>251</ele>
            </trkpt>
            <trkpt lat="48.208418" lon="16.253508">
                <ele>251</ele>
            </trkpt>
            <trkpt lat="48.208417" lon="16.253518">
                <ele>251</ele>
            </trkpt>
            <trkpt lat="48.208411" lon="16.253542">
                <ele>251</ele>
            </trkpt>
            <trkpt lat="48.208409" lon="16.253549">
                <ele>251</ele>
            </trkpt>
            <trkpt lat="48.208401" lon="16.253576">
                <ele>251</ele>
            </trkpt>
            <trkpt lat="48.208394" lon="16.253606">
                <ele>251</ele>
            </trkpt>
            <trkpt lat="48.20836" lon="16.253727">
                <ele>251</ele>
            </trkpt>
            <trkpt lat="48.208335" lon="16.253753">
                <ele>251</ele>
            </trkpt>
            <trkpt lat="48.208519" lon="16.254201">
                <ele>242</ele>
            </trkpt>
            <trkpt lat="48.208614" lon="16.254333">
                <ele>242</ele>
            </trkpt>
            <trkpt lat="48.208711" lon="16.254416">
                <ele>242</ele>
            </trkpt>
            <trkpt lat="48.209437" lon="16.254813">
                <ele>231</ele>
            </trkpt>
            <trkpt lat="48.209425" lon="16.255029">
                <ele>231</ele>
            </trkpt>
            <trkpt lat="48.208572" lon="16.255078">
                <ele>231</ele>
            </trkpt>
            <trkpt lat="48.208181" lon="16.255068">
                <ele>231</ele>
            </trkpt>
            <trkpt lat="48.207342" lon="16.254956">
                <ele>232</ele>
            </trkpt>
            <trkpt lat="48.206845" lon="16.254843">
                <ele>232</ele>
            </trkpt>
            <trkpt lat="48.206144" lon="16.254701">
                <ele>236</ele>
            </trkpt>
            <trkpt lat="48.20587" lon="16.254665">
                <ele>230</ele>
            </trkpt>
            <trkpt lat="48.205699" lon="16.254683">
                <ele>230</ele>
            </trkpt>
            <trkpt lat="48.205549" lon="16.254735">
                <ele>230</ele>
            </trkpt>
            <trkpt lat="48.205549" lon="16.254734">
                <ele>230</ele>
            </trkpt>
            <trkpt lat="48.205408" lon="16.254783">
                <ele>230</ele>
            </trkpt>
            <trkpt lat="48.204926" lon="16.255317">
                <ele>222</ele>
            </trkpt>
            <trkpt lat="48.204732" lon="16.255523">
                <ele>222</ele>
            </trkpt>
            <trkpt lat="48.204486" lon="16.25575">
                <ele>221</ele>
            </trkpt>
            <trkpt lat="48.204394" lon="16.255775">
                <ele>221</ele>
            </trkpt>
            <trkpt lat="48.204118" lon="16.255775">
                <ele>217</ele>
            </trkpt>
            <trkpt lat="48.20401" lon="16.255867">
                <ele>217</ele>
            </trkpt>
            <trkpt lat="48.203946" lon="16.255935">
                <ele>217</ele>
            </trkpt>
            <trkpt lat="48.203914" lon="16.255957">
                <ele>217</ele>
            </trkpt>
            <trkpt lat="48.203996" lon="16.257164">
                <ele>219</ele>
            </trkpt>
            <trkpt lat="48.204002" lon="16.25725">
                <ele>219</ele>
            </trkpt>
            <trkpt lat="48.20524" lon="16.256911">
                <ele>228</ele>
            </trkpt>
            <trkpt lat="48.205262" lon="16.257002">
                <ele>228</ele>
            </trkpt>
            <trkpt lat="48.20527" lon="16.257125">
                <ele>228</ele>
            </trkpt>
            <trkpt lat="48.205195" lon="16.257248">
                <ele>228</ele>
            </trkpt>
            <trkpt lat="48.205148" lon="16.257326">
                <ele>232</ele>
            </trkpt>
            <trkpt lat="48.204864" lon="16.258048">
                <ele>228</ele>
            </trkpt>
            <trkpt lat="48.204738" lon="16.258341">
                <ele>230</ele>
            </trkpt>
            <trkpt lat="48.204557" lon="16.258648">
                <ele>230</ele>
            </trkpt>
            <trkpt lat="48.204382" lon="16.258842">
                <ele>230</ele>
            </trkpt>
            <trkpt lat="48.204176" lon="16.259014">
                <ele>229</ele>
            </trkpt>
            <trkpt lat="48.204004" lon="16.259227">
                <ele>229</ele>
            </trkpt>
            <trkpt lat="48.203934" lon="16.259372">
                <ele>229</ele>
            </trkpt>
            <trkpt lat="48.203852" lon="16.25968">
                <ele>229</ele>
            </trkpt>
            <trkpt lat="48.203806" lon="16.259922">
                <ele>233</ele>
            </trkpt>
            <trkpt lat="48.203701" lon="16.260628">
                <ele>236</ele>
            </trkpt>
            <trkpt lat="48.203695" lon="16.260745">
                <ele>236</ele>
            </trkpt>
            <trkpt lat="48.203684" lon="16.260886">
                <ele>236</ele>
            </trkpt>
            <trkpt lat="48.203592" lon="16.26109">
                <ele>236</ele>
            </trkpt>
            <trkpt lat="48.203538" lon="16.261149">
                <ele>236</ele>
            </trkpt>
            <trkpt lat="48.203538" lon="16.261149">
                <ele>236</ele>
            </trkpt>
            <trkpt lat="48.20345" lon="16.261245">
                <ele>225</ele>
            </trkpt>
            <trkpt lat="48.203348" lon="16.261277">
                <ele>225</ele>
            </trkpt>
            <trkpt lat="48.20323" lon="16.261315">
                <ele>225</ele>
            </trkpt>
            <trkpt lat="48.202951" lon="16.261349">
                <ele>225</ele>
            </trkpt>
            <trkpt lat="48.202702" lon="16.261323">
                <ele>225</ele>
            </trkpt>
            <trkpt lat="48.202712" lon="16.261476">
                <ele>228</ele>
            </trkpt>
            <trkpt lat="48.202762" lon="16.261673">
                <ele>228</ele>
            </trkpt>
            <trkpt lat="48.202799" lon="16.261754">
                <ele>228</ele>
            </trkpt>
            <trkpt lat="48.202876" lon="16.26185">
                <ele>228</ele>
            </trkpt>
            <trkpt lat="48.203244" lon="16.262074">
                <ele>228</ele>
            </trkpt>
            <trkpt lat="48.203326" lon="16.262164">
                <ele>228</ele>
            </trkpt>
            <trkpt lat="48.203432" lon="16.262344">
                <ele>229</ele>
            </trkpt>
            <trkpt lat="48.203523" lon="16.262499">
                <ele>236</ele>
            </trkpt>
            <trkpt lat="48.203788" lon="16.262854">
                <ele>236</ele>
            </trkpt>
            <trkpt lat="48.203934" lon="16.263066">
                <ele>236</ele>
            </trkpt>
            <trkpt lat="48.203954" lon="16.263112">
                <ele>236</ele>
            </trkpt>
            <trkpt lat="48.204003" lon="16.263304">
                <ele>244</ele>
            </trkpt>
            <trkpt lat="48.204214" lon="16.264082">
                <ele>246</ele>
            </trkpt>
            <trkpt lat="48.204342" lon="16.264505">
                <ele>249</ele>
            </trkpt>
            <trkpt lat="48.204456" lon="16.265327">
                <ele>254</ele>
            </trkpt>
            <trkpt lat="48.204335" lon="16.265356">
                <ele>254</ele>
            </trkpt>
            <trkpt lat="48.204307" lon="16.26533">
                <ele>254</ele>
            </trkpt>
            <trkpt lat="48.204218" lon="16.264982">
                <ele>249</ele>
            </trkpt>
            <trkpt lat="48.204188" lon="16.264946">
                <ele>249</ele>
            </trkpt>
            <trkpt lat="48.204116" lon="16.264945">
                <ele>249</ele>
            </trkpt>
            <trkpt lat="48.204069" lon="16.265001">
                <ele>249</ele>
            </trkpt>
            <trkpt lat="48.204058" lon="16.265086">
                <ele>249</ele>
            </trkpt>
            <trkpt lat="48.20422" lon="16.26578">
                <ele>254</ele>
            </trkpt>
            <trkpt lat="48.204231" lon="16.265888">
                <ele>254</ele>
            </trkpt>
            <trkpt lat="48.204467" lon="16.266527">
                <ele>264</ele>
            </trkpt>
            <trkpt lat="48.204508" lon="16.266693">
                <ele>264</ele>
            </trkpt>
            <trkpt lat="48.204546" lon="16.266997">
                <ele>264</ele>
            </trkpt>
            <trkpt lat="48.204556" lon="16.2671">
                <ele>264</ele>
            </trkpt>
            <trkpt lat="48.204568" lon="16.267398">
                <ele>267</ele>
            </trkpt>
            <trkpt lat="48.204527" lon="16.268399">
                <ele>270</ele>
            </trkpt>
            <trkpt lat="48.204506" lon="16.268928">
                <ele>270</ele>
            </trkpt>
            <trkpt lat="48.204427" lon="16.268899">
                <ele>270</ele>
            </trkpt>
            <trkpt lat="48.204375" lon="16.268946">
                <ele>270</ele>
            </trkpt>
            <trkpt lat="48.204335" lon="16.269042">
                <ele>270</ele>
            </trkpt>
            <trkpt lat="48.203934" lon="16.270274">
                <ele>261</ele>
            </trkpt>
            <trkpt lat="48.203799" lon="16.270289">
                <ele>261</ele>
            </trkpt>
            <trkpt lat="48.203414" lon="16.27033">
                <ele>250</ele>
            </trkpt>
            <trkpt lat="48.202925" lon="16.270382">
                <ele>250</ele>
            </trkpt>
            <trkpt lat="48.202792" lon="16.271066">
                <ele>251</ele>
            </trkpt>
            <trkpt lat="48.202771" lon="16.271229">
                <ele>251</ele>
            </trkpt>
            <trkpt lat="48.202771" lon="16.271229">
                <ele>251</ele>
            </trkpt>
            <trkpt lat="48.202718" lon="16.271641">
                <ele>254</ele>
            </trkpt>
            <trkpt lat="48.202789" lon="16.272363">
                <ele>256</ele>
            </trkpt>
            <trkpt lat="48.202787" lon="16.272697">
                <ele>256</ele>
            </trkpt>
            <trkpt lat="48.202827" lon="16.272897">
                <ele>256</ele>
            </trkpt>
            <trkpt lat="48.202795" lon="16.272892">
                <ele>256</ele>
            </trkpt>
            <trkpt lat="48.202781" lon="16.27289">
                <ele>256</ele>
            </trkpt>
            <trkpt lat="48.202937" lon="16.273851">
                <ele>256</ele>
            </trkpt>
            <trkpt lat="48.203113" lon="16.274842">
                <ele>255</ele>
            </trkpt>
            <trkpt lat="48.203129" lon="16.274933">
                <ele>255</ele>
            </trkpt>
            <trkpt lat="48.203145" lon="16.275011">
                <ele>255</ele>
            </trkpt>
            <trkpt lat="48.203154" lon="16.275061">
                <ele>255</ele>
            </trkpt>
            <trkpt lat="48.203347" lon="16.276175">
                <ele>254</ele>
            </trkpt>
            <trkpt lat="48.203389" lon="16.276425">
                <ele>254</ele>
            </trkpt>
            <trkpt lat="48.203501" lon="16.277003">
                <ele>263</ele>
            </trkpt>
            <trkpt lat="48.203555" lon="16.277275">
                <ele>263</ele>
            </trkpt>
            <trkpt lat="48.203681" lon="16.277902">
                <ele>261</ele>
            </trkpt>
            <trkpt lat="48.203849" lon="16.278709">
                <ele>263</ele>
            </trkpt>
            <trkpt lat="48.203875" lon="16.278795">
                <ele>263</ele>
            </trkpt>
            <trkpt lat="48.203889" lon="16.278879">
                <ele>263</ele>
            </trkpt>
            <trkpt lat="48.203898" lon="16.278941">
                <ele>263</ele>
            </trkpt>
            <trkpt lat="48.203903" lon="16.278982">
                <ele>262</ele>
            </trkpt>
            <trkpt lat="48.203915" lon="16.278988">
                <ele>262</ele>
            </trkpt>
            <trkpt lat="48.204287" lon="16.280866">
                <ele>271</ele>
            </trkpt>
            <trkpt lat="48.204241" lon="16.280893">
                <ele>263</ele>
            </trkpt>
            <trkpt lat="48.204341" lon="16.282051">
                <ele>270</ele>
            </trkpt>
            <trkpt lat="48.204428" lon="16.283131">
                <ele>266</ele>
            </trkpt>
            <trkpt lat="48.204181" lon="16.283353">
                <ele>262</ele>
            </trkpt>
            <trkpt lat="48.204218" lon="16.283503">
                <ele>262</ele>
            </trkpt>
            <trkpt lat="48.203898" lon="16.283966">
                <ele>260</ele>
            </trkpt>
            <trkpt lat="48.203799" lon="16.284223">
                <ele>260</ele>
            </trkpt>
            <trkpt lat="48.20332" lon="16.285802">
                <ele>255</ele>
            </trkpt>
            <trkpt lat="48.203194" lon="16.286171">
                <ele>255</ele>
            </trkpt>
            <trkpt lat="48.203194" lon="16.286171">
                <ele>255</ele>
            </trkpt>
            <trkpt lat="48.203189" lon="16.286186">
                <ele>255</ele>
            </trkpt>
            <trkpt lat="48.203101" lon="16.286413">
                <ele>255</ele>
            </trkpt>
            <trkpt lat="48.202994" lon="16.286551">
                <ele>254</ele>
            </trkpt>
            <trkpt lat="48.202978" lon="16.28769">
                <ele>252</ele>
            </trkpt>
            <trkpt lat="48.202978" lon="16.288494">
                <ele>248</ele>
            </trkpt>
            <trkpt lat="48.202981" lon="16.288886">
                <ele>248</ele>
            </trkpt>
            <trkpt lat="48.203252" lon="16.290353">
                <ele>244</ele>
            </trkpt>
            <trkpt lat="48.203288" lon="16.290492">
                <ele>244</ele>
            </trkpt>
            <trkpt lat="48.203028" lon="16.290728">
                <ele>241</ele>
            </trkpt>
            <trkpt lat="48.203053" lon="16.290826">
                <ele>241</ele>
            </trkpt>
            <trkpt lat="48.203244" lon="16.292085">
                <ele>242</ele>
            </trkpt>
            <trkpt lat="48.203285" lon="16.292387">
                <ele>250</ele>
            </trkpt>
            <trkpt lat="48.203328" lon="16.293011">
                <ele>250</ele>
            </trkpt>
            <trkpt lat="48.203334" lon="16.29309">
                <ele>250</ele>
            </trkpt>
            <trkpt lat="48.203342" lon="16.293204">
                <ele>254</ele>
            </trkpt>
            <trkpt lat="48.203201" lon="16.293299">
                <ele>254</ele>
            </trkpt>
            <trkpt lat="48.203087" lon="16.293374">
                <ele>254</ele>
            </trkpt>
            <trkpt lat="48.202933" lon="16.293608">
                <ele>254</ele>
            </trkpt>
            <trkpt lat="48.202856" lon="16.293847">
                <ele>254</ele>
            </trkpt>
            <trkpt lat="48.202746" lon="16.294627">
                <ele>258</ele>
            </trkpt>
            <trkpt lat="48.202663" lon="16.295768">
                <ele>256</ele>
            </trkpt>
            <trkpt lat="48.202658" lon="16.295893">
                <ele>256</ele>
            </trkpt>
            <trkpt lat="48.202641" lon="16.2964">
                <ele>256</ele>
            </trkpt>
            <trkpt lat="48.202626" lon="16.296781">
                <ele>256</ele>
            </trkpt>
            <trkpt lat="48.202626" lon="16.296781">
                <ele>256</ele>
            </trkpt>
            <trkpt lat="48.202588" lon="16.297737">
                <ele>252</ele>
            </trkpt>
            <trkpt lat="48.202562" lon="16.298266">
                <ele>248</ele>
            </trkpt>
            <trkpt lat="48.202549" lon="16.298571">
                <ele>248</ele>
            </trkpt>
            <trkpt lat="48.202528" lon="16.299048">
                <ele>247</ele>
            </trkpt>
            <trkpt lat="48.202515" lon="16.299351">
                <ele>247</ele>
            </trkpt>
            <trkpt lat="48.202505" lon="16.299594">
                <ele>247</ele>
            </trkpt>
            <trkpt lat="48.202501" lon="16.299697">
                <ele>247</ele>
            </trkpt>
            <trkpt lat="48.202478" lon="16.300249">
                <ele>248</ele>
            </trkpt>
            <trkpt lat="48.202434" lon="16.301298">
                <ele>246</ele>
            </trkpt>
            <trkpt lat="48.202416" lon="16.301779">
                <ele>243</ele>
            </trkpt>
            <trkpt lat="48.202394" lon="16.302328">
                <ele>241</ele>
            </trkpt>
            <trkpt lat="48.202375" lon="16.302798">
                <ele>241</ele>
            </trkpt>
            <trkpt lat="48.20237" lon="16.30292">
                <ele>241</ele>
            </trkpt>
            <trkpt lat="48.202322" lon="16.303985">
                <ele>242</ele>
            </trkpt>
            <trkpt lat="48.202309" lon="16.304312">
                <ele>242</ele>
            </trkpt>
            <trkpt lat="48.202291" lon="16.304748">
                <ele>242</ele>
            </trkpt>
            <trkpt lat="48.202265" lon="16.305351">
                <ele>243</ele>
            </trkpt>
            <trkpt lat="48.202258" lon="16.305538">
                <ele>243</ele>
            </trkpt>
            <trkpt lat="48.202225" lon="16.30633">
                <ele>241</ele>
            </trkpt>
            <trkpt lat="48.202268" lon="16.306511">
                <ele>242</ele>
            </trkpt>
            <trkpt lat="48.202197" lon="16.306951">
                <ele>242</ele>
            </trkpt>
            <trkpt lat="48.202057" lon="16.306898">
                <ele>242</ele>
            </trkpt>
            <trkpt lat="48.201996" lon="16.307258">
                <ele>242</ele>
            </trkpt>
            <trkpt lat="48.201961" lon="16.307467">
                <ele>240</ele>
            </trkpt>
            <trkpt lat="48.201923" lon="16.307668">
                <ele>240</ele>
            </trkpt>
            <trkpt lat="48.202033" lon="16.307711">
                <ele>240</ele>
            </trkpt>
            <trkpt lat="48.202017" lon="16.307813">
                <ele>240</ele>
            </trkpt>
            <trkpt lat="48.201999" lon="16.307908">
                <ele>240</ele>
            </trkpt>
            <trkpt lat="48.201978" lon="16.307983">
                <ele>240</ele>
            </trkpt>
            <trkpt lat="48.201964" lon="16.308019">
                <ele>240</ele>
            </trkpt>
            <trkpt lat="48.201947" lon="16.308064">
                <ele>240</ele>
            </trkpt>
            <trkpt lat="48.201925" lon="16.308111">
                <ele>240</ele>
            </trkpt>
            <trkpt lat="48.201913" lon="16.308133">
                <ele>240</ele>
            </trkpt>
            <trkpt lat="48.20186" lon="16.308178">
                <ele>237</ele>
            </trkpt>
            <trkpt lat="48.201792" lon="16.308264">
                <ele>237</ele>
            </trkpt>
            <trkpt lat="48.201755" lon="16.308314">
                <ele>238</ele>
            </trkpt>
            <trkpt lat="48.201821" lon="16.308398">
                <ele>237</ele>
            </trkpt>
            <trkpt lat="48.201855" lon="16.308437">
                <ele>237</ele>
            </trkpt>
            <trkpt lat="48.20184" lon="16.308462">
                <ele>237</ele>
            </trkpt>
            <trkpt lat="48.201586" lon="16.308896">
                <ele>238</ele>
            </trkpt>
            <trkpt lat="48.201583" lon="16.308958">
                <ele>238</ele>
            </trkpt>
            <trkpt lat="48.201554" lon="16.309007">
                <ele>239</ele>
            </trkpt>
            <trkpt lat="48.201215" lon="16.309581">
                <ele>239</ele>
            </trkpt>
            <trkpt lat="48.201699" lon="16.310121">
                <ele>236</ele>
            </trkpt>
            <trkpt lat="48.202204" lon="16.310673">
                <ele>242</ele>
            </trkpt>
            <trkpt lat="48.201537" lon="16.311994">
                <ele>237</ele>
            </trkpt>
            <trkpt lat="48.201537" lon="16.311994">
                <ele>237</ele>
            </trkpt>
            <trkpt lat="48.201366" lon="16.312334">
                <ele>238</ele>
            </trkpt>
            <trkpt lat="48.201848" lon="16.312867">
                <ele>242</ele>
            </trkpt>
            <trkpt lat="48.201941" lon="16.312914">
                <ele>242</ele>
            </trkpt>
            <trkpt lat="48.201956" lon="16.313045">
                <ele>242</ele>
            </trkpt>
            <trkpt lat="48.201195" lon="16.314599">
                <ele>240</ele>
            </trkpt>
            <trkpt lat="48.201155" lon="16.314681">
                <ele>240</ele>
            </trkpt>
            <trkpt lat="48.201594" lon="16.315157">
                <ele>241</ele>
            </trkpt>
            <trkpt lat="48.202148" lon="16.315785">
                <ele>241</ele>
            </trkpt>
            <trkpt lat="48.202115" lon="16.315861">
                <ele>241</ele>
            </trkpt>
            <trkpt lat="48.201839" lon="16.316673">
                <ele>241</ele>
            </trkpt>
            <trkpt lat="48.201731" lon="16.317017">
                <ele>241</ele>
            </trkpt>
            <trkpt lat="48.20167" lon="16.317213">
                <ele>241</ele>
            </trkpt>
            <trkpt lat="48.201602" lon="16.317429">
                <ele>242</ele>
            </trkpt>
            <trkpt lat="48.201418" lon="16.318226">
                <ele>241</ele>
            </trkpt>
            <trkpt lat="48.201349" lon="16.318594">
                <ele>241</ele>
            </trkpt>
            <trkpt lat="48.20134" lon="16.318642">
                <ele>241</ele>
            </trkpt>
            <trkpt lat="48.201188" lon="16.31937">
                <ele>239</ele>
            </trkpt>
            <trkpt lat="48.201162" lon="16.319522">
                <ele>239</ele>
            </trkpt>
            <trkpt lat="48.201032" lon="16.320558">
                <ele>242</ele>
            </trkpt>
            <trkpt lat="48.200953" lon="16.321346">
                <ele>241</ele>
            </trkpt>
            <trkpt lat="48.200845" lon="16.32281">
                <ele>240</ele>
            </trkpt>
            <trkpt lat="48.200817" lon="16.323124">
                <ele>240</ele>
            </trkpt>
            <trkpt lat="48.200817" lon="16.323124">
                <ele>240</ele>
            </trkpt>
            <trkpt lat="48.200719" lon="16.324264">
                <ele>243</ele>
            </trkpt>
            <trkpt lat="48.200652" lon="16.325113">
                <ele>238</ele>
            </trkpt>
            <trkpt lat="48.200166" lon="16.32504">
                <ele>238</ele>
            </trkpt>
            <trkpt lat="48.200134" lon="16.325632">
                <ele>238</ele>
            </trkpt>
            <trkpt lat="48.200147" lon="16.32614">
                <ele>237</ele>
            </trkpt>
            <trkpt lat="48.200159" lon="16.326414">
                <ele>237</ele>
            </trkpt>
            <trkpt lat="48.200232" lon="16.326967">
                <ele>232</ele>
            </trkpt>
            <trkpt lat="48.200247" lon="16.327078">
                <ele>232</ele>
            </trkpt>
            <trkpt lat="48.200385" lon="16.327851">
                <ele>228</ele>
            </trkpt>
            <trkpt lat="48.200541" lon="16.328619">
                <ele>229</ele>
            </trkpt>
            <trkpt lat="48.200474" lon="16.328633">
                <ele>229</ele>
            </trkpt>
            <trkpt lat="48.200364" lon="16.328668">
                <ele>229</ele>
            </trkpt>
            <trkpt lat="48.200343" lon="16.328679">
                <ele>229</ele>
            </trkpt>
            <trkpt lat="48.200228" lon="16.328737">
                <ele>229</ele>
            </trkpt>
            <trkpt lat="48.200152" lon="16.328776">
                <ele>229</ele>
            </trkpt>
            <trkpt lat="48.200024" lon="16.328841">
                <ele>229</ele>
            </trkpt>
            <trkpt lat="48.199863" lon="16.328928">
                <ele>229</ele>
            </trkpt>
            <trkpt lat="48.199928" lon="16.329167">
                <ele>228</ele>
            </trkpt>
            <trkpt lat="48.200004" lon="16.329464">
                <ele>228</ele>
            </trkpt>
            <trkpt lat="48.200258" lon="16.330386">
                <ele>230</ele>
            </trkpt>
            <trkpt lat="48.200289" lon="16.330498">
                <ele>230</ele>
            </trkpt>
            <trkpt lat="48.20032" lon="16.330611">
                <ele>230</ele>
            </trkpt>
            <trkpt lat="48.200229" lon="16.330664">
                <ele>224</ele>
            </trkpt>
            <trkpt lat="48.200491" lon="16.331591">
                <ele>223</ele>
            </trkpt>
            <trkpt lat="48.200792" lon="16.332627">
                <ele>222</ele>
            </trkpt>
            <trkpt lat="48.200953" lon="16.333254">
                <ele>220</ele>
            </trkpt>
            <trkpt lat="48.201119" lon="16.334007">
                <ele>218</ele>
            </trkpt>
            <trkpt lat="48.201156" lon="16.33418">
                <ele>218</ele>
            </trkpt>
            <trkpt lat="48.201425" lon="16.33598">
                <ele>219</ele>
            </trkpt>
            <trkpt lat="48.201425" lon="16.33598">
                <ele>219</ele>
            </trkpt>
            <trkpt lat="48.201433" lon="16.336032">
                <ele>219</ele>
            </trkpt>
            <trkpt lat="48.201458" lon="16.336264">
                <ele>219</ele>
            </trkpt>
            <trkpt lat="48.201527" lon="16.336914">
                <ele>217</ele>
            </trkpt>
            <trkpt lat="48.201609" lon="16.33689">
                <ele>217</ele>
            </trkpt>
            <trkpt lat="48.201639" lon="16.3369">
                <ele>217</ele>
            </trkpt>
            <trkpt lat="48.201653" lon="16.337023">
                <ele>217</ele>
            </trkpt>
            <trkpt lat="48.201667" lon="16.337152">
                <ele>217</ele>
            </trkpt>
            <trkpt lat="48.201719" lon="16.337666">
                <ele>213</ele>
            </trkpt>
            <trkpt lat="48.201723" lon="16.337712">
                <ele>213</ele>
            </trkpt>
            <trkpt lat="48.201732" lon="16.337809">
                <ele>213</ele>
            </trkpt>
            <trkpt lat="48.201742" lon="16.337954">
                <ele>213</ele>
            </trkpt>
            <trkpt lat="48.201755" lon="16.338178">
                <ele>216</ele>
            </trkpt>
            <trkpt lat="48.201776" lon="16.338438">
                <ele>216</ele>
            </trkpt>
            <trkpt lat="48.20179" lon="16.338662">
                <ele>211</ele>
            </trkpt>
            <trkpt lat="48.201808" lon="16.338704">
                <ele>211</ele>
            </trkpt>
            <trkpt lat="48.201808" lon="16.338799">
                <ele>211</ele>
            </trkpt>
            <trkpt lat="48.201803" lon="16.338917">
                <ele>211</ele>
            </trkpt>
            <trkpt lat="48.20191" lon="16.34044">
                <ele>219</ele>
            </trkpt>
            <trkpt lat="48.201905" lon="16.340496">
                <ele>219</ele>
            </trkpt>
            <trkpt lat="48.201883" lon="16.340605">
                <ele>219</ele>
            </trkpt>
            <trkpt lat="48.201883" lon="16.340635">
                <ele>219</ele>
            </trkpt>
            <trkpt lat="48.201893" lon="16.340635">
                <ele>219</ele>
            </trkpt>
            <trkpt lat="48.20189" lon="16.341112">
                <ele>219</ele>
            </trkpt>
            <trkpt lat="48.201882" lon="16.341899">
                <ele>221</ele>
            </trkpt>
            <trkpt lat="48.201898" lon="16.34194">
                <ele>221</ele>
            </trkpt>
            <trkpt lat="48.201897" lon="16.342082">
                <ele>221</ele>
            </trkpt>
            <trkpt lat="48.201894" lon="16.343106">
                <ele>217</ele>
            </trkpt>
            <trkpt lat="48.201901" lon="16.343208">
                <ele>214</ele>
            </trkpt>
            <trkpt lat="48.201886" lon="16.343306">
                <ele>214</ele>
            </trkpt>
            <trkpt lat="48.201883" lon="16.34492">
                <ele>211</ele>
            </trkpt>
            <trkpt lat="48.201883" lon="16.344942">
                <ele>211</ele>
            </trkpt>
            <trkpt lat="48.201883" lon="16.345004">
                <ele>211</ele>
            </trkpt>
            <trkpt lat="48.201882" lon="16.345075">
                <ele>211</ele>
            </trkpt>
            <trkpt lat="48.201864" lon="16.345151">
                <ele>211</ele>
            </trkpt>
            <trkpt lat="48.201864" lon="16.345178">
                <ele>211</ele>
            </trkpt>
            <trkpt lat="48.201872" lon="16.345178">
                <ele>211</ele>
            </trkpt>
            <trkpt lat="48.201885" lon="16.345177">
                <ele>211</ele>
            </trkpt>
            <trkpt lat="48.201883" lon="16.345621">
                <ele>211</ele>
            </trkpt>
            <trkpt lat="48.201881" lon="16.345907">
                <ele>209</ele>
            </trkpt>
            <trkpt lat="48.201881" lon="16.345954">
                <ele>209</ele>
            </trkpt>
            <trkpt lat="48.201881" lon="16.346003">
                <ele>209</ele>
            </trkpt>
            <trkpt lat="48.201845" lon="16.346014">
                <ele>209</ele>
            </trkpt>
            <trkpt lat="48.201844" lon="16.346896">
                <ele>212</ele>
            </trkpt>
            <trkpt lat="48.201861" lon="16.346917">
                <ele>212</ele>
            </trkpt>
            <trkpt lat="48.20186" lon="16.346957">
                <ele>212</ele>
            </trkpt>
            <trkpt lat="48.201859" lon="16.34703">
                <ele>212</ele>
            </trkpt>
            <trkpt lat="48.201838" lon="16.348363">
                <ele>213</ele>
            </trkpt>
            <trkpt lat="48.201816" lon="16.348907">
                <ele>213</ele>
            </trkpt>
            <trkpt lat="48.201863" lon="16.348979">
                <ele>213</ele>
            </trkpt>
            <trkpt lat="48.202191" lon="16.349017">
                <ele>213</ele>
            </trkpt>
            <trkpt lat="48.202193" lon="16.349074">
                <ele>213</ele>
            </trkpt>
            <trkpt lat="48.202184" lon="16.349166">
                <ele>213</ele>
            </trkpt>
            <trkpt lat="48.202205" lon="16.349225">
                <ele>213</ele>
            </trkpt>
            <trkpt lat="48.202208" lon="16.349242">
                <ele>213</ele>
            </trkpt>
            <trkpt lat="48.202211" lon="16.349263">
                <ele>213</ele>
            </trkpt>
            <trkpt lat="48.202212" lon="16.34928">
                <ele>213</ele>
            </trkpt>
            <trkpt lat="48.202213" lon="16.349335">
                <ele>213</ele>
            </trkpt>
            <trkpt lat="48.202213" lon="16.349429">
                <ele>213</ele>
            </trkpt>
            <trkpt lat="48.202215" lon="16.34954">
                <ele>213</ele>
            </trkpt>
            <trkpt lat="48.202221" lon="16.349683">
                <ele>213</ele>
            </trkpt>
            <trkpt lat="48.202225" lon="16.349784">
                <ele>213</ele>
            </trkpt>
            <trkpt lat="48.202283" lon="16.350801">
                <ele>213</ele>
            </trkpt>
            <trkpt lat="48.202284" lon="16.350843">
                <ele>213</ele>
            </trkpt>
            <trkpt lat="48.202271" lon="16.350849">
                <ele>213</ele>
            </trkpt>
            <trkpt lat="48.202283" lon="16.351124">
                <ele>213</ele>
            </trkpt>
            <trkpt lat="48.202288" lon="16.351436">
                <ele>213</ele>
            </trkpt>
            <trkpt lat="48.202311" lon="16.351609">
                <ele>212</ele>
            </trkpt>
            <trkpt lat="48.202317" lon="16.351639">
                <ele>212</ele>
            </trkpt>
            <trkpt lat="48.202303" lon="16.35171">
                <ele>212</ele>
            </trkpt>
            <trkpt lat="48.202277" lon="16.351795">
                <ele>212</ele>
            </trkpt>
            <trkpt lat="48.202248" lon="16.351874">
                <ele>212</ele>
            </trkpt>
            <trkpt lat="48.202251" lon="16.352264">
                <ele>212</ele>
            </trkpt>
            <trkpt lat="48.202268" lon="16.352709">
                <ele>211</ele>
            </trkpt>
            <trkpt lat="48.202256" lon="16.352765">
                <ele>211</ele>
            </trkpt>
            <trkpt lat="48.202341" lon="16.353716">
                <ele>206</ele>
            </trkpt>
            <trkpt lat="48.202428" lon="16.354415">
                <ele>204</ele>
            </trkpt>
            <trkpt lat="48.202439" lon="16.354508">
                <ele>204</ele>
            </trkpt>
            <trkpt lat="48.202461" lon="16.35464">
                <ele>204</ele>
            </trkpt>
            <trkpt lat="48.202544" lon="16.35506">
                <ele>206</ele>
            </trkpt>
            <trkpt lat="48.202631" lon="16.3555">
                <ele>207</ele>
            </trkpt>
            <trkpt lat="48.202704" lon="16.355874">
                <ele>200</ele>
            </trkpt>
            <trkpt lat="48.202773" lon="16.356213">
                <ele>200</ele>
            </trkpt>
            <trkpt lat="48.202936" lon="16.357012">
                <ele>199</ele>
            </trkpt>
            <trkpt lat="48.202985" lon="16.357004">
                <ele>199</ele>
            </trkpt>
            <trkpt lat="48.203011" lon="16.357095">
                <ele>199</ele>
            </trkpt>
            <trkpt lat="48.203104" lon="16.357061">
                <ele>199</ele>
            </trkpt>
            <trkpt lat="48.203115" lon="16.357127">
                <ele>199</ele>
            </trkpt>
            <trkpt lat="48.203128" lon="16.357204">
                <ele>199</ele>
            </trkpt>
            <trkpt lat="48.203137" lon="16.357258">
                <ele>199</ele>
            </trkpt>
            <trkpt lat="48.203179" lon="16.357248">
                <ele>199</ele>
            </trkpt>
            <trkpt lat="48.203201" lon="16.357238">
                <ele>199</ele>
            </trkpt>
            <trkpt lat="48.203225" lon="16.357362">
                <ele>201</ele>
            </trkpt>
            <trkpt lat="48.203284" lon="16.357371">
                <ele>201</ele>
            </trkpt>
            <trkpt lat="48.203405" lon="16.357484">
                <ele>201</ele>
            </trkpt>
            <trkpt lat="48.20343" lon="16.357537">
                <ele>201</ele>
            </trkpt>
            <trkpt lat="48.203443" lon="16.357567">
                <ele>201</ele>
            </trkpt>
            <trkpt lat="48.203434" lon="16.357602">
                <ele>201</ele>
            </trkpt>
            <trkpt lat="48.203465" lon="16.357674">
                <ele>194</ele>
            </trkpt>
            <trkpt lat="48.203487" lon="16.357725">
                <ele>194</ele>
            </trkpt>
            <trkpt lat="48.203465" lon="16.357747">
                <ele>194</ele>
            </trkpt>
            <trkpt lat="48.203536" lon="16.357881">
                <ele>194</ele>
            </trkpt>
            <trkpt lat="48.203581" lon="16.358133">
                <ele>194</ele>
            </trkpt>
            <trkpt lat="48.203649" lon="16.358243">
                <ele>186</ele>
            </trkpt>
            <trkpt lat="48.203662" lon="16.358312">
                <ele>186</ele>
            </trkpt>
            <trkpt lat="48.203351" lon="16.358728">
                <ele>197</ele>
            </trkpt>
            <trkpt lat="48.203423" lon="16.358901">
                <ele>197</ele>
            </trkpt>
            <trkpt lat="48.203428" lon="16.35891">
                <ele>197</ele>
            </trkpt>
            <trkpt lat="48.203566" lon="16.359176">
                <ele>185</ele>
            </trkpt>
            <trkpt lat="48.20358" lon="16.359208">
                <ele>185</ele>
            </trkpt>
            <trkpt lat="48.203827" lon="16.359647">
                <ele>185</ele>
            </trkpt>
            <trkpt lat="48.203891" lon="16.359748">
                <ele>185</ele>
            </trkpt>
            <trkpt lat="48.203918" lon="16.359793">
                <ele>185</ele>
            </trkpt>
            <trkpt lat="48.203928" lon="16.359809">
                <ele>185</ele>
            </trkpt>
            <trkpt lat="48.204095" lon="16.360077">
                <ele>184</ele>
            </trkpt>
            <trkpt lat="48.204254" lon="16.360335">
                <ele>184</ele>
            </trkpt>
            <trkpt lat="48.204391" lon="16.36056">
                <ele>193</ele>
            </trkpt>
            <trkpt lat="48.204439" lon="16.360516">
                <ele>193</ele>
            </trkpt>
            <trkpt lat="48.204494" lon="16.360497">
                <ele>193</ele>
            </trkpt>
            <trkpt lat="48.204551" lon="16.360506">
                <ele>193</ele>
            </trkpt>
            <trkpt lat="48.204603" lon="16.36054">
                <ele>193</ele>
            </trkpt>
            <trkpt lat="48.204644" lon="16.360598">
                <ele>193</ele>
            </trkpt>
            <trkpt lat="48.204671" lon="16.360668">
                <ele>194</ele>
            </trkpt>
            <trkpt lat="48.204677" lon="16.360826">
                <ele>194</ele>
            </trkpt>
            <trkpt lat="48.204621" lon="16.360962">
                <ele>194</ele>
            </trkpt>
            <trkpt lat="48.204759" lon="16.3612">
                <ele>194</ele>
            </trkpt>
            <trkpt lat="48.204965" lon="16.361561">
                <ele>193</ele>
            </trkpt>
            <trkpt lat="48.205125" lon="16.361634">
                <ele>185</ele>
            </trkpt>
            <trkpt lat="48.205137" lon="16.361651">
                <ele>185</ele>
            </trkpt>
            <trkpt lat="48.205175" lon="16.361712">
                <ele>185</ele>
            </trkpt>
            <trkpt lat="48.205238" lon="16.361804">
                <ele>185</ele>
            </trkpt>
            <trkpt lat="48.205321" lon="16.36188">
                <ele>185</ele>
            </trkpt>
            <trkpt lat="48.205429" lon="16.362033">
                <ele>185</ele>
            </trkpt>
            <trkpt lat="48.205337" lon="16.36218">
                <ele>185</ele>
            </trkpt>
            <trkpt lat="48.205253" lon="16.362272">
                <ele>185</ele>
            </trkpt>
            <trkpt lat="48.205311" lon="16.362356">
                <ele>182</ele>
            </trkpt>
            <trkpt lat="48.204979" lon="16.362799">
                <ele>193</ele>
            </trkpt>
            <trkpt lat="48.204134" lon="16.363906">
                <ele>193</ele>
            </trkpt>
            <trkpt lat="48.204193" lon="16.363996">
                <ele>187</ele>
            </trkpt>
            <trkpt lat="48.203918" lon="16.364368">
                <ele>187</ele>
            </trkpt>
            <trkpt lat="48.203881" lon="16.364439">
                <ele>187</ele>
            </trkpt>
            <trkpt lat="48.20383" lon="16.364507">
                <ele>187</ele>
            </trkpt>
            <trkpt lat="48.203804" lon="16.364591">
                <ele>187</ele>
            </trkpt>
            <trkpt lat="48.203747" lon="16.364869">
                <ele>182</ele>
            </trkpt>
            <trkpt lat="48.203854" lon="16.364962">
                <ele>182</ele>
            </trkpt>
            <trkpt lat="48.203947" lon="16.365113">
                <ele>182</ele>
            </trkpt>
            <trkpt lat="48.203883" lon="16.365268">
                <ele>182</ele>
            </trkpt>
            <trkpt lat="48.20386" lon="16.365375">
                <ele>182</ele>
            </trkpt>
            <trkpt lat="48.203878" lon="16.365801">
                <ele>182</ele>
            </trkpt>
            <trkpt lat="48.203968" lon="16.365935">
                <ele>182</ele>
            </trkpt>
            <trkpt lat="48.204019" lon="16.366055">
                <ele>182</ele>
            </trkpt>
            <trkpt lat="48.204022" lon="16.36618">
                <ele>182</ele>
            </trkpt>
            <trkpt lat="48.204112" lon="16.366207">
                <ele>182</ele>
            </trkpt>
            <trkpt lat="48.204118" lon="16.366328">
                <ele>182</ele>
            </trkpt>
            <trkpt lat="48.204161" lon="16.366469">
                <ele>182</ele>
            </trkpt>
            <trkpt lat="48.204178" lon="16.366839">
                <ele>186</ele>
            </trkpt>
            <trkpt lat="48.204199" lon="16.366973">
                <ele>186</ele>
            </trkpt>
            <trkpt lat="48.204337" lon="16.36719">
                <ele>183</ele>
            </trkpt>
            <trkpt lat="48.204439" lon="16.367411">
                <ele>182</ele>
            </trkpt>
            <trkpt lat="48.204428" lon="16.367542">
                <ele>182</ele>
            </trkpt>
            <trkpt lat="48.204426" lon="16.367571">
                <ele>182</ele>
            </trkpt>
            <trkpt lat="48.204416" lon="16.367771">
                <ele>182</ele>
            </trkpt>
            <trkpt lat="48.20445" lon="16.367838">
                <ele>182</ele>
            </trkpt>
            <trkpt lat="48.204405" lon="16.367905">
                <ele>182</ele>
            </trkpt>
            <trkpt lat="48.204226" lon="16.368151">
                <ele>186</ele>
            </trkpt>
            <trkpt lat="48.204007" lon="16.368442">
                <ele>186</ele>
            </trkpt>
            <trkpt lat="48.20398" lon="16.36852">
                <ele>186</ele>
            </trkpt>
            <trkpt lat="48.20396" lon="16.368672">
                <ele>186</ele>
            </trkpt>
            <trkpt lat="48.203924" lon="16.368849">
                <ele>186</ele>
            </trkpt>
            <trkpt lat="48.203847" lon="16.369319">
                <ele>186</ele>
            </trkpt>
            <trkpt lat="48.203643" lon="16.370205">
                <ele>183</ele>
            </trkpt>
            <trkpt lat="48.203591" lon="16.370326">
                <ele>183</ele>
            </trkpt>
            <trkpt lat="48.203341" lon="16.371475">
                <ele>189</ele>
            </trkpt>
            <trkpt lat="48.203189" lon="16.372151">
                <ele>188</ele>
            </trkpt>
            <trkpt lat="48.20306" lon="16.372736">
                <ele>191</ele>
            </trkpt>
            <trkpt lat="48.20306" lon="16.372736">
                <ele>191</ele>
            </trkpt>
            <trkpt lat="48.202884" lon="16.373539">
                <ele>186</ele>
            </trkpt>
            <trkpt lat="48.203577" lon="16.374326">
                <ele>187</ele>
            </trkpt>
            <trkpt lat="48.203431" lon="16.374577">
                <ele>186</ele>
            </trkpt>
            <trkpt lat="48.203219" lon="16.375033">
                <ele>183</ele>
            </trkpt>
            <trkpt lat="48.203224" lon="16.37509">
                <ele>183</ele>
            </trkpt>
            <trkpt lat="48.203213" lon="16.375139">
                <ele>183</ele>
            </trkpt>
            <trkpt lat="48.202936" lon="16.375743">
                <ele>178</ele>
            </trkpt>
            <trkpt lat="48.203401" lon="16.376198">
                <ele>178</ele>
            </trkpt>
            <trkpt lat="48.203465" lon="16.376268">
                <ele>184</ele>
            </trkpt>
            <trkpt lat="48.203512" lon="16.376316">
                <ele>184</ele>
            </trkpt>
            <trkpt lat="48.203483" lon="16.376382">
                <ele>184</ele>
            </trkpt>
            <trkpt lat="48.203443" lon="16.376474">
                <ele>178</ele>
            </trkpt>
            <trkpt lat="48.203389" lon="16.376608">
                <ele>180</ele>
            </trkpt>
            <trkpt lat="48.203329" lon="16.376742">
                <ele>180</ele>
            </trkpt>
            <trkpt lat="48.203257" lon="16.376906">
                <ele>180</ele>
            </trkpt>
            <trkpt lat="48.203786" lon="16.377441">
                <ele>173</ele>
            </trkpt>
            <trkpt lat="48.20404" lon="16.377701">
                <ele>173</ele>
            </trkpt>
            <trkpt lat="48.204315" lon="16.377981">
                <ele>185</ele>
            </trkpt>
            <trkpt lat="48.205423" lon="16.379112">
                <ele>170</ele>
            </trkpt>
            <trkpt lat="48.206327" lon="16.380028">
                <ele>173</ele>
            </trkpt>
            <trkpt lat="48.20631" lon="16.380069">
                <ele>173</ele>
            </trkpt>
            <trkpt lat="48.206267" lon="16.380208">
                <ele>173</ele>
            </trkpt>
            <trkpt lat="48.206247" lon="16.380421">
                <ele>173</ele>
            </trkpt>
            <trkpt lat="48.206352" lon="16.380516">
                <ele>173</ele>
            </trkpt>
            <trkpt lat="48.206289" lon="16.380658">
                <ele>168</ele>
            </trkpt>
            <trkpt lat="48.206244" lon="16.380834">
                <ele>168</ele>
            </trkpt>
            <trkpt lat="48.206286" lon="16.380971">
                <ele>168</ele>
            </trkpt>
            <trkpt lat="48.206397" lon="16.381214">
                <ele>168</ele>
            </trkpt>
            <trkpt lat="48.206523" lon="16.381656">
                <ele>162</ele>
            </trkpt>
            <trkpt lat="48.206544" lon="16.381765">
                <ele>162</ele>
            </trkpt>
            <trkpt lat="48.20655" lon="16.381946">
                <ele>162</ele>
            </trkpt>
            <trkpt lat="48.206675" lon="16.382055">
                <ele>162</ele>
            </trkpt>
            <trkpt lat="48.206703" lon="16.382141">
                <ele>162</ele>
            </trkpt>
            <trkpt lat="48.206757" lon="16.382185">
                <ele>162</ele>
            </trkpt>
            <trkpt lat="48.206807" lon="16.38222">
                <ele>167</ele>
            </trkpt>
            <trkpt lat="48.206841" lon="16.382245">
                <ele>167</ele>
            </trkpt>
            <trkpt lat="48.206816" lon="16.382324">
                <ele>167</ele>
            </trkpt>
            <trkpt lat="48.206808" lon="16.38235">
                <ele>167</ele>
            </trkpt>
            <trkpt lat="48.206708" lon="16.382689">
                <ele>169</ele>
            </trkpt>
            <trkpt lat="48.206715" lon="16.382736">
                <ele>169</ele>
            </trkpt>
            <trkpt lat="48.206692" lon="16.382812">
                <ele>169</ele>
            </trkpt>
            <trkpt lat="48.206646" lon="16.382984">
                <ele>169</ele>
            </trkpt>
            <trkpt lat="48.206621" lon="16.383077">
                <ele>169</ele>
            </trkpt>
            <trkpt lat="48.206407" lon="16.383813">
                <ele>176</ele>
            </trkpt>
            <trkpt lat="48.206394" lon="16.383851">
                <ele>176</ele>
            </trkpt>
            <trkpt lat="48.20638" lon="16.383968">
                <ele>176</ele>
            </trkpt>
            <trkpt lat="48.206376" lon="16.384022">
                <ele>173</ele>
            </trkpt>
            <trkpt lat="48.206301" lon="16.384255">
                <ele>173</ele>
            </trkpt>
            <trkpt lat="48.206258" lon="16.384393">
                <ele>173</ele>
            </trkpt>
            <trkpt lat="48.206194" lon="16.384581">
                <ele>173</ele>
            </trkpt>
            <trkpt lat="48.20614" lon="16.384747">
                <ele>173</ele>
            </trkpt>
            <trkpt lat="48.206095" lon="16.384893">
                <ele>173</ele>
            </trkpt>
            <trkpt lat="48.206001" lon="16.385193">
                <ele>173</ele>
            </trkpt>
            <trkpt lat="48.205983" lon="16.38525">
                <ele>173</ele>
            </trkpt>
            <trkpt lat="48.205931" lon="16.385417">
                <ele>178</ele>
            </trkpt>
            <trkpt lat="48.205929" lon="16.385454">
                <ele>178</ele>
            </trkpt>
            <trkpt lat="48.205916" lon="16.385519">
                <ele>178</ele>
            </trkpt>
            <trkpt lat="48.205904" lon="16.385567">
                <ele>178</ele>
            </trkpt>
            <trkpt lat="48.205877" lon="16.385674">
                <ele>170</ele>
            </trkpt>
            <trkpt lat="48.205863" lon="16.385714">
                <ele>170</ele>
            </trkpt>
            <trkpt lat="48.205838" lon="16.385708">
                <ele>170</ele>
            </trkpt>
            <trkpt lat="48.205629" lon="16.386362">
                <ele>170</ele>
            </trkpt>
            <trkpt lat="48.205616" lon="16.386405">
                <ele>170</ele>
            </trkpt>
            <trkpt lat="48.205599" lon="16.386456">
                <ele>170</ele>
            </trkpt>
            <trkpt lat="48.205446" lon="16.38692">
                <ele>168</ele>
            </trkpt>
            <trkpt lat="48.205437" lon="16.386947">
                <ele>168</ele>
            </trkpt>
            <trkpt lat="48.205425" lon="16.386978">
                <ele>168</ele>
            </trkpt>
            <trkpt lat="48.205384" lon="16.387074">
                <ele>168</ele>
            </trkpt>
            <trkpt lat="48.205321" lon="16.387106">
                <ele>168</ele>
            </trkpt>
            <trkpt lat="48.205159" lon="16.387448">
                <ele>174</ele>
            </trkpt>
            <trkpt lat="48.20512" lon="16.387531">
                <ele>174</ele>
            </trkpt>
            <trkpt lat="48.205074" lon="16.387605">
                <ele>178</ele>
            </trkpt>
            <trkpt lat="48.204833" lon="16.387996">
                <ele>178</ele>
            </trkpt>
            <trkpt lat="48.204819" lon="16.388023">
                <ele>178</ele>
            </trkpt>
            <trkpt lat="48.204763" lon="16.3881">
                <ele>178</ele>
            </trkpt>
            <trkpt lat="48.204316" lon="16.388733">
                <ele>178</ele>
            </trkpt>
            <trkpt lat="48.204293" lon="16.388766">
                <ele>178</ele>
            </trkpt>
            <trkpt lat="48.204306" lon="16.388782">
                <ele>178</ele>
            </trkpt>
            <trkpt lat="48.204725" lon="16.389346">
                <ele>180</ele>
            </trkpt>
            <trkpt lat="48.204725" lon="16.389346">
                <ele>180</ele>
            </trkpt>
            <trkpt lat="48.204873" lon="16.389545">
                <ele>180</ele>
            </trkpt>
            <trkpt lat="48.204901" lon="16.389749">
                <ele>180</ele>
            </trkpt>
            <trkpt lat="48.205318" lon="16.390279">
                <ele>185</ele>
            </trkpt>
            <trkpt lat="48.205804" lon="16.390871">
                <ele>180</ele>
            </trkpt>
            <trkpt lat="48.206029" lon="16.391304">
                <ele>176</ele>
            </trkpt>
            <trkpt lat="48.206296" lon="16.391675">
                <ele>173</ele>
            </trkpt>
            <trkpt lat="48.206168" lon="16.392079">
                <ele>173</ele>
            </trkpt>
            <trkpt lat="48.206163" lon="16.392144">
                <ele>173</ele>
            </trkpt>
            <trkpt lat="48.20581" lon="16.393219">
                <ele>175</ele>
            </trkpt>
            <trkpt lat="48.205631" lon="16.39394">
                <ele>175</ele>
            </trkpt>
            <trkpt lat="48.205656" lon="16.393959">
                <ele>175</ele>
            </trkpt>
            <trkpt lat="48.205668" lon="16.394021">
                <ele>172</ele>
            </trkpt>
            <trkpt lat="48.205687" lon="16.394115">
                <ele>172</ele>
            </trkpt>
            <trkpt lat="48.205675" lon="16.394214">
                <ele>172</ele>
            </trkpt>
            <trkpt lat="48.205731" lon="16.394593">
                <ele>172</ele>
            </trkpt>
            <trkpt lat="48.205752" lon="16.394613">
                <ele>172</ele>
            </trkpt>
            <trkpt lat="48.205755" lon="16.394638">
                <ele>172</ele>
            </trkpt>
            <trkpt lat="48.205764" lon="16.394694">
                <ele>172</ele>
            </trkpt>
            <trkpt lat="48.205778" lon="16.394779">
                <ele>172</ele>
            </trkpt>
            <trkpt lat="48.205781" lon="16.394793">
                <ele>172</ele>
            </trkpt>
            <trkpt lat="48.205775" lon="16.394816">
                <ele>172</ele>
            </trkpt>
            <trkpt lat="48.205975" lon="16.396123">
                <ele>169</ele>
            </trkpt>
            <trkpt lat="48.206004" lon="16.396189">
                <ele>169</ele>
            </trkpt>
            <trkpt lat="48.206025" lon="16.396217">
                <ele>169</ele>
            </trkpt>
            <trkpt lat="48.206031" lon="16.396331">
                <ele>169</ele>
            </trkpt>
            <trkpt lat="48.206031" lon="16.396461">
                <ele>169</ele>
            </trkpt>
            <trkpt lat="48.206006" lon="16.396507">
                <ele>155</ele>
            </trkpt>
            <trkpt lat="48.206034" lon="16.396554">
                <ele>155</ele>
            </trkpt>
            <trkpt lat="48.206005" lon="16.396681">
                <ele>155</ele>
            </trkpt>
            <trkpt lat="48.206013" lon="16.396776">
                <ele>155</ele>
            </trkpt>
            <trkpt lat="48.206083" lon="16.397633">
                <ele>154</ele>
            </trkpt>
            <trkpt lat="48.2061" lon="16.397826">
                <ele>154</ele>
            </trkpt>
            <trkpt lat="48.206112" lon="16.397892">
                <ele>154</ele>
            </trkpt>
            <trkpt lat="48.206211" lon="16.397866">
                <ele>154</ele>
            </trkpt>
            <trkpt lat="48.206219" lon="16.397837">
                <ele>154</ele>
            </trkpt>
            <trkpt lat="48.20629" lon="16.397834">
                <ele>154</ele>
            </trkpt>
            <trkpt lat="48.206312" lon="16.397861">
                <ele>154</ele>
            </trkpt>
            <trkpt lat="48.206454" lon="16.397828">
                <ele>154</ele>
            </trkpt>
            <trkpt lat="48.206868" lon="16.39776">
                <ele>162</ele>
            </trkpt>
            <trkpt lat="48.206876" lon="16.397841">
                <ele>162</ele>
            </trkpt>
            <trkpt lat="48.206912" lon="16.397908">
                <ele>162</ele>
            </trkpt>
            <trkpt lat="48.206926" lon="16.398029">
                <ele>162</ele>
            </trkpt>
            <trkpt lat="48.206993" lon="16.398016">
                <ele>162</ele>
            </trkpt>
            <trkpt lat="48.207286" lon="16.397975">
                <ele>162</ele>
            </trkpt>
            <trkpt lat="48.207846" lon="16.397858">
                <ele>162</ele>
            </trkpt>
            <trkpt lat="48.207913" lon="16.398412">
                <ele>169</ele>
            </trkpt>
            <trkpt lat="48.207933" lon="16.398465">
                <ele>169</ele>
            </trkpt>
            <trkpt lat="48.207946" lon="16.398522">
                <ele>169</ele>
            </trkpt>
            <trkpt lat="48.207958" lon="16.398519">
                <ele>169</ele>
            </trkpt>
            <trkpt lat="48.207958" lon="16.398519">
                <ele>169</ele>
            </trkpt>
            <trkpt lat="48.207946" lon="16.398522">
                <ele>169</ele>
            </trkpt>
            <trkpt lat="48.207956" lon="16.398581">
                <ele>169</ele>
            </trkpt>
            <trkpt lat="48.207939" lon="16.398631">
                <ele>169</ele>
            </trkpt>
            <trkpt lat="48.20801" lon="16.399209">
                <ele>166</ele>
            </trkpt>
            <trkpt lat="48.207574" lon="16.399437">
                <ele>169</ele>
            </trkpt>
            <trkpt lat="48.207207" lon="16.39966">
                <ele>169</ele>
            </trkpt>
            <trkpt lat="48.206873" lon="16.399876">
                <ele>165</ele>
            </trkpt>
            <trkpt lat="48.206313" lon="16.400309">
                <ele>169</ele>
            </trkpt>
            <trkpt lat="48.206345" lon="16.400621">
                <ele>169</ele>
            </trkpt>
            <trkpt lat="48.20633" lon="16.40066">
                <ele>164</ele>
            </trkpt>
            <trkpt lat="48.206229" lon="16.40076">
                <ele>164</ele>
            </trkpt>
            <trkpt lat="48.206174" lon="16.400827">
                <ele>164</ele>
            </trkpt>
            <trkpt lat="48.20648" lon="16.404439">
                <ele>160</ele>
            </trkpt>
            <trkpt lat="48.206499" lon="16.404561">
                <ele>160</ele>
            </trkpt>
            <trkpt lat="48.206581" lon="16.404784">
                <ele>160</ele>
            </trkpt>
            <trkpt lat="48.206662" lon="16.404914">
                <ele>160</ele>
            </trkpt>
            <trkpt lat="48.206862" lon="16.40516">
                <ele>161</ele>
            </trkpt>
            <trkpt lat="48.207005" lon="16.405307">
                <ele>161</ele>
            </trkpt>
            <trkpt lat="48.207415" lon="16.405737">
                <ele>162</ele>
            </trkpt>
            <trkpt lat="48.207691" lon="16.405916">
                <ele>160</ele>
            </trkpt>
            <trkpt lat="48.208845" lon="16.406238">
                <ele>160</ele>
            </trkpt>
            <trkpt lat="48.209006" lon="16.406368">
                <ele>160</ele>
            </trkpt>
            <trkpt lat="48.209255" lon="16.406661">
                <ele>164</ele>
            </trkpt>
            <trkpt lat="48.209307" lon="16.406723">
                <ele>160</ele>
            </trkpt>
            <trkpt lat="48.209353" lon="16.406632">
                <ele>160</ele>
            </trkpt>
            <trkpt lat="48.209406" lon="16.406692">
                <ele>160</ele>
            </trkpt>
            <trkpt lat="48.209489" lon="16.40678">
                <ele>160</ele>
            </trkpt>
            <trkpt lat="48.209571" lon="16.406869">
                <ele>160</ele>
            </trkpt>
            <trkpt lat="48.209507" lon="16.406992">
                <ele>160</ele>
            </trkpt>
            <trkpt lat="48.209607" lon="16.407109">
                <ele>160</ele>
            </trkpt>
            <trkpt lat="48.209698" lon="16.407217">
                <ele>160</ele>
            </trkpt>
            <trkpt lat="48.209772" lon="16.407304">
                <ele>160</ele>
            </trkpt>
            <trkpt lat="48.210398" lon="16.40805">
                <ele>159</ele>
            </trkpt>
            <trkpt lat="48.210606" lon="16.408303">
                <ele>160</ele>
            </trkpt>
            <trkpt lat="48.210667" lon="16.408178">
                <ele>160</ele>
            </trkpt>
            <trkpt lat="48.211148" lon="16.408746">
                <ele>165</ele>
            </trkpt>
            <trkpt lat="48.211148" lon="16.408746">
                <ele>165</ele>
            </trkpt>
            <trkpt lat="48.211238" lon="16.408854">
                <ele>165</ele>
            </trkpt>
            <trkpt lat="48.21118" lon="16.408967">
                <ele>165</ele>
            </trkpt>
            <trkpt lat="48.211164" lon="16.409014">
                <ele>164</ele>
            </trkpt>
            <trkpt lat="48.211174" lon="16.409101">
                <ele>164</ele>
            </trkpt>
            <trkpt lat="48.211246" lon="16.40926">
                <ele>164</ele>
            </trkpt>
            <trkpt lat="48.211216" lon="16.409317">
                <ele>164</ele>
            </trkpt>
            <trkpt lat="48.211386" lon="16.410196">
                <ele>164</ele>
            </trkpt>
            <trkpt lat="48.211447" lon="16.410404">
                <ele>164</ele>
            </trkpt>
            <trkpt lat="48.211451" lon="16.410471">
                <ele>164</ele>
            </trkpt>
            <trkpt lat="48.211533" lon="16.410668">
                <ele>161</ele>
            </trkpt>
            <trkpt lat="48.212203" lon="16.411435">
                <ele>160</ele>
            </trkpt>
            <trkpt lat="48.21233" lon="16.41159">
                <ele>165</ele>
            </trkpt>
            <trkpt lat="48.212798" lon="16.412119">
                <ele>163</ele>
            </trkpt>
            <trkpt lat="48.212895" lon="16.412231">
                <ele>163</ele>
            </trkpt>
            <trkpt lat="48.212917" lon="16.412257">
                <ele>163</ele>
            </trkpt>
            <trkpt lat="48.212944" lon="16.412289">
                <ele>163</ele>
            </trkpt>
            <trkpt lat="48.213022" lon="16.412374">
                <ele>160</ele>
            </trkpt>
            <trkpt lat="48.212955" lon="16.412511">
                <ele>160</ele>
            </trkpt>
            <trkpt lat="48.213053" lon="16.412625">
                <ele>160</ele>
            </trkpt>
            <trkpt lat="48.213525" lon="16.413184">
                <ele>158</ele>
            </trkpt>
            <trkpt lat="48.21348" lon="16.413261">
                <ele>158</ele>
            </trkpt>
            <trkpt lat="48.213662" lon="16.413622">
                <ele>158</ele>
            </trkpt>
            <trkpt lat="48.213772" lon="16.41393">
                <ele>158</ele>
            </trkpt>
            <trkpt lat="48.213819" lon="16.41416">
                <ele>158</ele>
            </trkpt>
            <trkpt lat="48.213834" lon="16.414285">
                <ele>158</ele>
            </trkpt>
            <trkpt lat="48.213834" lon="16.414285">
                <ele>158</ele>
            </trkpt>
            <trkpt lat="48.213874" lon="16.414617">
                <ele>158</ele>
            </trkpt>
            <trkpt lat="48.213893" lon="16.414704">
                <ele>158</ele>
            </trkpt>
            <trkpt lat="48.213968" lon="16.414686">
                <ele>158</ele>
            </trkpt>
            <trkpt lat="48.21406" lon="16.414654">
                <ele>158</ele>
            </trkpt>
            <trkpt lat="48.214079" lon="16.41462">
                <ele>158</ele>
            </trkpt>
            <trkpt lat="48.214174" lon="16.414441">
                <ele>158</ele>
            </trkpt>
            <trkpt lat="48.215072" lon="16.412708">
                <ele>160</ele>
            </trkpt>
            <trkpt lat="48.215102" lon="16.412743">
                <ele>160</ele>
            </trkpt>
            <trkpt lat="48.215142" lon="16.412788">
                <ele>160</ele>
            </trkpt>
            <trkpt lat="48.21517" lon="16.41282">
                <ele>160</ele>
            </trkpt>
            <trkpt lat="48.215197" lon="16.412851">
                <ele>160</ele>
            </trkpt>
            <trkpt lat="48.215235" lon="16.412895">
                <ele>160</ele>
            </trkpt>
            <trkpt lat="48.215251" lon="16.412913">
                <ele>160</ele>
            </trkpt>
            <trkpt lat="48.215462" lon="16.413178">
                <ele>163</ele>
            </trkpt>
            <trkpt lat="48.215967" lon="16.412517">
                <ele>160</ele>
            </trkpt>
            <trkpt lat="48.215988" lon="16.412491">
                <ele>160</ele>
            </trkpt>
            <trkpt lat="48.216891" lon="16.411303">
                <ele>159</ele>
            </trkpt>
            <trkpt lat="48.217177" lon="16.410927">
                <ele>159</ele>
            </trkpt>
            <trkpt lat="48.217403" lon="16.410625">
                <ele>157</ele>
            </trkpt>
            <trkpt lat="48.217449" lon="16.410562">
                <ele>157</ele>
            </trkpt>
            <trkpt lat="48.217737" lon="16.410875">
                <ele>161</ele>
            </trkpt>
            <trkpt lat="48.217737" lon="16.410904">
                <ele>161</ele>
            </trkpt>
            <trkpt lat="48.218011" lon="16.410914">
                <ele>161</ele>
            </trkpt>
            <trkpt lat="48.218056" lon="16.410914">
                <ele>161</ele>
            </trkpt>
            <trkpt lat="48.218068" lon="16.410275">
                <ele>163</ele>
            </trkpt>
            <trkpt lat="48.21861" lon="16.41114">
                <ele>164</ele>
            </trkpt>
            <trkpt lat="48.218662" lon="16.411064">
                <ele>164</ele>
            </trkpt>
            <trkpt lat="48.218714" lon="16.410993">
                <ele>164</ele>
            </trkpt>
            <trkpt lat="48.219471" lon="16.409944">
                <ele>163</ele>
            </trkpt>
            <trkpt lat="48.219528" lon="16.409865">
                <ele>163</ele>
            </trkpt>
            <trkpt lat="48.219914" lon="16.409304">
                <ele>163</ele>
            </trkpt>
            <trkpt lat="48.22036" lon="16.408651">
                <ele>161</ele>
            </trkpt>
            <trkpt lat="48.221006" lon="16.407742">
                <ele>165</ele>
            </trkpt>
            <trkpt lat="48.221059" lon="16.407668">
                <ele>165</ele>
            </trkpt>
            <trkpt lat="48.221112" lon="16.407593">
                <ele>165</ele>
            </trkpt>
            <trkpt lat="48.221461" lon="16.4071">
                <ele>166</ele>
            </trkpt>
            <trkpt lat="48.221523" lon="16.407012">
                <ele>166</ele>
            </trkpt>
            <trkpt lat="48.221564" lon="16.406955">
                <ele>166</ele>
            </trkpt>
            <trkpt lat="48.222132" lon="16.406166">
                <ele>168</ele>
            </trkpt>
            <trkpt lat="48.222176" lon="16.406105">
                <ele>168</ele>
            </trkpt>
            <trkpt lat="48.222225" lon="16.406037">
                <ele>168</ele>
            </trkpt>
            <trkpt lat="48.223379" lon="16.404423">
                <ele>164</ele>
            </trkpt>
            <trkpt lat="48.224481" lon="16.403072">
                <ele>164</ele>
            </trkpt>
            <trkpt lat="48.224522" lon="16.403181">
                <ele>165</ele>
            </trkpt>
            <trkpt lat="48.224595" lon="16.403342">
                <ele>165</ele>
            </trkpt>
            <trkpt lat="48.224839" lon="16.403778">
                <ele>165</ele>
            </trkpt>
            <trkpt lat="48.224978" lon="16.403921">
                <ele>165</ele>
            </trkpt>
            <trkpt lat="48.225124" lon="16.40411">
                <ele>160</ele>
            </trkpt>
            <trkpt lat="48.225459" lon="16.404683">
                <ele>160</ele>
            </trkpt>
            <trkpt lat="48.225485" lon="16.404729">
                <ele>160</ele>
            </trkpt>
            <trkpt lat="48.225572" lon="16.404893">
                <ele>161</ele>
            </trkpt>
            <trkpt lat="48.22598" lon="16.405648">
                <ele>161</ele>
            </trkpt>
            <trkpt lat="48.226001" lon="16.405686">
                <ele>158</ele>
            </trkpt>
            <trkpt lat="48.227933" lon="16.409261">
                <ele>164</ele>
            </trkpt>
            <trkpt lat="48.228443" lon="16.410205">
                <ele>161</ele>
            </trkpt>
            <trkpt lat="48.229033" lon="16.411296">
                <ele>159</ele>
            </trkpt>
            <trkpt lat="48.22921" lon="16.411625">
                <ele>154</ele>
            </trkpt>
            <trkpt lat="48.23003" lon="16.413143">
                <ele>154</ele>
            </trkpt>
            <trkpt lat="48.229705" lon="16.413553">
                <ele>164</ele>
            </trkpt>
            <trkpt lat="48.229506" lon="16.41375">
                <ele>164</ele>
            </trkpt>
            <trkpt lat="48.229417" lon="16.413801">
                <ele>164</ele>
            </trkpt>
            <trkpt lat="48.229196" lon="16.413806">
                <ele>154</ele>
            </trkpt>
            <trkpt lat="48.229208" lon="16.414194">
                <ele>163</ele>
            </trkpt>
            <trkpt lat="48.229231" lon="16.414306">
                <ele>163</ele>
            </trkpt>
            <trkpt lat="48.229243" lon="16.414432">
                <ele>163</ele>
            </trkpt>
            <trkpt lat="48.229199" lon="16.414528">
                <ele>163</ele>
            </trkpt>
            <trkpt lat="48.229208" lon="16.414637">
                <ele>163</ele>
            </trkpt>
            <trkpt lat="48.229217" lon="16.414717">
                <ele>163</ele>
            </trkpt>
            <trkpt lat="48.229228" lon="16.414812">
                <ele>163</ele>
            </trkpt>
            <trkpt lat="48.229311" lon="16.414989">
                <ele>170</ele>
            </trkpt>
            <trkpt lat="48.229361" lon="16.415093">
                <ele>170</ele>
            </trkpt>
            <trkpt lat="48.229372" lon="16.415118">
                <ele>170</ele>
            </trkpt>
            <trkpt lat="48.229409" lon="16.415196">
                <ele>170</ele>
            </trkpt>
            <trkpt lat="48.229408" lon="16.415355">
                <ele>170</ele>
            </trkpt>
            <trkpt lat="48.22917" lon="16.415836">
                <ele>168</ele>
            </trkpt>
            <trkpt lat="48.229179" lon="16.415954">
                <ele>168</ele>
            </trkpt>
            <trkpt lat="48.2289" lon="16.41627">
                <ele>168</ele>
            </trkpt>
            <trkpt lat="48.228927" lon="16.416356">
                <ele>168</ele>
            </trkpt>
            <trkpt lat="48.22891" lon="16.416434">
                <ele>168</ele>
            </trkpt>
            <trkpt lat="48.228834" lon="16.416474">
                <ele>168</ele>
            </trkpt>
            <trkpt lat="48.228744" lon="16.416583">
                <ele>168</ele>
            </trkpt>
            <trkpt lat="48.228677" lon="16.416731">
                <ele>168</ele>
            </trkpt>
            <trkpt lat="48.228576" lon="16.416873">
                <ele>168</ele>
            </trkpt>
            <trkpt lat="48.228573" lon="16.416957">
                <ele>168</ele>
            </trkpt>
            <trkpt lat="48.228598" lon="16.417022">
                <ele>168</ele>
            </trkpt>
            <trkpt lat="48.228593" lon="16.417062">
                <ele>168</ele>
            </trkpt>
            <trkpt lat="48.228657" lon="16.417365">
                <ele>166</ele>
            </trkpt>
            <trkpt lat="48.228718" lon="16.417446">
                <ele>166</ele>
            </trkpt>
            <trkpt lat="48.228848" lon="16.417493">
                <ele>166</ele>
            </trkpt>
            <trkpt lat="48.228856" lon="16.417664">
                <ele>166</ele>
            </trkpt>
            <trkpt lat="48.228931" lon="16.417944">
                <ele>166</ele>
            </trkpt>
            <trkpt lat="48.228921" lon="16.417982">
                <ele>166</ele>
            </trkpt>
            <trkpt lat="48.22875" lon="16.418211">
                <ele>163</ele>
            </trkpt>
            <trkpt lat="48.228779" lon="16.418264">
                <ele>163</ele>
            </trkpt>
            <trkpt lat="48.228797" lon="16.418297">
                <ele>163</ele>
            </trkpt>
            <trkpt lat="48.228493" lon="16.418704">
                <ele>163</ele>
            </trkpt>
            <trkpt lat="48.228191" lon="16.41911">
                <ele>160</ele>
            </trkpt>
            <trkpt lat="48.228172" lon="16.419133">
                <ele>160</ele>
            </trkpt>
            <trkpt lat="48.228101" lon="16.419235">
                <ele>160</ele>
            </trkpt>
        </trkseg>
    </trk>
</gpx>